<?xml version="1.0" encoding="UTF-8"?>
<gpx xmlns="http://www.topografix.com/GPX/1/1" xmlns:gpxtpx="http://www.garmin.com/xmlschemas/TrackPointExtension/v1" xmlns:xsi="http://www.w3.org/2001/XMLSchema-instance" xsi:schemaLocation="http://www.topografix.com/GPX/1/1 http://www.topografix.com/GPX/1/1/gpx.xsd" version="1.1" creator="gpx.py -- https://github.com/tkrajina/gpxpy">
  <trk>
    <name>gpx from keep</name>
    <type>Run</type>
    <trkseg>
      <trkpt lat="39.91391923528269" lon="116.18584620718735">
        <ele>67.950439453125</ele>
        <time>2026-08-30T11:20:49Z</time>
      </trkpt>
      <trkpt lat="39.91392361864148" lon="116.18548727102204">
        <ele>67.52392578125</ele>
        <time>2026-08-30T11:21:07Z</time>
      </trkpt>
      <trkpt lat="39.91390992126088" lon="116.18508221376294">
        <ele>65.48028564453125</ele>
        <time>2026-08-30T11:21:25Z</time>
      </trkpt>
      <trkpt lat="39.91390830952409" lon="116.18472828598519">
        <ele>66.9520263671875</ele>
        <time>2026-08-30T11:21:40Z</time>
      </trkpt>
      <trkpt lat="39.913908502612045" lon="116.18426306244305">
        <ele>67.5565185546875</ele>
        <time>2026-08-30T11:22:01Z</time>
      </trkpt>
      <trkpt lat="39.913936002583" lon="116.18397630276021">
        <ele>70.6571044921875</ele>
        <time>2026-08-30T11:22:13Z</time>
      </trkpt>
      <trkpt lat="39.91391469067599" lon="116.1837968313388">
        <ele>69.1004638671875</ele>
        <time>2026-08-30T11:22:19Z</time>
      </trkpt>
      <trkpt lat="39.91391103935285" lon="116.18342384459159">
        <ele>67.9300537109375</ele>
        <time>2026-08-30T11:22:34Z</time>
      </trkpt>
      <trkpt lat="39.91390720143693" lon="116.18294557547482">
        <ele>68.10223388671875</ele>
        <time>2026-08-30T11:22:55Z</time>
      </trkpt>
      <trkpt lat="39.913942104898744" lon="116.18289142710005">
        <ele>67.9627685546875</ele>
        <time>2026-08-30T11:22:58Z</time>
      </trkpt>
      <trkpt lat="39.91396286619198" lon="116.18275606428803">
        <ele>67.64910888671875</ele>
        <time>2026-08-30T11:23:04Z</time>
      </trkpt>
      <trkpt lat="39.91398523871836" lon="116.18240011272339">
        <ele>74.925537109375</ele>
        <time>2026-08-30T11:23:16Z</time>
      </trkpt>
      <trkpt lat="39.91400587415371" lon="116.18202183238">
        <ele>74.130126953125</ele>
        <time>2026-08-30T11:23:31Z</time>
      </trkpt>
      <trkpt lat="39.914019087773525" lon="116.18174936829237">
        <ele>74.9676513671875</ele>
        <time>2026-08-30T11:23:40Z</time>
      </trkpt>
      <trkpt lat="39.91405257281177" lon="116.18145958686779">
        <ele>71.99444580078125</ele>
        <time>2026-08-30T11:23:52Z</time>
      </trkpt>
      <trkpt lat="39.914033953874124" lon="116.1811106514752">
        <ele>72.741943359375</ele>
        <time>2026-08-30T11:24:04Z</time>
      </trkpt>
      <trkpt lat="39.914038446877015" lon="116.18082588416493">
        <ele>69.099609375</ele>
        <time>2026-08-30T11:24:16Z</time>
      </trkpt>
      <trkpt lat="39.914310287128046" lon="116.18074262565763">
        <ele>68.9979248046875</ele>
        <time>2026-08-30T11:24:37Z</time>
      </trkpt>
      <trkpt lat="39.914372268432764" lon="116.18073359353322">
        <ele>70.63751220703125</ele>
        <time>2026-08-30T11:24:43Z</time>
      </trkpt>
      <trkpt lat="39.91435923680934" lon="116.18071554650443">
        <ele>69.87371826171875</ele>
        <time>2026-08-30T11:24:58Z</time>
      </trkpt>
      <trkpt lat="39.9144205093788" lon="116.18030944242962">
        <ele>67.669189453125</ele>
        <time>2026-08-30T11:26:37Z</time>
      </trkpt>
      <trkpt lat="39.914634432269025" lon="116.18027131252812">
        <ele>67.4918212890625</ele>
        <time>2026-08-30T11:26:49Z</time>
      </trkpt>
      <trkpt lat="39.91469244595995" lon="116.18028032963032">
        <ele>68.99505615234375</ele>
        <time>2026-08-30T11:26:52Z</time>
      </trkpt>
      <trkpt lat="39.91474441688717" lon="116.18026528243236">
        <ele>69.056396484375</ele>
        <time>2026-08-30T11:26:55Z</time>
      </trkpt>
      <trkpt lat="39.9148173116294" lon="116.18020811871546">
        <ele>67.1339111328125</ele>
        <time>2026-08-30T11:27:01Z</time>
      </trkpt>
      <trkpt lat="39.914877289382105" lon="116.18019708134187">
        <ele>66.509765625</ele>
        <time>2026-08-30T11:27:04Z</time>
      </trkpt>
      <trkpt lat="39.91503738126705" lon="116.18025221034857">
        <ele>69.09051513671875</ele>
        <time>2026-08-30T11:27:10Z</time>
      </trkpt>
      <trkpt lat="39.915211287900576" lon="116.1802040583249">
        <ele>67.466552734375</ele>
        <time>2026-08-30T11:27:19Z</time>
      </trkpt>
      <trkpt lat="39.915232147120925" lon="116.18012584412399">
        <ele>65.293701171875</ele>
        <time>2026-08-30T11:27:25Z</time>
      </trkpt>
      <trkpt lat="39.915207860949074" lon="116.17996541287967">
        <ele>61.171142578125</ele>
        <time>2026-08-30T11:27:34Z</time>
      </trkpt>
      <trkpt lat="39.915244500027995" lon="116.17976486484987">
        <ele>57.34765625</ele>
        <time>2026-08-30T11:27:40Z</time>
      </trkpt>
      <trkpt lat="39.91538409834934" lon="116.17954424883175">
        <ele>61.569580078125</ele>
        <time>2026-08-30T11:27:49Z</time>
      </trkpt>
      <trkpt lat="39.91540578221679" lon="116.17936876954214">
        <ele>63.037353515625</ele>
        <time>2026-08-30T11:27:55Z</time>
      </trkpt>
      <trkpt lat="39.91540312203013" lon="116.17900177173377">
        <ele>63.73455810546875</ele>
        <time>2026-08-30T11:28:10Z</time>
      </trkpt>
      <trkpt lat="39.91537538189363" lon="116.17859065480921">
        <ele>66.80010986328125</ele>
        <time>2026-08-30T11:28:25Z</time>
      </trkpt>
      <trkpt lat="39.915369081545315" lon="116.17842420130128">
        <ele>67.90802001953125</ele>
        <time>2026-08-30T11:28:31Z</time>
      </trkpt>
      <trkpt lat="39.915381946910216" lon="116.17834999704047">
        <ele>66.57769775390625</ele>
        <time>2026-08-30T11:28:34Z</time>
      </trkpt>
      <trkpt lat="39.915445889848776" lon="116.17831990682122">
        <ele>66.76416015625</ele>
        <time>2026-08-30T11:28:37Z</time>
      </trkpt>
      <trkpt lat="39.91575789307801" lon="116.17832889221634">
        <ele>73.11285400390625</ele>
        <time>2026-08-30T11:28:52Z</time>
      </trkpt>
      <trkpt lat="39.91606378236447" lon="116.17827470578865">
        <ele>84.86407470703125</ele>
        <time>2026-08-30T11:29:07Z</time>
      </trkpt>
      <trkpt lat="39.9163207589153" lon="116.17826765427267">
        <ele>85.2406005859375</ele>
        <time>2026-08-30T11:29:19Z</time>
      </trkpt>
      <trkpt lat="39.916386821422215" lon="116.1783037445936">
        <ele>77.86041259765625</ele>
        <time>2026-08-30T11:29:25Z</time>
      </trkpt>
      <trkpt lat="39.91636606366014" lon="116.17788460088043">
        <ele>75.71807861328125</ele>
        <time>2026-08-30T11:29:40Z</time>
      </trkpt>
      <trkpt lat="39.91634738427664" lon="116.17750957560924">
        <ele>75.29620361328125</ele>
        <time>2026-08-30T11:29:55Z</time>
      </trkpt>
      <trkpt lat="39.91637169817481" lon="116.17713253761639">
        <ele>73.21917724609375</ele>
        <time>2026-08-30T11:30:10Z</time>
      </trkpt>
      <trkpt lat="39.91637605185328" lon="116.1767775610736">
        <ele>73.2889404296875</ele>
        <time>2026-08-30T11:30:25Z</time>
      </trkpt>
      <trkpt lat="39.916376353393765" lon="116.17639450613596">
        <ele>74.99462890625</ele>
        <time>2026-08-30T11:30:43Z</time>
      </trkpt>
      <trkpt lat="39.916370611818856" lon="116.17598838656819">
        <ele>77.230224609375</ele>
        <time>2026-08-30T11:30:58Z</time>
      </trkpt>
      <trkpt lat="39.91635692068938" lon="116.17561034377503">
        <ele>80.13134765625</ele>
        <time>2026-08-30T11:31:13Z</time>
      </trkpt>
      <trkpt lat="39.91633416447836" lon="116.17519720336577">
        <ele>78.068115234375</ele>
        <time>2026-08-30T11:31:31Z</time>
      </trkpt>
      <trkpt lat="39.91633973916988" lon="116.17496556086095">
        <ele>79.1490478515625</ele>
        <time>2026-08-30T11:31:40Z</time>
      </trkpt>
      <trkpt lat="39.916319388262494" lon="116.17477403233809">
        <ele>74.0059814453125</ele>
        <time>2026-08-30T11:31:49Z</time>
      </trkpt>
      <trkpt lat="39.91629127335712" lon="116.17471086062291">
        <ele>73.2384033203125</ele>
        <time>2026-08-30T11:31:52Z</time>
      </trkpt>
      <trkpt lat="39.91623821476152" lon="116.17467777548961">
        <ele>72.535888671875</ele>
        <time>2026-08-30T11:31:55Z</time>
      </trkpt>
      <trkpt lat="39.9159481937283" lon="116.1746597619374">
        <ele>71.730224609375</ele>
        <time>2026-08-30T11:32:10Z</time>
      </trkpt>
      <trkpt lat="39.91563324563153" lon="116.17468086004517">
        <ele>71.0799560546875</ele>
        <time>2026-08-30T11:32:25Z</time>
      </trkpt>
      <trkpt lat="39.91545126432202" lon="116.17468689966348">
        <ele>70.66375732421875</ele>
        <time>2026-08-30T11:32:34Z</time>
      </trkpt>
      <trkpt lat="39.91539023739446" lon="116.17467086283149">
        <ele>70.12847900390625</ele>
        <time>2026-08-30T11:32:37Z</time>
      </trkpt>
      <trkpt lat="39.9153411436059" lon="116.17461872431006">
        <ele>70.14373779296875</ele>
        <time>2026-08-30T11:32:40Z</time>
      </trkpt>
      <trkpt lat="39.91530901958523" lon="116.17455053908544">
        <ele>70.48919677734375</ele>
        <time>2026-08-30T11:32:43Z</time>
      </trkpt>
      <trkpt lat="39.91529788727431" lon="116.17447834003278">
        <ele>70.8492431640625</ele>
        <time>2026-08-30T11:32:46Z</time>
      </trkpt>
      <trkpt lat="39.91525679492671" lon="116.17442720318945">
        <ele>70.90924072265625</ele>
        <time>2026-08-30T11:32:49Z</time>
      </trkpt>
      <trkpt lat="39.91513967807722" lon="116.17436103411524">
        <ele>70.88067626953125</ele>
        <time>2026-08-30T11:32:55Z</time>
      </trkpt>
      <trkpt lat="39.91485471034723" lon="116.17437210065565">
        <ele>69.63934326171875</ele>
        <time>2026-08-30T11:33:10Z</time>
      </trkpt>
      <trkpt lat="39.91454975638383" lon="116.17439018920919">
        <ele>68.37884521484375</ele>
        <time>2026-08-30T11:33:25Z</time>
      </trkpt>
      <trkpt lat="39.91424974687417" lon="116.17437819357828">
        <ele>71.34722900390625</ele>
        <time>2026-08-30T11:33:40Z</time>
      </trkpt>
      <trkpt lat="39.91396276634844" lon="116.17438224087125">
        <ele>71.80572509765625</ele>
        <time>2026-08-30T11:33:55Z</time>
      </trkpt>
      <trkpt lat="39.91367676918749" lon="116.17437726297159">
        <ele>70.8978271484375</ele>
        <time>2026-08-30T11:34:10Z</time>
      </trkpt>
      <trkpt lat="39.913368798797286" lon="116.1743863268342">
        <ele>71.92620849609375</ele>
        <time>2026-08-30T11:34:25Z</time>
      </trkpt>
      <trkpt lat="39.913314764178764" lon="116.17436627793322">
        <ele>70.62908935546875</ele>
        <time>2026-08-30T11:34:28Z</time>
      </trkpt>
      <trkpt lat="39.91335608112253" lon="116.17399624422984">
        <ele>71.5335693359375</ele>
        <time>2026-08-30T11:34:43Z</time>
      </trkpt>
      <trkpt lat="39.913370818079756" lon="116.17385384623833">
        <ele>70.49908447265625</ele>
        <time>2026-08-30T11:34:49Z</time>
      </trkpt>
      <trkpt lat="39.91335903536166" lon="116.17379551683918">
        <ele>70.373779296875</ele>
        <time>2026-08-30T11:34:52Z</time>
      </trkpt>
      <trkpt lat="39.913355012218815" lon="116.1734166307734">
        <ele>71.85919189453125</ele>
        <time>2026-08-30T11:35:04Z</time>
      </trkpt>
      <trkpt lat="39.913368591277184" lon="116.17318899453355">
        <ele>73.50408935546875</ele>
        <time>2026-08-30T11:35:13Z</time>
      </trkpt>
      <trkpt lat="39.913350469764595" lon="116.17312281224494">
        <ele>74.075927734375</ele>
        <time>2026-08-30T11:35:19Z</time>
      </trkpt>
      <trkpt lat="39.91327642842215" lon="116.17309875444909">
        <ele>74.99365234375</ele>
        <time>2026-08-30T11:35:25Z</time>
      </trkpt>
      <trkpt lat="39.913152435516224" lon="116.17309977287138">
        <ele>72.1788330078125</ele>
        <time>2026-08-30T11:35:31Z</time>
      </trkpt>
      <trkpt lat="39.91285652029688" lon="116.17313891923826">
        <ele>66.24774169921875</ele>
        <time>2026-08-30T11:35:46Z</time>
      </trkpt>
      <trkpt lat="39.9125535664745" lon="116.17315700775292">
        <ele>68.190673828125</ele>
        <time>2026-08-30T11:36:01Z</time>
      </trkpt>
      <trkpt lat="39.91224656466618" lon="116.17314902406615">
        <ele>65.766845703125</ele>
        <time>2026-08-30T11:36:16Z</time>
      </trkpt>
      <trkpt lat="39.91192360245645" lon="116.1731621011168">
        <ele>69.24169921875</ele>
        <time>2026-08-30T11:36:31Z</time>
      </trkpt>
      <trkpt lat="39.911665657876085" lon="116.17318620073148">
        <ele>70.71527099609375</ele>
        <time>2026-08-30T11:36:43Z</time>
      </trkpt>
      <trkpt lat="39.911399609904244" lon="116.17315414477152">
        <ele>71.123291015625</ele>
        <time>2026-08-30T11:36:55Z</time>
      </trkpt>
      <trkpt lat="39.9113435289121" lon="116.17310902598746">
        <ele>71.4892578125</ele>
        <time>2026-08-30T11:36:58Z</time>
      </trkpt>
      <trkpt lat="39.911303387924065" lon="116.17303181566137">
        <ele>71.82843017578125</ele>
        <time>2026-08-30T11:37:01Z</time>
      </trkpt>
      <trkpt lat="39.91132049505828" lon="116.17254946693913">
        <ele>75.81982421875</ele>
        <time>2026-08-30T11:37:22Z</time>
      </trkpt>
      <trkpt lat="39.911324783618305" lon="116.17216539286194">
        <ele>79.76141357421875</ele>
        <time>2026-08-30T11:37:37Z</time>
      </trkpt>
      <trkpt lat="39.91133105089642" lon="116.17177028654359">
        <ele>82.0087890625</ele>
        <time>2026-08-30T11:37:52Z</time>
      </trkpt>
      <trkpt lat="39.911332293450805" lon="116.17136214321236">
        <ele>85.58636474609375</ele>
        <time>2026-08-30T11:38:07Z</time>
      </trkpt>
      <trkpt lat="39.91135452133619" lon="116.17094697642376">
        <ele>84.5911865234375</ele>
        <time>2026-08-30T11:38:22Z</time>
      </trkpt>
      <trkpt lat="39.91136223769447" lon="116.17079454781658">
        <ele>82.50457763671875</ele>
        <time>2026-08-30T11:38:28Z</time>
      </trkpt>
      <trkpt lat="39.911342122961614" lon="116.17073237588201">
        <ele>81.4227294921875</ele>
        <time>2026-08-30T11:38:31Z</time>
      </trkpt>
      <trkpt lat="39.911285043350475" lon="116.17068825924743">
        <ele>80.76812744140625</ele>
        <time>2026-08-30T11:38:34Z</time>
      </trkpt>
      <trkpt lat="39.911086014529374" lon="116.17066822805408">
        <ele>78.32696533203125</ele>
        <time>2026-08-30T11:38:43Z</time>
      </trkpt>
      <trkpt lat="39.91088103444942" lon="116.17067427078987">
        <ele>79.5679931640625</ele>
        <time>2026-08-30T11:38:52Z</time>
      </trkpt>
      <trkpt lat="39.91083997093322" lon="116.17063917745422">
        <ele>79.55706787109375</ele>
        <time>2026-08-30T11:38:55Z</time>
      </trkpt>
      <trkpt lat="39.910788309021996" lon="116.170282181531">
        <ele>76.7890625</ele>
        <time>2026-08-30T11:39:10Z</time>
      </trkpt>
      <trkpt lat="39.910805511130825" lon="116.1698539760538">
        <ele>74.975830078125</ele>
        <time>2026-08-30T11:39:28Z</time>
      </trkpt>
      <trkpt lat="39.91081177478664" lon="116.16945886410144">
        <ele>73.6500244140625</ele>
        <time>2026-08-30T11:39:43Z</time>
      </trkpt>
      <trkpt lat="39.9107911008401" lon="116.16909684795252">
        <ele>75.35498046875</ele>
        <time>2026-08-30T11:39:58Z</time>
      </trkpt>
      <trkpt lat="39.9107824260358" lon="116.1687348297066">
        <ele>77.8389892578125</ele>
        <time>2026-08-30T11:40:16Z</time>
      </trkpt>
      <trkpt lat="39.91078270562264" lon="116.16834874197404">
        <ele>75.657958984375</ele>
        <time>2026-08-30T11:40:37Z</time>
      </trkpt>
      <trkpt lat="39.91080092047717" lon="116.16792855529711">
        <ele>70.895263671875</ele>
        <time>2026-08-30T11:40:55Z</time>
      </trkpt>
      <trkpt lat="39.91081222709749" lon="116.16755750751605">
        <ele>71.351318359375</ele>
        <time>2026-08-30T11:41:10Z</time>
      </trkpt>
      <trkpt lat="39.9108295407562" lon="116.16719046989569">
        <ele>71.49700927734375</ele>
        <time>2026-08-30T11:41:25Z</time>
      </trkpt>
      <trkpt lat="39.91081976734106" lon="116.16677630232303">
        <ele>70.8004150390625</ele>
        <time>2026-08-30T11:41:40Z</time>
      </trkpt>
      <trkpt lat="39.91081002376684" lon="116.16637817968632">
        <ele>72.2607421875</ele>
        <time>2026-08-30T11:41:55Z</time>
      </trkpt>
      <trkpt lat="39.91079426724448" lon="116.16597303771655">
        <ele>72.8546142578125</ele>
        <time>2026-08-30T11:42:10Z</time>
      </trkpt>
      <trkpt lat="39.91076451128339" lon="116.1655678973038">
        <ele>73.9229736328125</ele>
        <time>2026-08-30T11:42:25Z</time>
      </trkpt>
      <trkpt lat="39.91069596503402" lon="116.16527407606131">
        <ele>74.81036376953125</ele>
        <time>2026-08-30T11:42:37Z</time>
      </trkpt>
      <trkpt lat="39.91066121684316" lon="116.16487294740605">
        <ele>78.153076171875</ele>
        <time>2026-08-30T11:42:52Z</time>
      </trkpt>
      <trkpt lat="39.91062747808148" lon="116.16447683276016">
        <ele>77.280517578125</ele>
        <time>2026-08-30T11:43:07Z</time>
      </trkpt>
      <trkpt lat="39.91060170353677" lon="116.1640616633283">
        <ele>75.16552734375</ele>
        <time>2026-08-30T11:43:22Z</time>
      </trkpt>
      <trkpt lat="39.91054692857631" lon="116.16364549484315">
        <ele>77.593505859375</ele>
        <time>2026-08-30T11:43:37Z</time>
      </trkpt>
      <trkpt lat="39.91049938385016" lon="116.16335267392695">
        <ele>76.59136962890625</ele>
        <time>2026-08-30T11:43:49Z</time>
      </trkpt>
      <trkpt lat="39.91047329135625" lon="116.16330253563925">
        <ele>75.73309326171875</ele>
        <time>2026-08-30T11:43:52Z</time>
      </trkpt>
      <trkpt lat="39.91041229957512" lon="116.16330555184311">
        <ele>75.56103515625</ele>
        <time>2026-08-30T11:43:55Z</time>
      </trkpt>
      <trkpt lat="39.91014268367126" lon="116.16350514944865">
        <ele>76.02008056640625</ele>
        <time>2026-08-30T11:44:10Z</time>
      </trkpt>
      <trkpt lat="39.90997890975887" lon="116.16362250148994">
        <ele>76.7747802734375</ele>
        <time>2026-08-30T11:44:19Z</time>
      </trkpt>
      <trkpt lat="39.90993202599807" lon="116.16368368017258">
        <ele>76.8236083984375</ele>
        <time>2026-08-30T11:44:22Z</time>
      </trkpt>
      <trkpt lat="39.90964939581116" lon="116.16387525684102">
        <ele>77.605712890625</ele>
        <time>2026-08-30T11:44:37Z</time>
      </trkpt>
      <trkpt lat="39.9093917458861" lon="116.16405680205506">
        <ele>76.2603759765625</ele>
        <time>2026-08-30T11:44:55Z</time>
      </trkpt>
      <trkpt lat="39.90929721267585" lon="116.16430451362477">
        <ele>74.171142578125</ele>
        <time>2026-08-30T11:45:13Z</time>
      </trkpt>
      <trkpt lat="39.90932836123115" lon="116.16438473629468">
        <ele>70.82598876953125</ele>
        <time>2026-08-30T11:45:19Z</time>
      </trkpt>
      <trkpt lat="39.90940852643087" lon="116.16447498110023">
        <ele>69.93353271484375</ele>
        <time>2026-08-30T11:45:25Z</time>
      </trkpt>
      <trkpt lat="39.909424636294105" lon="116.16453414618934">
        <ele>68.873291015625</ele>
        <time>2026-08-30T11:45:28Z</time>
      </trkpt>
      <trkpt lat="39.90923619343111" lon="116.164827999956">
        <ele>68.5325927734375</ele>
        <time>2026-08-30T11:45:43Z</time>
      </trkpt>
      <trkpt lat="39.9092032997887" lon="116.16488416273782">
        <ele>68.542236328125</ele>
        <time>2026-08-30T11:45:46Z</time>
      </trkpt>
      <trkpt lat="39.90918984199883" lon="116.16517398305093">
        <ele>69.06170654296875</ele>
        <time>2026-08-30T11:45:58Z</time>
      </trkpt>
      <trkpt lat="39.909193589681585" lon="116.16557411270256">
        <ele>65.64141845703125</ele>
        <time>2026-08-30T11:46:13Z</time>
      </trkpt>
      <trkpt lat="39.90918390498567" lon="116.16574258972913">
        <ele>65.33062744140625</ele>
        <time>2026-08-30T11:46:19Z</time>
      </trkpt>
      <trkpt lat="39.90921336480711" lon="116.16598928266585">
        <ele>65.49700927734375</ele>
        <time>2026-08-30T11:46:28Z</time>
      </trkpt>
      <trkpt lat="39.909202150592435" lon="116.16640947047318">
        <ele>66.4896240234375</ele>
        <time>2026-08-30T11:46:43Z</time>
      </trkpt>
      <trkpt lat="39.9092394544703" lon="116.16657292721658">
        <ele>66.817138671875</ele>
        <time>2026-08-30T11:46:49Z</time>
      </trkpt>
      <trkpt lat="39.90922391050607" lon="116.16681661701702">
        <ele>66.9749755859375</ele>
        <time>2026-08-30T11:46:58Z</time>
      </trkpt>
      <trkpt lat="39.9090944444451" lon="116.16709943143087">
        <ele>66.9775390625</ele>
        <time>2026-08-30T11:47:10Z</time>
      </trkpt>
      <trkpt lat="39.90903952548976" lon="116.16714155720867">
        <ele>66.99810791015625</ele>
        <time>2026-08-30T11:47:13Z</time>
      </trkpt>
      <trkpt lat="39.90874273306886" lon="116.16724588893587">
        <ele>68.835205078125</ele>
        <time>2026-08-30T11:47:28Z</time>
      </trkpt>
      <trkpt lat="39.908433776319185" lon="116.16726197320222">
        <ele>70.8380126953125</ele>
        <time>2026-08-30T11:47:43Z</time>
      </trkpt>
      <trkpt lat="39.90819079613794" lon="116.16726701801788">
        <ele>72.59942626953125</ele>
        <time>2026-08-30T11:47:55Z</time>
      </trkpt>
      <trkpt lat="39.907901566916" lon="116.16713768953213">
        <ele>72.80841064453125</ele>
        <time>2026-08-30T11:48:10Z</time>
      </trkpt>
      <trkpt lat="39.90767837793509" lon="116.16703141775764">
        <ele>72.21435546875</ele>
        <time>2026-08-30T11:48:22Z</time>
      </trkpt>
      <trkpt lat="39.9074983557216" lon="116.16701539520417">
        <ele>71.6278076171875</ele>
        <time>2026-08-30T11:48:31Z</time>
      </trkpt>
      <trkpt lat="39.907235599390845" lon="116.1671397792514">
        <ele>69.357177734375</ele>
        <time>2026-08-30T11:48:46Z</time>
      </trkpt>
      <trkpt lat="39.90703012906374" lon="116.167418591693">
        <ele>68.2237548828125</ele>
        <time>2026-08-30T11:49:01Z</time>
      </trkpt>
      <trkpt lat="39.906980539528476" lon="116.16763721455983">
        <ele>68.86181640625</ele>
        <time>2026-08-30T11:49:10Z</time>
      </trkpt>
      <trkpt lat="39.90699426548758" lon="116.16802630991855">
        <ele>67.1956787109375</ele>
        <time>2026-08-30T11:49:25Z</time>
      </trkpt>
      <trkpt lat="39.90710303197862" lon="116.1684394605879">
        <ele>67.5244140625</ele>
        <time>2026-08-30T11:49:40Z</time>
      </trkpt>
      <trkpt lat="39.90716047857023" lon="116.16868013133475">
        <ele>68.33343505859375</ele>
        <time>2026-08-30T11:49:49Z</time>
      </trkpt>
      <trkpt lat="39.90708623180127" lon="116.16908227298867">
        <ele>67.5184326171875</ele>
        <time>2026-08-30T11:50:04Z</time>
      </trkpt>
      <trkpt lat="39.90705453605507" lon="116.1692447342195">
        <ele>67.1876220703125</ele>
        <time>2026-08-30T11:50:10Z</time>
      </trkpt>
      <trkpt lat="39.907064849634146" lon="116.16941320695753">
        <ele>66.7230224609375</ele>
        <time>2026-08-30T11:50:16Z</time>
      </trkpt>
      <trkpt lat="39.90715426247345" lon="116.16963682470099">
        <ele>67.1268310546875</ele>
        <time>2026-08-30T11:50:25Z</time>
      </trkpt>
      <trkpt lat="39.907189557966916" lon="116.1697962685926">
        <ele>68.6005859375</ele>
        <time>2026-08-30T11:50:31Z</time>
      </trkpt>
      <trkpt lat="39.907276772708784" lon="116.1699135874233">
        <ele>67.7340087890625</ele>
        <time>2026-08-30T11:50:37Z</time>
      </trkpt>
      <trkpt lat="39.90736393513122" lon="116.17000282727908">
        <ele>67.68316650390625</ele>
        <time>2026-08-30T11:50:43Z</time>
      </trkpt>
      <trkpt lat="39.90735806794107" lon="116.17007402810297">
        <ele>68.89215087890625</ele>
        <time>2026-08-30T11:50:49Z</time>
      </trkpt>
      <trkpt lat="39.90737220920292" lon="116.17015024046363">
        <ele>68.70782470703125</ele>
        <time>2026-08-30T11:50:55Z</time>
      </trkpt>
      <trkpt lat="39.90736736432875" lon="116.17023347490566">
        <ele>68.368408203125</ele>
        <time>2026-08-30T11:51:01Z</time>
      </trkpt>
      <trkpt lat="39.907391540569265" lon="116.17032873944753">
        <ele>67.53082275390625</ele>
        <time>2026-08-30T11:51:07Z</time>
      </trkpt>
      <trkpt lat="39.907671593792635" lon="116.17036380270746">
        <ele>69.31268310546875</ele>
        <time>2026-08-30T11:51:22Z</time>
      </trkpt>
      <trkpt lat="39.90780061994874" lon="116.1703808343139">
        <ele>69.70989990234375</ele>
        <time>2026-08-30T11:51:28Z</time>
      </trkpt>
      <trkpt lat="39.90782872321595" lon="116.17043698846776">
        <ele>69.61785888671875</ele>
        <time>2026-08-30T11:51:31Z</time>
      </trkpt>
      <trkpt lat="39.90782621570705" lon="116.17070173196574">
        <ele>69.43115234375</ele>
        <time>2026-08-30T11:51:40Z</time>
      </trkpt>
      <trkpt lat="39.90783390685994" lon="116.17107377466884">
        <ele>66.03192138671875</ele>
        <time>2026-08-30T11:51:55Z</time>
      </trkpt>
      <trkpt lat="39.90782764643411" lon="116.17147189128364">
        <ele>67.97210693359375</ele>
        <time>2026-08-30T11:52:10Z</time>
      </trkpt>
      <trkpt lat="39.90783243316879" lon="116.17189607838841">
        <ele>69.3145751953125</ele>
        <time>2026-08-30T11:52:25Z</time>
      </trkpt>
      <trkpt lat="39.90784820928003" lon="116.17231524878588">
        <ele>70.3736572265625</ele>
        <time>2026-08-30T11:52:40Z</time>
      </trkpt>
      <trkpt lat="39.90786999907312" lon="116.172742439475">
        <ele>72.2392578125</ele>
        <time>2026-08-30T11:52:55Z</time>
      </trkpt>
      <trkpt lat="39.907867560999016" lon="116.173046287738">
        <ele>70.0399169921875</ele>
        <time>2026-08-30T11:53:07Z</time>
      </trkpt>
      <trkpt lat="39.9078556912304" lon="116.17311648502142">
        <ele>67.19525146484375</ele>
        <time>2026-08-30T11:53:13Z</time>
      </trkpt>
      <trkpt lat="39.90790040040018" lon="116.17350155267373">
        <ele>66.3568115234375</ele>
        <time>2026-08-30T11:53:28Z</time>
      </trkpt>
      <trkpt lat="39.907906160256566" lon="116.17391369924134">
        <ele>66.44732666015625</ele>
        <time>2026-08-30T11:53:43Z</time>
      </trkpt>
      <trkpt lat="39.90792389268374" lon="116.17431180372631">
        <ele>68.31402587890625</ele>
        <time>2026-08-30T11:53:58Z</time>
      </trkpt>
      <trkpt lat="39.90792562843341" lon="116.17471191425822">
        <ele>68.81927490234375</ele>
        <time>2026-08-30T11:54:13Z</time>
      </trkpt>
      <trkpt lat="39.907903358586076" lon="116.17510901786906">
        <ele>68.52252197265625</ele>
        <time>2026-08-30T11:54:28Z</time>
      </trkpt>
      <trkpt lat="39.90788010784574" lon="116.17551715046274">
        <ele>68.2274169921875</ele>
        <time>2026-08-30T11:54:43Z</time>
      </trkpt>
      <trkpt lat="39.90785778244971" lon="116.17588517036744">
        <ele>66.6998291015625</ele>
        <time>2026-08-30T11:54:58Z</time>
      </trkpt>
      <trkpt lat="39.90785644959505" lon="116.1762501778151">
        <ele>67.35791015625</ele>
        <time>2026-08-30T11:55:13Z</time>
      </trkpt>
      <trkpt lat="39.9078681882177" lon="116.17665529250064">
        <ele>67.68023681640625</ele>
        <time>2026-08-30T11:55:31Z</time>
      </trkpt>
      <trkpt lat="39.90788493619071" lon="116.17706642112448">
        <ele>67.876953125</ele>
        <time>2026-08-30T11:55:49Z</time>
      </trkpt>
      <trkpt lat="39.90789360838436" lon="116.17743643590616">
        <ele>69.87835693359375</ele>
        <time>2026-08-30T11:56:04Z</time>
      </trkpt>
      <trkpt lat="39.907896346849014" lon="116.17784355128167">
        <ele>72.13433837890625</ele>
        <time>2026-08-30T11:56:22Z</time>
      </trkpt>
      <trkpt lat="39.90789200609165" lon="116.17820754754042">
        <ele>71.47607421875</ele>
        <time>2026-08-30T11:56:37Z</time>
      </trkpt>
      <trkpt lat="39.90789741373019" lon="116.17843316314412">
        <ele>70.14666748046875</ele>
        <time>2026-08-30T11:56:46Z</time>
      </trkpt>
      <trkpt lat="39.90792053047163" lon="116.17849833814483">
        <ele>70.7200927734375</ele>
        <time>2026-08-30T11:56:49Z</time>
      </trkpt>
      <trkpt lat="39.90819561821433" lon="116.17855345403753">
        <ele>67.543212890625</ele>
        <time>2026-08-30T11:57:04Z</time>
      </trkpt>
      <trkpt lat="39.90830260817769" lon="116.17855043237299">
        <ele>69.904296875</ele>
        <time>2026-08-30T11:57:10Z</time>
      </trkpt>
      <trkpt lat="39.908421510712785" lon="116.17849927786868">
        <ele>74.43603515625</ele>
        <time>2026-08-30T11:57:16Z</time>
      </trkpt>
      <trkpt lat="39.908695500744315" lon="116.17850024614253">
        <ele>72.18865966796875</ele>
        <time>2026-08-30T11:57:31Z</time>
      </trkpt>
      <trkpt lat="39.908925469133955" lon="116.17848818437619">
        <ele>67.660400390625</ele>
        <time>2026-08-30T11:57:43Z</time>
      </trkpt>
      <trkpt lat="39.90921430739712" lon="116.1784096118713">
        <ele>64.16064453125</ele>
        <time>2026-08-30T11:57:58Z</time>
      </trkpt>
      <trkpt lat="39.909491430371666" lon="116.17848009129187">
        <ele>73.17486572265625</ele>
        <time>2026-08-30T11:58:07Z</time>
      </trkpt>
      <trkpt lat="39.90961557716055" lon="116.17856430552796">
        <ele>70.09033203125</ele>
        <time>2026-08-30T11:58:13Z</time>
      </trkpt>
      <trkpt lat="39.909912649522624" lon="116.17861139672621">
        <ele>70.71221923828125</ele>
        <time>2026-08-30T11:58:25Z</time>
      </trkpt>
      <trkpt lat="39.909989651658876" lon="116.1786143952458">
        <ele>71.7379150390625</ele>
        <time>2026-08-30T11:58:28Z</time>
      </trkpt>
      <trkpt lat="39.909987774788114" lon="116.17868258143443">
        <ele>67.6448974609375</ele>
        <time>2026-08-30T11:58:31Z</time>
      </trkpt>
      <trkpt lat="39.91028180382979" lon="116.17870560733199">
        <ele>69.7923583984375</ele>
        <time>2026-08-30T11:58:46Z</time>
      </trkpt>
      <trkpt lat="39.910536809221604" lon="116.17871459986036">
        <ele>71.377197265625</ele>
        <time>2026-08-30T11:58:58Z</time>
      </trkpt>
      <trkpt lat="39.91059483930347" lon="116.17873264176535">
        <ele>71.89837646484375</ele>
        <time>2026-08-30T11:59:01Z</time>
      </trkpt>
      <trkpt lat="39.91062995715776" lon="116.1787988177247">
        <ele>71.3848876953125</ele>
        <time>2026-08-30T11:59:04Z</time>
      </trkpt>
      <trkpt lat="39.91059134368907" lon="116.1790124042845">
        <ele>67.50634765625</ele>
        <time>2026-08-30T11:59:13Z</time>
      </trkpt>
      <trkpt lat="39.910604044855525" lon="116.17940246336137">
        <ele>67.703857421875</ele>
        <time>2026-08-30T11:59:28Z</time>
      </trkpt>
      <trkpt lat="39.910616751622825" lon="116.17979653108408">
        <ele>69.169677734375</ele>
        <time>2026-08-30T11:59:43Z</time>
      </trkpt>
      <trkpt lat="39.910592465474494" lon="116.18019461197547">
        <ele>70.68939208984375</ele>
        <time>2026-08-30T12:00:01Z</time>
      </trkpt>
      <trkpt lat="39.910603787609055" lon="116.1803750984443">
        <ele>69.18487548828125</ele>
        <time>2026-08-30T12:00:10Z</time>
      </trkpt>
      <trkpt lat="39.91064385037968" lon="116.18041119092548">
        <ele>69.19061279296875</ele>
        <time>2026-08-30T12:00:13Z</time>
      </trkpt>
      <trkpt lat="39.910898748158345" lon="116.18036002072293">
        <ele>68.227294921875</ele>
        <time>2026-08-30T12:00:28Z</time>
      </trkpt>
      <trkpt lat="39.91101279882836" lon="116.1803910903668">
        <ele>67.77752685546875</ele>
        <time>2026-08-30T12:00:34Z</time>
      </trkpt>
      <trkpt lat="39.91129877052906" lon="116.18038203003302">
        <ele>68.2708740234375</ele>
        <time>2026-08-30T12:00:49Z</time>
      </trkpt>
      <trkpt lat="39.91151666272322" lon="116.180326853618">
        <ele>66.68414306640625</ele>
        <time>2026-08-30T12:01:01Z</time>
      </trkpt>
      <trkpt lat="39.911822638965255" lon="116.18032079888846">
        <ele>68.18902587890625</ele>
        <time>2026-08-30T12:01:16Z</time>
      </trkpt>
      <trkpt lat="39.91211566235852" lon="116.18034081624373">
        <ele>68.3502197265625</ele>
        <time>2026-08-30T12:01:31Z</time>
      </trkpt>
      <trkpt lat="39.91235463788633" lon="116.180332764519">
        <ele>68.69488525390625</ele>
        <time>2026-08-30T12:01:43Z</time>
      </trkpt>
      <trkpt lat="39.91246147205109" lon="116.18024250713808">
        <ele>64.5322265625</ele>
        <time>2026-08-30T12:01:52Z</time>
      </trkpt>
      <trkpt lat="39.91273452680725" lon="116.1802795731107">
        <ele>67.52008056640625</ele>
        <time>2026-08-30T12:02:07Z</time>
      </trkpt>
      <trkpt lat="39.91287455672369" lon="116.18029960971433">
        <ele>67.4832763671875</ele>
        <time>2026-08-30T12:02:13Z</time>
      </trkpt>
      <trkpt lat="39.91291964082582" lon="116.18034773412542">
        <ele>67.60943603515625</ele>
        <time>2026-08-30T12:02:16Z</time>
      </trkpt>
      <trkpt lat="39.912978693861426" lon="116.18037881069122">
        <ele>68.0545654296875</ele>
        <time>2026-08-30T12:02:19Z</time>
      </trkpt>
      <trkpt lat="39.91327064031211" lon="116.180355711669">
        <ele>68.5899658203125</ele>
        <time>2026-08-30T12:02:34Z</time>
      </trkpt>
      <trkpt lat="39.91332166323571" lon="116.18036974318521">
        <ele>70.06158447265625</ele>
        <time>2026-08-30T12:02:40Z</time>
      </trkpt>
      <trkpt lat="39.91331229527966" lon="116.18072369976161">
        <ele>69.0836181640625</ele>
        <time>2026-08-30T12:03:19Z</time>
      </trkpt>
      <trkpt lat="39.9133244805879" lon="116.18082797932905">
        <ele>67.78466796875</ele>
        <time>2026-08-30T12:03:25Z</time>
      </trkpt>
      <trkpt lat="39.91363252115529" lon="116.18085802165693">
        <ele>66.9078369140625</ele>
        <time>2026-08-30T12:03:43Z</time>
      </trkpt>
      <trkpt lat="39.91380253005149" lon="116.18086702459712">
        <ele>61.678466796875</ele>
        <time>2026-08-30T12:03:52Z</time>
      </trkpt>
      <trkpt lat="39.913869502224806" lon="116.1808529783557">
        <ele>62.83782958984375</ele>
        <time>2026-08-30T12:03:55Z</time>
      </trkpt>
      <trkpt lat="39.91389667246899" lon="116.18094923422525">
        <ele>65.5518798828125</ele>
        <time>2026-08-30T12:04:01Z</time>
      </trkpt>
      <trkpt lat="39.91389127705573" lon="116.18128914930517">
        <ele>67.38232421875</ele>
        <time>2026-08-30T12:04:16Z</time>
      </trkpt>
      <trkpt lat="39.91391663723595" lon="116.18149269277316">
        <ele>69.36297607421875</ele>
        <time>2026-08-30T12:04:25Z</time>
      </trkpt>
      <trkpt lat="39.913897046760354" lon="116.18172331376655">
        <ele>69.9857177734375</ele>
        <time>2026-08-30T12:04:34Z</time>
      </trkpt>
      <trkpt lat="39.913924705247375" lon="116.18209630879629">
        <ele>70.05889892578125</ele>
        <time>2026-08-30T12:04:49Z</time>
      </trkpt>
      <trkpt lat="39.913892977395804" lon="116.18224972276788">
        <ele>68.65802001953125</ele>
        <time>2026-08-30T12:04:55Z</time>
      </trkpt>
      <trkpt lat="39.91386659160273" lon="116.18259765439954">
        <ele>66.37530517578125</ele>
        <time>2026-08-30T12:05:10Z</time>
      </trkpt>
      <trkpt lat="39.91391520109948" lon="116.18294557446973">
        <ele>68.147216796875</ele>
        <time>2026-08-30T12:05:25Z</time>
      </trkpt>
      <trkpt lat="39.91389473467686" lon="116.183249383999">
        <ele>70.00738525390625</ele>
        <time>2026-08-30T12:05:37Z</time>
      </trkpt>
      <trkpt lat="39.91393034524685" lon="116.18359930690022">
        <ele>70.9615478515625</ele>
        <time>2026-08-30T12:05:52Z</time>
      </trkpt>
      <trkpt lat="39.91393588555581" lon="116.18390912539027">
        <ele>68.77899169921875</ele>
        <time>2026-08-30T12:06:07Z</time>
      </trkpt>
      <trkpt lat="39.91387952299906" lon="116.18427409513696">
        <ele>69.7529296875</ele>
        <time>2026-08-30T12:06:22Z</time>
      </trkpt>
      <trkpt lat="39.91388819925772" lon="116.18466412000018">
        <ele>72.0263671875</ele>
        <time>2026-08-30T12:06:37Z</time>
      </trkpt>
      <trkpt lat="39.91390359245224" lon="116.18489171538651">
        <ele>70.24298095703125</ele>
        <time>2026-08-30T12:06:46Z</time>
      </trkpt>
      <trkpt lat="39.913898975363985" lon="116.18511329651241">
        <ele>68.2686767578125</ele>
        <time>2026-08-30T12:06:55Z</time>
      </trkpt>
      <trkpt lat="39.91391508538323" lon="116.18517746242873">
        <ele>67.60980224609375</ele>
        <time>2026-08-30T12:06:58Z</time>
      </trkpt>
      <trkpt lat="39.91389720368923" lon="116.18524564301867">
        <ele>66.95513916015625</ele>
        <time>2026-08-30T12:07:01Z</time>
      </trkpt>
      <trkpt lat="39.91392557716349" lon="116.18546320795916">
        <ele>67.93817138671875</ele>
        <time>2026-08-30T12:07:10Z</time>
      </trkpt>
      <trkpt lat="39.91391322522048" lon="116.18584019228295">
        <ele>65.80438232421875</ele>
        <time>2026-08-30T12:07:25Z</time>
      </trkpt>
      <trkpt lat="39.913907383581765" lon="116.1859324330367">
        <ele>65.9404296875</ele>
        <time>2026-08-30T12:07:31Z</time>
      </trkpt>
    </trkseg>
  </trk>
</gpx>