<?xml version="1.0" encoding="UTF-8"?>
<gpx xmlns="http://www.topografix.com/GPX/1/1" xmlns:gpxtpx="http://www.garmin.com/xmlschemas/TrackPointExtension/v1" xmlns:xsi="http://www.w3.org/2001/XMLSchema-instance" xsi:schemaLocation="http://www.topografix.com/GPX/1/1 http://www.topografix.com/GPX/1/1/gpx.xsd" version="1.1" creator="gpx.py -- https://github.com/tkrajina/gpxpy">
  <trk>
    <name>gpx from keep</name>
    <type>Run</type>
    <trkseg>
      <trkpt lat="39.91325919274566" lon="116.18638970143917">
        <ele>52.78668212890625</ele>
        <time>2026-08-18T10:30:16Z</time>
      </trkpt>
      <trkpt lat="39.91326631901049" lon="116.1864638927629">
        <ele>68.685791015625</ele>
        <time>2026-08-18T10:30:19Z</time>
      </trkpt>
      <trkpt lat="39.913226602590306" lon="116.18662932592058">
        <ele>65.08038330078125</ele>
        <time>2026-08-18T10:30:28Z</time>
      </trkpt>
      <trkpt lat="39.91303615103468" lon="116.18694717078588">
        <ele>67.38519287109375</ele>
        <time>2026-08-18T10:30:49Z</time>
      </trkpt>
      <trkpt lat="39.912864703867626" lon="116.18726902139083">
        <ele>63.9593505859375</ele>
        <time>2026-08-18T10:31:13Z</time>
      </trkpt>
      <trkpt lat="39.912707198611514" lon="116.18755778307441">
        <ele>63.29180908203125</ele>
        <time>2026-08-18T10:31:28Z</time>
      </trkpt>
      <trkpt lat="39.91259772540358" lon="116.1878675907668">
        <ele>61.69036865234375</ele>
        <time>2026-08-18T10:31:43Z</time>
      </trkpt>
      <trkpt lat="39.91258633558692" lon="116.18823051958553">
        <ele>62.47955322265625</ele>
        <time>2026-08-18T10:31:58Z</time>
      </trkpt>
      <trkpt lat="39.9125529243982" lon="116.18858141756677">
        <ele>63.50982666015625</ele>
        <time>2026-08-18T10:32:10Z</time>
      </trkpt>
      <trkpt lat="39.91256149431682" lon="116.18892328456039">
        <ele>62.9034423828125</ele>
        <time>2026-08-18T10:32:22Z</time>
      </trkpt>
      <trkpt lat="39.91253509032201" lon="116.18928119373571">
        <ele>62.47711181640625</ele>
        <time>2026-08-18T10:32:34Z</time>
      </trkpt>
      <trkpt lat="39.91255280975387" lon="116.18971628865953">
        <ele>63.5244140625</ele>
        <time>2026-08-18T10:32:49Z</time>
      </trkpt>
      <trkpt lat="39.91255651488812" lon="116.19014436318747">
        <ele>62.22869873046875</ele>
        <time>2026-08-18T10:33:04Z</time>
      </trkpt>
      <trkpt lat="39.91258996595282" lon="116.19042004894659">
        <ele>61.2523193359375</ele>
        <time>2026-08-18T10:33:13Z</time>
      </trkpt>
      <trkpt lat="39.91259559686236" lon="116.19080601101145">
        <ele>61.68896484375</ele>
        <time>2026-08-18T10:33:25Z</time>
      </trkpt>
      <trkpt lat="39.91259320581747" lon="116.19117994051105">
        <ele>61.73760986328125</ele>
        <time>2026-08-18T10:33:37Z</time>
      </trkpt>
      <trkpt lat="39.91258079149718" lon="116.19154083551422">
        <ele>61.7381591796875</ele>
        <time>2026-08-18T10:33:49Z</time>
      </trkpt>
      <trkpt lat="39.91259241244786" lon="116.19192578337646">
        <ele>60.94781494140625</ele>
        <time>2026-08-18T10:34:01Z</time>
      </trkpt>
      <trkpt lat="39.912600979242896" lon="116.1922786491232">
        <ele>61.268310546875</ele>
        <time>2026-08-18T10:34:13Z</time>
      </trkpt>
      <trkpt lat="39.91254033987118" lon="116.19250220417626">
        <ele>63.22955322265625</ele>
        <time>2026-08-18T10:34:28Z</time>
      </trkpt>
      <trkpt lat="39.9125614800025" lon="116.19259041719951">
        <ele>63.63592529296875</ele>
        <time>2026-08-18T10:34:34Z</time>
      </trkpt>
      <trkpt lat="39.91248846067242" lon="116.19257639205027">
        <ele>63.0838623046875</ele>
        <time>2026-08-18T10:34:49Z</time>
      </trkpt>
      <trkpt lat="39.91242647131103" lon="116.1925814120664">
        <ele>62.78350830078125</ele>
        <time>2026-08-18T10:34:55Z</time>
      </trkpt>
      <trkpt lat="39.91248502349405" lon="116.19292925322374">
        <ele>60.31427001953125</ele>
        <time>2026-08-18T10:35:37Z</time>
      </trkpt>
      <trkpt lat="39.91250061955462" lon="116.19330516457032">
        <ele>60.98040771484375</ele>
        <time>2026-08-18T10:35:49Z</time>
      </trkpt>
      <trkpt lat="39.912486184028154" lon="116.19366202984817">
        <ele>62.5738525390625</ele>
        <time>2026-08-18T10:36:01Z</time>
      </trkpt>
      <trkpt lat="39.912438418131025" lon="116.19380939135594">
        <ele>60.1048583984375</ele>
        <time>2026-08-18T10:36:07Z</time>
      </trkpt>
      <trkpt lat="39.91240903607691" lon="116.19420234016235">
        <ele>60.155029296875</ele>
        <time>2026-08-18T10:36:22Z</time>
      </trkpt>
      <trkpt lat="39.91240859651915" lon="116.19456119959881">
        <ele>57.43524169921875</ele>
        <time>2026-08-18T10:36:34Z</time>
      </trkpt>
      <trkpt lat="39.912427150356805" lon="116.19491804824841">
        <ele>56.8634033203125</ele>
        <time>2026-08-18T10:36:46Z</time>
      </trkpt>
      <trkpt lat="39.91245969472538" lon="116.19527088201154">
        <ele>56.14154052734375</ele>
        <time>2026-08-18T10:36:58Z</time>
      </trkpt>
      <trkpt lat="39.912442321632966" lon="116.19567784609595">
        <ele>58.74072265625</ele>
        <time>2026-08-18T10:37:13Z</time>
      </trkpt>
      <trkpt lat="39.912434877243946" lon="116.196040700619">
        <ele>59.60479736328125</ele>
        <time>2026-08-18T10:37:31Z</time>
      </trkpt>
      <trkpt lat="39.912424509222014" lon="116.1964556733663">
        <ele>60.10736083984375</ele>
        <time>2026-08-18T10:37:55Z</time>
      </trkpt>
      <trkpt lat="39.91242199033062" lon="116.19677341405574">
        <ele>61.10302734375</ele>
        <time>2026-08-18T10:38:13Z</time>
      </trkpt>
      <trkpt lat="39.91244011966729" lon="116.19685961212352">
        <ele>60.54351806640625</ele>
        <time>2026-08-18T10:38:19Z</time>
      </trkpt>
      <trkpt lat="39.912473227061184" lon="116.19693177553202">
        <ele>60.41448974609375</ele>
        <time>2026-08-18T10:38:25Z</time>
      </trkpt>
      <trkpt lat="39.91242448555044" lon="116.1971021766152">
        <ele>60.66064453125</ele>
        <time>2026-08-18T10:38:34Z</time>
      </trkpt>
      <trkpt lat="39.91243106956524" lon="116.19749207628973">
        <ele>60.0267333984375</ele>
        <time>2026-08-18T10:38:55Z</time>
      </trkpt>
      <trkpt lat="39.91243666505566" lon="116.19789199440089">
        <ele>59.8721923828125</ele>
        <time>2026-08-18T10:39:16Z</time>
      </trkpt>
      <trkpt lat="39.91243519354738" lon="116.19824881020153">
        <ele>56.942626953125</ele>
        <time>2026-08-18T10:39:34Z</time>
      </trkpt>
      <trkpt lat="39.91244581714144" lon="116.19867277282081">
        <ele>56.2197265625</ele>
        <time>2026-08-18T10:39:52Z</time>
      </trkpt>
      <trkpt lat="39.912484388598564" lon="116.19906465398064">
        <ele>55.4163818359375</ele>
        <time>2026-08-18T10:40:07Z</time>
      </trkpt>
      <trkpt lat="39.91249250068736" lon="116.19914182686885">
        <ele>54.9110107421875</ele>
        <time>2026-08-18T10:40:10Z</time>
      </trkpt>
      <trkpt lat="39.91246401842533" lon="116.19949762972732">
        <ele>54.342041015625</ele>
        <time>2026-08-18T10:40:22Z</time>
      </trkpt>
      <trkpt lat="39.91243153763348" lon="116.19985643571408">
        <ele>53.571044921875</ele>
        <time>2026-08-18T10:40:34Z</time>
      </trkpt>
      <trkpt lat="39.912436010590156" lon="116.20018616843586">
        <ele>55.4002685546875</ele>
        <time>2026-08-18T10:40:49Z</time>
      </trkpt>
      <trkpt lat="39.912409440854915" lon="116.20048683730448">
        <ele>57.8218994140625</ele>
        <time>2026-08-18T10:41:13Z</time>
      </trkpt>
      <trkpt lat="39.912413566141176" lon="116.20057503145186">
        <ele>57.51568603515625</ele>
        <time>2026-08-18T10:41:16Z</time>
      </trkpt>
      <trkpt lat="39.912437683275954" lon="116.20065821180425">
        <ele>59.208984375</ele>
        <time>2026-08-18T10:41:19Z</time>
      </trkpt>
      <trkpt lat="39.91252870928344" lon="116.20067924678203">
        <ele>57.4283447265625</ele>
        <time>2026-08-18T10:41:25Z</time>
      </trkpt>
      <trkpt lat="39.912814653067514" lon="116.20064814259389">
        <ele>57.45477294921875</ele>
        <time>2026-08-18T10:41:46Z</time>
      </trkpt>
      <trkpt lat="39.913122624374246" lon="116.20063707979726">
        <ele>59.0059814453125</ele>
        <time>2026-08-18T10:42:13Z</time>
      </trkpt>
      <trkpt lat="39.91342762143396" lon="116.20064405712374">
        <ele>58.6390380859375</ele>
        <time>2026-08-18T10:42:34Z</time>
      </trkpt>
      <trkpt lat="39.91377164815194" lon="116.20067307813949">
        <ele>59.103515625</ele>
        <time>2026-08-18T10:42:58Z</time>
      </trkpt>
      <trkpt lat="39.91411268352073" lon="116.20070811273946">
        <ele>59.2247314453125</ele>
        <time>2026-08-18T10:43:22Z</time>
      </trkpt>
      <trkpt lat="39.914393680201705" lon="116.20071409084338">
        <ele>56.2989501953125</ele>
        <time>2026-08-18T10:43:40Z</time>
      </trkpt>
      <trkpt lat="39.91466365888133" lon="116.20070704164414">
        <ele>56.29522705078125</ele>
        <time>2026-08-18T10:43:55Z</time>
      </trkpt>
      <trkpt lat="39.914957650774" lon="116.20071001150413">
        <ele>56.58477783203125</ele>
        <time>2026-08-18T10:44:10Z</time>
      </trkpt>
      <trkpt lat="39.91525765947835" lon="116.20072500708228">
        <ele>55.9849853515625</ele>
        <time>2026-08-18T10:44:25Z</time>
      </trkpt>
      <trkpt lat="39.91536668615204" lon="116.20074704196819">
        <ele>56.81951904296875</ele>
        <time>2026-08-18T10:44:31Z</time>
      </trkpt>
      <trkpt lat="39.91540979505442" lon="116.20082520846714">
        <ele>55.8436279296875</ele>
        <time>2026-08-18T10:44:34Z</time>
      </trkpt>
      <trkpt lat="39.91544229284742" lon="116.20117897977148">
        <ele>56.56097412109375</ele>
        <time>2026-08-18T10:44:46Z</time>
      </trkpt>
      <trkpt lat="39.91545486536905" lon="116.20158786915735">
        <ele>56.86553955078125</ele>
        <time>2026-08-18T10:45:01Z</time>
      </trkpt>
      <trkpt lat="39.91545346344428" lon="116.20201780006089">
        <ele>58.57080078125</ele>
        <time>2026-08-18T10:45:16Z</time>
      </trkpt>
      <trkpt lat="39.91545304577093" lon="116.20243970736293">
        <ele>58.1488037109375</ele>
        <time>2026-08-18T10:45:31Z</time>
      </trkpt>
      <trkpt lat="39.91545063592755" lon="116.2028706279912">
        <ele>58.38201904296875</ele>
        <time>2026-08-18T10:45:46Z</time>
      </trkpt>
      <trkpt lat="39.91544921989117" lon="116.20330053993565">
        <ele>60.0247802734375</ele>
        <time>2026-08-18T10:46:01Z</time>
      </trkpt>
      <trkpt lat="39.915451794837374" lon="116.20372743860445">
        <ele>58.8572998046875</ele>
        <time>2026-08-18T10:46:16Z</time>
      </trkpt>
      <trkpt lat="39.91544736528544" lon="116.20415433171455">
        <ele>60.8565673828125</ele>
        <time>2026-08-18T10:46:31Z</time>
      </trkpt>
      <trkpt lat="39.91547968307637" lon="116.20439482767199">
        <ele>61.2333984375</ele>
        <time>2026-08-18T10:46:43Z</time>
      </trkpt>
      <trkpt lat="39.91553168354605" lon="116.20439682533367">
        <ele>58.45941162109375</ele>
        <time>2026-08-18T10:46:46Z</time>
      </trkpt>
      <trkpt lat="39.91572783165658" lon="116.20451504589445">
        <ele>56.76654052734375</ele>
        <time>2026-08-18T10:46:55Z</time>
      </trkpt>
      <trkpt lat="39.915859834058864" lon="116.20452104185165">
        <ele>58.91021728515625</ele>
        <time>2026-08-18T10:47:04Z</time>
      </trkpt>
      <trkpt lat="39.91594588600102" lon="116.2045631181984">
        <ele>59.34820556640625</ele>
        <time>2026-08-18T10:47:10Z</time>
      </trkpt>
      <trkpt lat="39.916072921647" lon="116.20459416657357">
        <ele>61.11029052734375</ele>
        <time>2026-08-18T10:47:19Z</time>
      </trkpt>
      <trkpt lat="39.91632422086671" lon="116.20482962107221">
        <ele>60.87115478515625</ele>
        <time>2026-08-18T10:47:43Z</time>
      </trkpt>
      <trkpt lat="39.91646332408698" lon="116.20491277483123">
        <ele>60.9176025390625</ele>
        <time>2026-08-18T10:47:55Z</time>
      </trkpt>
      <trkpt lat="39.91650742192559" lon="116.20498892580605">
        <ele>61.71307373046875</ele>
        <time>2026-08-18T10:48:01Z</time>
      </trkpt>
      <trkpt lat="39.916497557187284" lon="116.20509213877942">
        <ele>62.4326171875</ele>
        <time>2026-08-18T10:48:07Z</time>
      </trkpt>
      <trkpt lat="39.91654465453171" lon="116.20516828888505">
        <ele>63.91082763671875</ele>
        <time>2026-08-18T10:48:13Z</time>
      </trkpt>
      <trkpt lat="39.91678366411657" lon="116.20518328979261">
        <ele>64.4183349609375</ele>
        <time>2026-08-18T10:48:31Z</time>
      </trkpt>
      <trkpt lat="39.91711059429779" lon="116.20514016074706">
        <ele>63.24755859375</ele>
        <time>2026-08-18T10:48:55Z</time>
      </trkpt>
      <trkpt lat="39.91726959288344" lon="116.2051441490941">
        <ele>63.604736328125</ele>
        <time>2026-08-18T10:49:07Z</time>
      </trkpt>
      <trkpt lat="39.917592715118055" lon="116.20524832194205">
        <ele>63.1605224609375</ele>
        <time>2026-08-18T10:49:31Z</time>
      </trkpt>
      <trkpt lat="39.91786175862707" lon="116.20529037432749">
        <ele>62.94427490234375</ele>
        <time>2026-08-18T10:49:49Z</time>
      </trkpt>
      <trkpt lat="39.91813173044688" lon="116.20527731399402">
        <ele>62.1474609375</ele>
        <time>2026-08-18T10:50:07Z</time>
      </trkpt>
      <trkpt lat="39.91843079221405" lon="116.20533439326572">
        <ele>63.5684814453125</ele>
        <time>2026-08-18T10:50:25Z</time>
      </trkpt>
      <trkpt lat="39.918744859778336" lon="116.2053964807592">
        <ele>63.2242431640625</ele>
        <time>2026-08-18T10:50:43Z</time>
      </trkpt>
      <trkpt lat="39.91905478969709" lon="116.20535235212353">
        <ele>63.4071044921875</ele>
        <time>2026-08-18T10:51:01Z</time>
      </trkpt>
      <trkpt lat="39.91928172171669" lon="116.20530723173786">
        <ele>61.53692626953125</ele>
        <time>2026-08-18T10:51:13Z</time>
      </trkpt>
      <trkpt lat="39.919606785003374" lon="116.2053663117871">
        <ele>61.68609619140625</ele>
        <time>2026-08-18T10:51:31Z</time>
      </trkpt>
      <trkpt lat="39.919913835965275" lon="116.20541537353975">
        <ele>60.9537353515625</ele>
        <time>2026-08-18T10:51:46Z</time>
      </trkpt>
      <trkpt lat="39.920194799647355" lon="116.20539629963318">
        <ele>59.13043212890625</ele>
        <time>2026-08-18T10:51:58Z</time>
      </trkpt>
      <trkpt lat="39.92031168685575" lon="116.2053131153466">
        <ele>59.625244140625</ele>
        <time>2026-08-18T10:52:04Z</time>
      </trkpt>
      <trkpt lat="39.92051328544466" lon="116.20501147268732">
        <ele>58.66070556640625</ele>
        <time>2026-08-18T10:52:19Z</time>
      </trkpt>
      <trkpt lat="39.92067689106166" lon="116.20471584388368">
        <ele>58.970703125</ele>
        <time>2026-08-18T10:52:34Z</time>
      </trkpt>
      <trkpt lat="39.92070077003004" lon="116.20462465259966">
        <ele>57.59063720703125</ele>
        <time>2026-08-18T10:52:37Z</time>
      </trkpt>
      <trkpt lat="39.920698660431505" lon="116.20454148085611">
        <ele>57.40960693359375</ele>
        <time>2026-08-18T10:52:40Z</time>
      </trkpt>
      <trkpt lat="39.92042837333401" lon="116.20431604709859">
        <ele>59.42724609375</ele>
        <time>2026-08-18T10:52:55Z</time>
      </trkpt>
      <trkpt lat="39.92015521567948" lon="116.20418881653508">
        <ele>63.799560546875</ele>
        <time>2026-08-18T10:53:10Z</time>
      </trkpt>
      <trkpt lat="39.919841203367284" lon="116.20416981612355">
        <ele>61.14990234375</ele>
        <time>2026-08-18T10:53:28Z</time>
      </trkpt>
      <trkpt lat="39.91969129480728" lon="116.20423396836061">
        <ele>61.940673828125</ele>
        <time>2026-08-18T10:53:37Z</time>
      </trkpt>
      <trkpt lat="39.91954543778888" lon="116.20433720113711">
        <ele>60.93572998046875</ele>
        <time>2026-08-18T10:53:46Z</time>
      </trkpt>
      <trkpt lat="39.9192974175224" lon="116.20431418425089">
        <ele>60.67303466796875</ele>
        <time>2026-08-18T10:53:58Z</time>
      </trkpt>
      <trkpt lat="39.919047252283356" lon="116.20418194037474">
        <ele>59.07843017578125</ele>
        <time>2026-08-18T10:54:10Z</time>
      </trkpt>
      <trkpt lat="39.918812063253796" lon="116.20403265844611">
        <ele>62.46710205078125</ele>
        <time>2026-08-18T10:54:22Z</time>
      </trkpt>
      <trkpt lat="39.91848304752893" lon="116.20401065352506">
        <ele>63.96539306640625</ele>
        <time>2026-08-18T10:54:37Z</time>
      </trkpt>
      <trkpt lat="39.918354090313336" lon="116.20403872822318">
        <ele>66.31622314453125</ele>
        <time>2026-08-18T10:54:43Z</time>
      </trkpt>
      <trkpt lat="39.918117317590394" lon="116.20420209829646">
        <ele>63.10430908203125</ele>
        <time>2026-08-18T10:54:58Z</time>
      </trkpt>
      <trkpt lat="39.91786213217244" lon="116.20405482315805">
        <ele>59.1002197265625</ele>
        <time>2026-08-18T10:55:13Z</time>
      </trkpt>
      <trkpt lat="39.91781215161622" lon="116.20406785658587">
        <ele>59.7279052734375</ele>
        <time>2026-08-18T10:55:16Z</time>
      </trkpt>
      <trkpt lat="39.917701128197876" lon="116.20404682654453">
        <ele>60.69818115234375</ele>
        <time>2026-08-18T10:55:22Z</time>
      </trkpt>
      <trkpt lat="39.91745029077221" lon="116.20416109608396">
        <ele>63.31109619140625</ele>
        <time>2026-08-18T10:55:37Z</time>
      </trkpt>
      <trkpt lat="39.91728248942212" lon="116.20430541726594">
        <ele>62.97039794921875</ele>
        <time>2026-08-18T10:55:52Z</time>
      </trkpt>
      <trkpt lat="39.91699551602535" lon="116.20431647602247">
        <ele>61.15203857421875</ele>
        <time>2026-08-18T10:56:16Z</time>
      </trkpt>
      <trkpt lat="39.916720612497365" lon="116.20438064353249">
        <ele>60.4835205078125</ele>
        <time>2026-08-18T10:56:40Z</time>
      </trkpt>
      <trkpt lat="39.916661686578365" lon="116.2044347631374">
        <ele>61.4083251953125</ele>
        <time>2026-08-18T10:56:46Z</time>
      </trkpt>
      <trkpt lat="39.91652216259406" lon="116.20479151791083">
        <ele>64.041259765625</ele>
        <time>2026-08-18T10:57:10Z</time>
      </trkpt>
      <trkpt lat="39.91644034604803" lon="116.20492881066284">
        <ele>63.25347900390625</ele>
        <time>2026-08-18T10:57:19Z</time>
      </trkpt>
      <trkpt lat="39.916491612340394" lon="116.20513422575222">
        <ele>62.99755859375</ele>
        <time>2026-08-18T10:57:28Z</time>
      </trkpt>
      <trkpt lat="39.91660066785491" lon="116.20518030649896">
        <ele>61.6202392578125</ele>
        <time>2026-08-18T10:57:34Z</time>
      </trkpt>
      <trkpt lat="39.916879649659805" lon="116.20517526139729">
        <ele>61.03863525390625</ele>
        <time>2026-08-18T10:57:49Z</time>
      </trkpt>
      <trkpt lat="39.91718460557645" lon="116.2051511740733">
        <ele>60.97021484375</ele>
        <time>2026-08-18T10:58:04Z</time>
      </trkpt>
      <trkpt lat="39.917423664787385" lon="116.20520425290238">
        <ele>61.09637451171875</ele>
        <time>2026-08-18T10:58:16Z</time>
      </trkpt>
      <trkpt lat="39.917659777465815" lon="116.20529841592987">
        <ele>60.5072021484375</ele>
        <time>2026-08-18T10:58:28Z</time>
      </trkpt>
      <trkpt lat="39.91783779868625" lon="116.2053204387044">
        <ele>62.07470703125</ele>
        <time>2026-08-18T10:58:40Z</time>
      </trkpt>
      <trkpt lat="39.91813075523545" lon="116.20529635300537">
        <ele>60.78076171875</ele>
        <time>2026-08-18T10:59:04Z</time>
      </trkpt>
      <trkpt lat="39.91843682708624" lon="116.20536144771594">
        <ele>62.23260498046875</ele>
        <time>2026-08-18T10:59:22Z</time>
      </trkpt>
      <trkpt lat="39.918711887134094" lon="116.20541652572723">
        <ele>61.89251708984375</ele>
        <time>2026-08-18T10:59:37Z</time>
      </trkpt>
      <trkpt lat="39.91887386871079" lon="116.20540748711285">
        <ele>61.74639892578125</ele>
        <time>2026-08-18T10:59:46Z</time>
      </trkpt>
      <trkpt lat="39.91916575386478" lon="116.20532828918464">
        <ele>63.58746337890625</ele>
        <time>2026-08-18T11:00:37Z</time>
      </trkpt>
      <trkpt lat="39.91930571290895" lon="116.20530121646357">
        <ele>63.9957275390625</ele>
        <time>2026-08-18T11:00:49Z</time>
      </trkpt>
      <trkpt lat="39.91963079050972" lon="116.2053713190076">
        <ele>65.15203857421875</ele>
        <time>2026-08-18T11:01:19Z</time>
      </trkpt>
      <trkpt lat="39.919965857188785" lon="116.20543340379425">
        <ele>64.13287353515625</ele>
        <time>2026-08-18T11:01:49Z</time>
      </trkpt>
      <trkpt lat="39.920156838893384" lon="116.20542536360317">
        <ele>63.42962646484375</ele>
        <time>2026-08-18T11:02:07Z</time>
      </trkpt>
      <trkpt lat="39.92027874287015" lon="116.20535520535813">
        <ele>63.75555419921875</ele>
        <time>2026-08-18T11:02:19Z</time>
      </trkpt>
      <trkpt lat="39.920426489142926" lon="116.20516479780933">
        <ele>63.70941162109375</ele>
        <time>2026-08-18T11:02:37Z</time>
      </trkpt>
      <trkpt lat="39.92060204159629" lon="116.20482808457882">
        <ele>64.26422119140625</ele>
        <time>2026-08-18T11:03:01Z</time>
      </trkpt>
      <trkpt lat="39.9207087089352" lon="116.20457855630912">
        <ele>65.386474609375</ele>
        <time>2026-08-18T11:03:16Z</time>
      </trkpt>
      <trkpt lat="39.92068157378557" lon="116.20447534603719">
        <ele>64.71844482421875</ele>
        <time>2026-08-18T11:03:22Z</time>
      </trkpt>
      <trkpt lat="39.92041534064819" lon="116.20429099666708">
        <ele>65.62451171875</ele>
        <time>2026-08-18T11:03:43Z</time>
      </trkpt>
      <trkpt lat="39.92018820099264" lon="116.20417879154654">
        <ele>67.39141845703125</ele>
        <time>2026-08-18T11:04:01Z</time>
      </trkpt>
      <trkpt lat="39.91990516339614" lon="116.2041417496766">
        <ele>64.16925048828125</ele>
        <time>2026-08-18T11:04:19Z</time>
      </trkpt>
      <trkpt lat="39.91971724180869" lon="116.20419488378123">
        <ele>62.55670166015625</ele>
        <time>2026-08-18T11:04:31Z</time>
      </trkpt>
      <trkpt lat="39.919517424339695" lon="116.20432618174233">
        <ele>62.5987548828125</ele>
        <time>2026-08-18T11:04:46Z</time>
      </trkpt>
      <trkpt lat="39.91943144915584" lon="116.20434222578541">
        <ele>62.9815673828125</ele>
        <time>2026-08-18T11:04:52Z</time>
      </trkpt>
      <trkpt lat="39.91920136168937" lon="116.20426910252725">
        <ele>61.2696533203125</ele>
        <time>2026-08-18T11:05:10Z</time>
      </trkpt>
      <trkpt lat="39.91894512717237" lon="116.20408475055645">
        <ele>63.8082275390625</ele>
        <time>2026-08-18T11:05:34Z</time>
      </trkpt>
      <trkpt lat="39.91873401436521" lon="116.20399358658258">
        <ele>64.9927978515625</ele>
        <time>2026-08-18T11:05:52Z</time>
      </trkpt>
      <trkpt lat="39.918507003741816" lon="116.20397858354364">
        <ele>66.2232666015625</ele>
        <time>2026-08-18T11:06:10Z</time>
      </trkpt>
      <trkpt lat="39.91842903774342" lon="116.20400164143715">
        <ele>66.37469482421875</ele>
        <time>2026-08-18T11:06:16Z</time>
      </trkpt>
      <trkpt lat="39.918149269634036" lon="116.20416702127325">
        <ele>63.61956787109375</ele>
        <time>2026-08-18T11:06:37Z</time>
      </trkpt>
      <trkpt lat="39.91807931118239" lon="116.20419609052875">
        <ele>63.4129638671875</ele>
        <time>2026-08-18T11:06:43Z</time>
      </trkpt>
      <trkpt lat="39.91802322022282" lon="116.20412595141677">
        <ele>63.602783203125</ele>
        <time>2026-08-18T11:06:49Z</time>
      </trkpt>
      <trkpt lat="39.91791112879512" lon="116.2040538149447">
        <ele>63.033935546875</ele>
        <time>2026-08-18T11:07:01Z</time>
      </trkpt>
      <trkpt lat="39.917910140855994" lon="116.20406283388799">
        <ele>64.33990478515625</ele>
        <time>2026-08-18T11:07:46Z</time>
      </trkpt>
      <trkpt lat="39.91774610093735" lon="116.20402778118033">
        <ele>63.38739013671875</ele>
        <time>2026-08-18T11:10:19Z</time>
      </trkpt>
      <trkpt lat="39.917519231894865" lon="116.20411899976703">
        <ele>62.1939697265625</ele>
        <time>2026-08-18T11:10:40Z</time>
      </trkpt>
      <trkpt lat="39.917416258864094" lon="116.20413604813949">
        <ele>61.1488037109375</ele>
        <time>2026-08-18T11:10:49Z</time>
      </trkpt>
      <trkpt lat="39.917301408846924" lon="116.20424528990229">
        <ele>59.7257080078125</ele>
        <time>2026-08-18T11:10:58Z</time>
      </trkpt>
      <trkpt lat="39.91713444641463" lon="116.2042683586944">
        <ele>59.13134765625</ele>
        <time>2026-08-18T11:11:07Z</time>
      </trkpt>
      <trkpt lat="39.91696251474708" lon="116.20431447598176">
        <ele>59.0164794921875</ele>
        <time>2026-08-18T11:11:16Z</time>
      </trkpt>
      <trkpt lat="39.916831517565306" lon="116.20431248818421">
        <ele>59.89990234375</ele>
        <time>2026-08-18T11:11:22Z</time>
      </trkpt>
      <trkpt lat="39.91670857849095" lon="116.20435459095559">
        <ele>61.12615966796875</ele>
        <time>2026-08-18T11:11:28Z</time>
      </trkpt>
      <trkpt lat="39.91665264187411" lon="116.20440069360804">
        <ele>60.74560546875</ele>
        <time>2026-08-18T11:11:31Z</time>
      </trkpt>
      <trkpt lat="39.91655406907743" lon="116.2047213693033">
        <ele>60.07879638671875</ele>
        <time>2026-08-18T11:11:46Z</time>
      </trkpt>
      <trkpt lat="39.916471256773875" lon="116.20486166871422">
        <ele>60.95611572265625</ele>
        <time>2026-08-18T11:11:52Z</time>
      </trkpt>
      <trkpt lat="39.91642027861549" lon="116.20487670601153">
        <ele>58.86370849609375</ele>
        <time>2026-08-18T11:11:55Z</time>
      </trkpt>
      <trkpt lat="39.916146989850745" lon="116.20464826914876">
        <ele>60.86175537109375</ele>
        <time>2026-08-18T11:12:10Z</time>
      </trkpt>
      <trkpt lat="39.915962805918994" lon="116.20450299164119">
        <ele>60.8223876953125</ele>
        <time>2026-08-18T11:12:22Z</time>
      </trkpt>
      <trkpt lat="39.91585180527873" lon="116.20449899720721">
        <ele>61.86090087890625</ele>
        <time>2026-08-18T11:12:28Z</time>
      </trkpt>
      <trkpt lat="39.91574773679525" lon="116.20444389601339">
        <ele>61.85302734375</ele>
        <time>2026-08-18T11:12:43Z</time>
      </trkpt>
      <trkpt lat="39.91569275102869" lon="116.20445292157639">
        <ele>62.53643798828125</ele>
        <time>2026-08-18T11:12:46Z</time>
      </trkpt>
      <trkpt lat="39.91567967070135" lon="116.20439179645088">
        <ele>61.0433349609375</ele>
        <time>2026-08-18T11:12:52Z</time>
      </trkpt>
      <trkpt lat="39.91569410920761" lon="116.20396991616191">
        <ele>58.72760009765625</ele>
        <time>2026-08-18T11:13:10Z</time>
      </trkpt>
      <trkpt lat="39.91567657537183" lon="116.20357108205378">
        <ele>63.2384033203125</ele>
        <time>2026-08-18T11:13:25Z</time>
      </trkpt>
      <trkpt lat="39.91570239471898" lon="116.2034377981106">
        <ele>60.80694580078125</ele>
        <time>2026-08-18T11:13:32Z</time>
      </trkpt>
      <trkpt lat="39.91568999121218" lon="116.20313916842468">
        <ele>61.85491943359375</ele>
        <time>2026-08-18T11:13:43Z</time>
      </trkpt>
      <trkpt lat="39.9157107670007" lon="116.20297481710841">
        <ele>61.491455078125</ele>
        <time>2026-08-18T11:13:50Z</time>
      </trkpt>
      <trkpt lat="39.91569915933457" lon="116.20252986975993">
        <ele>62.6298828125</ele>
        <time>2026-08-18T11:14:08Z</time>
      </trkpt>
      <trkpt lat="39.915692583816444" lon="116.2021119732688">
        <ele>62.86065673828125</ele>
        <time>2026-08-18T11:14:23Z</time>
      </trkpt>
      <trkpt lat="39.91568406118791" lon="116.20173516013298">
        <ele>63.36859130859375</ele>
        <time>2026-08-18T11:14:35Z</time>
      </trkpt>
      <trkpt lat="39.91570747600937" lon="116.20131724860033">
        <ele>60.886962890625</ele>
        <time>2026-08-18T11:14:50Z</time>
      </trkpt>
      <trkpt lat="39.91569886089642" lon="116.20088029340657">
        <ele>60.44964599609375</ele>
        <time>2026-08-18T11:15:11Z</time>
      </trkpt>
      <trkpt lat="39.915701242032625" lon="116.2004443327085">
        <ele>61.5877685546875</ele>
        <time>2026-08-18T11:15:41Z</time>
      </trkpt>
      <trkpt lat="39.91563805599969" lon="116.20031204793855">
        <ele>63.408447265625</ele>
        <time>2026-08-18T11:15:56Z</time>
      </trkpt>
      <trkpt lat="39.915639480128625" lon="116.19991015514732">
        <ele>64.5457763671875</ele>
        <time>2026-08-18T11:16:35Z</time>
      </trkpt>
      <trkpt lat="39.91564126799177" lon="116.19976282638903">
        <ele>63.88818359375</ele>
        <time>2026-08-18T11:16:50Z</time>
      </trkpt>
      <trkpt lat="39.91545432349034" lon="116.19979592358335">
        <ele>63.3778076171875</ele>
        <time>2026-08-18T11:17:02Z</time>
      </trkpt>
      <trkpt lat="39.91514030780613" lon="116.19977591812435">
        <ele>61.07275390625</ele>
        <time>2026-08-18T11:17:20Z</time>
      </trkpt>
      <trkpt lat="39.91485826477498" lon="116.19973786837282">
        <ele>61.83892822265625</ele>
        <time>2026-08-18T11:17:35Z</time>
      </trkpt>
      <trkpt lat="39.914632293068436" lon="116.19975092572618">
        <ele>63.5955810546875</ele>
        <time>2026-08-18T11:17:47Z</time>
      </trkpt>
      <trkpt lat="39.91431226898047" lon="116.19972490755835">
        <ele>59.18438720703125</ele>
        <time>2026-08-18T11:18:05Z</time>
      </trkpt>
      <trkpt lat="39.9140282852917" lon="116.19972794978884">
        <ele>59.4649658203125</ele>
        <time>2026-08-18T11:18:20Z</time>
      </trkpt>
      <trkpt lat="39.91392224350686" lon="116.19969589140467">
        <ele>62.61505126953125</ele>
        <time>2026-08-18T11:18:26Z</time>
      </trkpt>
      <trkpt lat="39.913649266600366" lon="116.19970394345742">
        <ele>62.17535400390625</ele>
        <time>2026-08-18T11:19:05Z</time>
      </trkpt>
      <trkpt lat="39.91334726056745" lon="116.19969095211357">
        <ele>63.713623046875</ele>
        <time>2026-08-18T11:19:26Z</time>
      </trkpt>
      <trkpt lat="39.91303224207569" lon="116.1996689422299">
        <ele>62.06298828125</ele>
        <time>2026-08-18T11:19:44Z</time>
      </trkpt>
      <trkpt lat="39.91276720989032" lon="116.19963890815033">
        <ele>59.82537841796875</ele>
        <time>2026-08-18T11:19:59Z</time>
      </trkpt>
      <trkpt lat="39.91265223502392" lon="116.19965295390296">
        <ele>61.46185302734375</ele>
        <time>2026-08-18T11:20:05Z</time>
      </trkpt>
      <trkpt lat="39.91260020828399" lon="116.19963291558659">
        <ele>61.98095703125</ele>
        <time>2026-08-18T11:20:08Z</time>
      </trkpt>
      <trkpt lat="39.91258511043729" lon="116.19956476498112">
        <ele>60.98712158203125</ele>
        <time>2026-08-18T11:20:11Z</time>
      </trkpt>
      <trkpt lat="39.91259548172676" lon="116.19913179141496">
        <ele>65.30120849609375</ele>
        <time>2026-08-18T11:20:32Z</time>
      </trkpt>
      <trkpt lat="39.912590919727556" lon="116.19874692272398">
        <ele>64.567626953125</ele>
        <time>2026-08-18T11:20:50Z</time>
      </trkpt>
      <trkpt lat="39.912592621048304" lon="116.19854346108544">
        <ele>63.10919189453125</ele>
        <time>2026-08-18T11:20:59Z</time>
      </trkpt>
      <trkpt lat="39.91257653771091" lon="116.19848633330008">
        <ele>62.6263427734375</ele>
        <time>2026-08-18T11:21:02Z</time>
      </trkpt>
      <trkpt lat="39.912606263232895" lon="116.19830090760452">
        <ele>64.107421875</ele>
        <time>2026-08-18T11:21:11Z</time>
      </trkpt>
      <trkpt lat="39.912613720042806" lon="116.19793406867988">
        <ele>65.7135009765625</ele>
        <time>2026-08-18T11:21:26Z</time>
      </trkpt>
      <trkpt lat="39.91260207878573" lon="116.19750308028922">
        <ele>66.32855224609375</ele>
        <time>2026-08-18T11:21:41Z</time>
      </trkpt>
      <trkpt lat="39.91259149503757" lon="116.19711318124402">
        <ele>64.5704345703125</ele>
        <time>2026-08-18T11:21:56Z</time>
      </trkpt>
      <trkpt lat="39.91259492242644" lon="116.19673329915788">
        <ele>62.77716064453125</ele>
        <time>2026-08-18T11:22:11Z</time>
      </trkpt>
      <trkpt lat="39.912570334083554" lon="116.19634439515478">
        <ele>63.243896484375</ele>
        <time>2026-08-18T11:22:26Z</time>
      </trkpt>
      <trkpt lat="39.91259170216015" lon="116.1959304220186">
        <ele>62.81427001953125</ele>
        <time>2026-08-18T11:22:41Z</time>
      </trkpt>
      <trkpt lat="39.91258812150235" lon="116.19555152983462">
        <ele>61.724609375</ele>
        <time>2026-08-18T11:22:56Z</time>
      </trkpt>
      <trkpt lat="39.91257273632222" lon="116.19530093910052">
        <ele>61.84649658203125</ele>
        <time>2026-08-18T11:23:05Z</time>
      </trkpt>
      <trkpt lat="39.91259349400258" lon="116.19514456576267">
        <ele>62.590576171875</ele>
        <time>2026-08-18T11:23:11Z</time>
      </trkpt>
      <trkpt lat="39.91258335645488" lon="116.19505535520558">
        <ele>64.8775634765625</ele>
        <time>2026-08-18T11:23:14Z</time>
      </trkpt>
      <trkpt lat="39.91264514266805" lon="116.19491902333948">
        <ele>63.116455078125</ele>
        <time>2026-08-18T11:23:26Z</time>
      </trkpt>
      <trkpt lat="39.912598516605996" lon="116.1945150655965">
        <ele>60.82135009765625</ele>
        <time>2026-08-18T11:23:41Z</time>
      </trkpt>
      <trkpt lat="39.9125928791174" lon="116.19410708848474">
        <ele>63.11468505859375</ele>
        <time>2026-08-18T11:23:56Z</time>
      </trkpt>
      <trkpt lat="39.91256733219817" lon="116.19375825193232">
        <ele>62.7052001953125</ele>
        <time>2026-08-18T11:24:08Z</time>
      </trkpt>
      <trkpt lat="39.91258964593882" lon="116.19332419959069">
        <ele>63.883544921875</ele>
        <time>2026-08-18T11:24:23Z</time>
      </trkpt>
      <trkpt lat="39.91259151882652" lon="116.19324400488105">
        <ele>63.4603271484375</ele>
        <time>2026-08-18T11:24:26Z</time>
      </trkpt>
      <trkpt lat="39.912570373475624" lon="116.1931517836677">
        <ele>63.5823974609375</ele>
        <time>2026-08-18T11:24:32Z</time>
      </trkpt>
      <trkpt lat="39.91253928250693" lon="116.19309364631356">
        <ele>62.48968505859375</ele>
        <time>2026-08-18T11:24:38Z</time>
      </trkpt>
      <trkpt lat="39.91255981440047" lon="116.19279992879804">
        <ele>63.34857177734375</ele>
        <time>2026-08-18T11:24:56Z</time>
      </trkpt>
      <trkpt lat="39.9125684044064" lon="116.19254330116931">
        <ele>66.42657470703125</ele>
        <time>2026-08-18T11:25:56Z</time>
      </trkpt>
      <trkpt lat="39.91253612661696" lon="116.19236887835402">
        <ele>66.8714599609375</ele>
        <time>2026-08-18T11:26:08Z</time>
      </trkpt>
      <trkpt lat="39.91263354304124" lon="116.19200798044328">
        <ele>62.40887451171875</ele>
        <time>2026-08-18T11:26:23Z</time>
      </trkpt>
      <trkpt lat="39.912632948152314" lon="116.19163907161601">
        <ele>62.46051025390625</ele>
        <time>2026-08-18T11:26:38Z</time>
      </trkpt>
      <trkpt lat="39.912619334955764" lon="116.1912601360674">
        <ele>63.1790771484375</ele>
        <time>2026-08-18T11:26:53Z</time>
      </trkpt>
      <trkpt lat="39.91260172086929" lon="116.19088219985733">
        <ele>65.28082275390625</ele>
        <time>2026-08-18T11:27:08Z</time>
      </trkpt>
      <trkpt lat="39.91260309020287" lon="116.19049623764835">
        <ele>64.664794921875</ele>
        <time>2026-08-18T11:27:23Z</time>
      </trkpt>
      <trkpt lat="39.91261082700188" lon="116.19033583578074">
        <ele>64.95184326171875</ele>
        <time>2026-08-18T11:27:29Z</time>
      </trkpt>
      <trkpt lat="39.91258842287428" lon="116.19008922097245">
        <ele>65.50445556640625</ele>
        <time>2026-08-18T11:27:38Z</time>
      </trkpt>
      <trkpt lat="39.91259278819126" lon="116.18970425337199">
        <ele>66.16827392578125</ele>
        <time>2026-08-18T11:27:53Z</time>
      </trkpt>
      <trkpt lat="39.91259613097275" lon="116.18930725193606">
        <ele>63.17779541015625</ele>
        <time>2026-08-18T11:28:08Z</time>
      </trkpt>
      <trkpt lat="39.91255984791985" lon="116.18913582306759">
        <ele>64.07672119140625</ele>
        <time>2026-08-18T11:28:14Z</time>
      </trkpt>
      <trkpt lat="39.91253615111926" lon="116.18871676365917">
        <ele>62.86114501953125</ele>
        <time>2026-08-18T11:28:29Z</time>
      </trkpt>
      <trkpt lat="39.91254274212079" lon="116.18847214079568">
        <ele>63.2906494140625</ele>
        <time>2026-08-18T11:28:38Z</time>
      </trkpt>
      <trkpt lat="39.912609046889195" lon="116.18805907903199">
        <ele>61.456787109375</ele>
        <time>2026-08-18T11:28:53Z</time>
      </trkpt>
      <trkpt lat="39.912614770231436" lon="116.18789465790124">
        <ele>61.8232421875</ele>
        <time>2026-08-18T11:28:59Z</time>
      </trkpt>
      <trkpt lat="39.91267543165612" lon="116.18769513933859">
        <ele>63.7183837890625</ele>
        <time>2026-08-18T11:29:11Z</time>
      </trkpt>
    </trkseg>
  </trk>
</gpx>