<?xml version="1.0" encoding="UTF-8"?>
<gpx xmlns="http://www.topografix.com/GPX/1/1" xmlns:gpxtpx="http://www.garmin.com/xmlschemas/TrackPointExtension/v1" xmlns:xsi="http://www.w3.org/2001/XMLSchema-instance" xsi:schemaLocation="http://www.topografix.com/GPX/1/1 http://www.topografix.com/GPX/1/1/gpx.xsd" version="1.1" creator="gpx.py -- https://github.com/tkrajina/gpxpy">
  <trk>
    <name>gpx from keep</name>
    <type>Run</type>
    <trkseg>
      <trkpt lat="39.913900692029905" lon="116.18552938380178">
        <ele>68.5469970703125</ele>
        <time>2026-08-10T11:56:34Z</time>
      </trkpt>
      <trkpt lat="39.91388499498444" lon="116.1851243271382">
        <ele>65.7069091796875</ele>
        <time>2026-08-10T11:56:55Z</time>
      </trkpt>
      <trkpt lat="39.91391376701811" lon="116.18499297954762">
        <ele>66.504150390625</ele>
        <time>2026-08-10T11:57:01Z</time>
      </trkpt>
      <trkpt lat="39.913918045120056" lon="116.18457588441875">
        <ele>65.47979736328125</ele>
        <time>2026-08-10T11:57:19Z</time>
      </trkpt>
      <trkpt lat="39.91391430888554" lon="116.18415176839886">
        <ele>63.95843505859375</ele>
        <time>2026-08-10T11:57:37Z</time>
      </trkpt>
      <trkpt lat="39.91392792956736" lon="116.18393419258786">
        <ele>63.750732421875</ele>
        <time>2026-08-10T11:57:46Z</time>
      </trkpt>
      <trkpt lat="39.91394368245796" lon="116.18379281709583">
        <ele>62.465576171875</ele>
        <time>2026-08-10T11:57:52Z</time>
      </trkpt>
      <trkpt lat="39.913917412337156" lon="116.18363740936296">
        <ele>62.23681640625</ele>
        <time>2026-08-10T11:57:58Z</time>
      </trkpt>
      <trkpt lat="39.91393902764922" lon="116.18341782513177">
        <ele>64.27099609375</ele>
        <time>2026-08-10T11:58:07Z</time>
      </trkpt>
      <trkpt lat="39.9139335116638" lon="116.18312304376398">
        <ele>63.95233154296875</ele>
        <time>2026-08-10T11:58:19Z</time>
      </trkpt>
      <trkpt lat="39.91390240045002" lon="116.18305887721829">
        <ele>63.98052978515625</ele>
        <time>2026-08-10T11:58:22Z</time>
      </trkpt>
      <trkpt lat="39.91387691387824" lon="116.18278114181679">
        <ele>62.02960205078125</ele>
        <time>2026-08-10T11:58:34Z</time>
      </trkpt>
      <trkpt lat="39.91390262184397" lon="116.18261569796894">
        <ele>64.59649658203125</ele>
        <time>2026-08-10T11:58:40Z</time>
      </trkpt>
      <trkpt lat="39.9139324582067" lon="116.1825234483316">
        <ele>64.28350830078125</ele>
        <time>2026-08-10T11:58:43Z</time>
      </trkpt>
      <trkpt lat="39.913925327819896" lon="116.18244925133922">
        <ele>65.53851318359375</ele>
        <time>2026-08-10T11:58:46Z</time>
      </trkpt>
      <trkpt lat="39.913873056061774" lon="116.18229384309988">
        <ele>63.27557373046875</ele>
        <time>2026-08-10T11:58:52Z</time>
      </trkpt>
      <trkpt lat="39.91390081780055" lon="116.18215948066457">
        <ele>63.2977294921875</ele>
        <time>2026-08-10T11:58:58Z</time>
      </trkpt>
      <trkpt lat="39.913891672990296" lon="116.18207726200616">
        <ele>65.09271240234375</ele>
        <time>2026-08-10T11:59:01Z</time>
      </trkpt>
      <trkpt lat="39.913911393927606" lon="116.18191983835293">
        <ele>64.85504150390625</ele>
        <time>2026-08-10T11:59:07Z</time>
      </trkpt>
      <trkpt lat="39.91389411434614" lon="116.18176141624129">
        <ele>64.0733642578125</ele>
        <time>2026-08-10T11:59:13Z</time>
      </trkpt>
      <trkpt lat="39.913913999876804" lon="116.18169724175955">
        <ele>64.46954345703125</ele>
        <time>2026-08-10T11:59:16Z</time>
      </trkpt>
      <trkpt lat="39.91389174851966" lon="116.18155486272352">
        <ele>67.11041259765625</ele>
        <time>2026-08-10T11:59:22Z</time>
      </trkpt>
      <trkpt lat="39.91390533700191" lon="116.18132323914358">
        <ele>68.385498046875</ele>
        <time>2026-08-10T11:59:31Z</time>
      </trkpt>
      <trkpt lat="39.91389708976442" lon="116.18118386555393">
        <ele>64.97369384765625</ele>
        <time>2026-08-10T11:59:37Z</time>
      </trkpt>
      <trkpt lat="39.91393279584982" lon="116.18101941865226">
        <ele>66.61181640625</ele>
        <time>2026-08-10T11:59:43Z</time>
      </trkpt>
      <trkpt lat="39.913909534465624" lon="116.18087202465156">
        <ele>65.6231689453125</ele>
        <time>2026-08-10T11:59:49Z</time>
      </trkpt>
      <trkpt lat="39.91388442300579" lon="116.1808088575911">
        <ele>66.8394775390625</ele>
        <time>2026-08-10T11:59:52Z</time>
      </trkpt>
      <trkpt lat="39.91358447496273" lon="116.18083095474894">
        <ele>66.21417236328125</ele>
        <time>2026-08-10T12:00:07Z</time>
      </trkpt>
      <trkpt lat="39.913364473539204" lon="116.18082496619499">
        <ele>65.74993896484375</ele>
        <time>2026-08-10T12:00:19Z</time>
      </trkpt>
      <trkpt lat="39.91331640590017" lon="116.18078586684416">
        <ele>65.555908203125</ele>
        <time>2026-08-10T12:00:25Z</time>
      </trkpt>
      <trkpt lat="39.91335333465146" lon="116.18074675678322">
        <ele>64.72637939453125</ele>
        <time>2026-08-10T12:01:31Z</time>
      </trkpt>
      <trkpt lat="39.91327665797242" lon="116.18036573800667">
        <ele>66.21685791015625</ele>
        <time>2026-08-10T12:01:49Z</time>
      </trkpt>
      <trkpt lat="39.91324602800085" lon="116.1800127872043">
        <ele>68.2203369140625</ele>
        <time>2026-08-10T12:02:04Z</time>
      </trkpt>
      <trkpt lat="39.91325924365412" lon="116.17957560045019">
        <ele>68.47393798828125</ele>
        <time>2026-08-10T12:02:19Z</time>
      </trkpt>
      <trkpt lat="39.913290391556274" lon="116.17910231040284">
        <ele>64.96051025390625</ele>
        <time>2026-08-10T12:02:37Z</time>
      </trkpt>
      <trkpt lat="39.91328760193641" lon="116.1786641171272">
        <ele>68.32501220703125</ele>
        <time>2026-08-10T12:02:55Z</time>
      </trkpt>
      <trkpt lat="39.913284939155105" lon="116.17829711570579">
        <ele>69.08990478515625</ele>
        <time>2026-08-10T12:03:07Z</time>
      </trkpt>
      <trkpt lat="39.91329765567628" lon="116.17814068656953">
        <ele>69.349853515625</ele>
        <time>2026-08-10T12:03:13Z</time>
      </trkpt>
      <trkpt lat="39.91329189664198" lon="116.17772154010825">
        <ele>69.59259033203125</ele>
        <time>2026-08-10T12:03:28Z</time>
      </trkpt>
      <trkpt lat="39.91332750214607" lon="116.17750494192322">
        <ele>66.31256103515625</ele>
        <time>2026-08-10T12:03:37Z</time>
      </trkpt>
      <trkpt lat="39.91330527910855" lon="116.17738160636934">
        <ele>65.1473388671875</ele>
        <time>2026-08-10T12:03:43Z</time>
      </trkpt>
      <trkpt lat="39.91329972884194" lon="116.17707877550671">
        <ele>65.60211181640625</ele>
        <time>2026-08-10T12:03:55Z</time>
      </trkpt>
      <trkpt lat="39.913319454281904" lon="116.1769283595731">
        <ele>65.5018310546875</ele>
        <time>2026-08-10T12:04:01Z</time>
      </trkpt>
      <trkpt lat="39.91330633433486" lon="116.1768621792182">
        <ele>64.49188232421875</ele>
        <time>2026-08-10T12:04:04Z</time>
      </trkpt>
      <trkpt lat="39.913325671923985" lon="116.17649917756651">
        <ele>62.533203125</ele>
        <time>2026-08-10T12:04:19Z</time>
      </trkpt>
      <trkpt lat="39.91331099153683" lon="116.17612615097265">
        <ele>65.74981689453125</ele>
        <time>2026-08-10T12:04:34Z</time>
      </trkpt>
      <trkpt lat="39.9133333158117" lon="116.17575712921023">
        <ele>64.79931640625</ele>
        <time>2026-08-10T12:04:49Z</time>
      </trkpt>
      <trkpt lat="39.913344573331806" lon="116.17535200742358">
        <ele>64.9715576171875</ele>
        <time>2026-08-10T12:05:07Z</time>
      </trkpt>
      <trkpt lat="39.913343918502136" lon="116.17499501879345">
        <ele>66.59033203125</ele>
        <time>2026-08-10T12:05:22Z</time>
      </trkpt>
      <trkpt lat="39.913335235449196" lon="116.17462298811378">
        <ele>65.8409423828125</ele>
        <time>2026-08-10T12:05:37Z</time>
      </trkpt>
      <trkpt lat="39.91332549610865" lon="116.17422087258484">
        <ele>64.87591552734375</ele>
        <time>2026-08-10T12:05:55Z</time>
      </trkpt>
      <trkpt lat="39.913312336027914" lon="116.17413363174745">
        <ele>65.11669921875</ele>
        <time>2026-08-10T12:05:58Z</time>
      </trkpt>
      <trkpt lat="39.913343665781255" lon="116.17377061802895">
        <ele>64.947998046875</ele>
        <time>2026-08-10T12:06:13Z</time>
      </trkpt>
      <trkpt lat="39.913352078980886" lon="116.1734527317316">
        <ele>73.0972900390625</ele>
        <time>2026-08-10T12:06:25Z</time>
      </trkpt>
      <trkpt lat="39.91338370733504" lon="116.17325216877639">
        <ele>70.261962890625</ele>
        <time>2026-08-10T12:06:34Z</time>
      </trkpt>
      <trkpt lat="39.91333942576017" lon="116.17309874651029">
        <ele>72.45635986328125</ele>
        <time>2026-08-10T12:06:40Z</time>
      </trkpt>
      <trkpt lat="39.91334125332649" lon="116.17300548611908">
        <ele>74.01361083984375</ele>
        <time>2026-08-10T12:06:43Z</time>
      </trkpt>
      <trkpt lat="39.913374958969584" lon="116.17284703971096">
        <ele>75.4384765625</ele>
        <time>2026-08-10T12:06:49Z</time>
      </trkpt>
      <trkpt lat="39.91332650836766" lon="116.1726023625838">
        <ele>76.84130859375</ele>
        <time>2026-08-10T12:06:58Z</time>
      </trkpt>
      <trkpt lat="39.91328634487907" lon="116.17251311831441">
        <ele>77.136962890625</ele>
        <time>2026-08-10T12:07:01Z</time>
      </trkpt>
      <trkpt lat="39.913311742105094" lon="116.1721882069093">
        <ele>73.6973876953125</ele>
        <time>2026-08-10T12:07:16Z</time>
      </trkpt>
      <trkpt lat="39.913441426282105" lon="116.17202072213001">
        <ele>72.1021728515625</ele>
        <time>2026-08-10T12:07:25Z</time>
      </trkpt>
      <trkpt lat="39.9135138542146" lon="116.17171385413984">
        <ele>72.04351806640625</ele>
        <time>2026-08-10T12:07:34Z</time>
      </trkpt>
      <trkpt lat="39.91351274077858" lon="116.17165268298896">
        <ele>70.23895263671875</ele>
        <time>2026-08-10T12:07:37Z</time>
      </trkpt>
      <trkpt lat="39.913410220260005" lon="116.17136990370655">
        <ele>70.28619384765625</ele>
        <time>2026-08-10T12:07:49Z</time>
      </trkpt>
      <trkpt lat="39.91340945286598" lon="116.17095674543091">
        <ele>67.81951904296875</ele>
        <time>2026-08-10T12:08:07Z</time>
      </trkpt>
      <trkpt lat="39.91340630762934" lon="116.17087852640034">
        <ele>67.9395751953125</ele>
        <time>2026-08-10T12:08:10Z</time>
      </trkpt>
      <trkpt lat="39.91337115812743" lon="116.1707973029259">
        <ele>68.414794921875</ele>
        <time>2026-08-10T12:08:13Z</time>
      </trkpt>
      <trkpt lat="39.913242157985366" lon="116.17079431075219">
        <ele>68.10809326171875</ele>
        <time>2026-08-10T12:08:19Z</time>
      </trkpt>
      <trkpt lat="39.91315511878652" lon="116.17077125700656">
        <ele>69.06829833984375</ele>
        <time>2026-08-10T12:08:22Z</time>
      </trkpt>
      <trkpt lat="39.91309596280799" lon="116.1706860252486">
        <ele>70.8358154296875</ele>
        <time>2026-08-10T12:08:28Z</time>
      </trkpt>
      <trkpt lat="39.91307054610908" lon="116.17046139783523">
        <ele>70.57391357421875</ele>
        <time>2026-08-10T12:08:37Z</time>
      </trkpt>
      <trkpt lat="39.91302946016474" lon="116.17041427066208">
        <ele>71.1533203125</ele>
        <time>2026-08-10T12:08:40Z</time>
      </trkpt>
      <trkpt lat="39.91270847001627" lon="116.17041230551348">
        <ele>70.7901611328125</ele>
        <time>2026-08-10T12:08:55Z</time>
      </trkpt>
      <trkpt lat="39.91239547767828" lon="116.17040933653949">
        <ele>70.79608154296875</ele>
        <time>2026-08-10T12:09:10Z</time>
      </trkpt>
      <trkpt lat="39.912082504010705" lon="116.1704163957244">
        <ele>71.69232177734375</ele>
        <time>2026-08-10T12:09:25Z</time>
      </trkpt>
      <trkpt lat="39.91191149261253" lon="116.17040638913008">
        <ele>71.48101806640625</ele>
        <time>2026-08-10T12:09:34Z</time>
      </trkpt>
      <trkpt lat="39.911869397379164" lon="116.17035424798877">
        <ele>71.8360595703125</ele>
        <time>2026-08-10T12:09:37Z</time>
      </trkpt>
      <trkpt lat="39.91186666766642" lon="116.16996214665193">
        <ele>71.2030029296875</ele>
        <time>2026-08-10T12:09:52Z</time>
      </trkpt>
      <trkpt lat="39.911877905086875" lon="116.16955299478215">
        <ele>68.1949462890625</ele>
        <time>2026-08-10T12:10:10Z</time>
      </trkpt>
      <trkpt lat="39.9118671747232" lon="116.16916089284648">
        <ele>69.921875</ele>
        <time>2026-08-10T12:10:28Z</time>
      </trkpt>
      <trkpt lat="39.911864664316475" lon="116.1688871224205">
        <ele>73.112060546875</ele>
        <time>2026-08-10T12:10:40Z</time>
      </trkpt>
      <trkpt lat="39.911880920903954" lon="116.16848899898373">
        <ele>71.45391845703125</ele>
        <time>2026-08-10T12:10:58Z</time>
      </trkpt>
      <trkpt lat="39.91184337786314" lon="116.16819718135889">
        <ele>71.613525390625</ele>
        <time>2026-08-10T12:11:10Z</time>
      </trkpt>
      <trkpt lat="39.911883614140734" lon="116.16778902560246">
        <ele>69.02685546875</ele>
        <time>2026-08-10T12:11:28Z</time>
      </trkpt>
      <trkpt lat="39.911887926600386" lon="116.16742098701918">
        <ele>71.3289794921875</ele>
        <time>2026-08-10T12:11:43Z</time>
      </trkpt>
      <trkpt lat="39.91186319701772" lon="116.16702988663977">
        <ele>74.85430908203125</ele>
        <time>2026-08-10T12:12:01Z</time>
      </trkpt>
      <trkpt lat="39.91186453175862" lon="116.16667388168646">
        <ele>75.536865234375</ele>
        <time>2026-08-10T12:12:16Z</time>
      </trkpt>
      <trkpt lat="39.91186513443708" lon="116.16646128144598">
        <ele>74.4141845703125</ele>
        <time>2026-08-10T12:12:25Z</time>
      </trkpt>
      <trkpt lat="39.911846030297326" lon="116.16640512531049">
        <ele>74.1458740234375</ele>
        <time>2026-08-10T12:12:28Z</time>
      </trkpt>
      <trkpt lat="39.911525090785936" lon="116.16643023661769">
        <ele>71.32745361328125</ele>
        <time>2026-08-10T12:12:46Z</time>
      </trkpt>
      <trkpt lat="39.911314225318264" lon="116.1664974529302">
        <ele>73.08746337890625</ele>
        <time>2026-08-10T12:12:58Z</time>
      </trkpt>
      <trkpt lat="39.91100625716787" lon="116.1665075201273">
        <ele>72.61346435546875</ele>
        <time>2026-08-10T12:13:16Z</time>
      </trkpt>
      <trkpt lat="39.9106862633076" lon="116.16650354920749">
        <ele>74.25567626953125</ele>
        <time>2026-08-10T12:13:34Z</time>
      </trkpt>
      <trkpt lat="39.91063226935818" lon="116.1665055616871">
        <ele>73.89251708984375</ele>
        <time>2026-08-10T12:13:37Z</time>
      </trkpt>
      <trkpt lat="39.91055312467953" lon="116.16642634802326">
        <ele>73.06658935546875</ele>
        <time>2026-08-10T12:13:43Z</time>
      </trkpt>
      <trkpt lat="39.91053500738115" lon="116.16636317194367">
        <ele>72.78302001953125</ele>
        <time>2026-08-10T12:13:46Z</time>
      </trkpt>
      <trkpt lat="39.91051920212697" lon="116.1659319563461">
        <ele>70.5185546875</ele>
        <time>2026-08-10T12:14:13Z</time>
      </trkpt>
      <trkpt lat="39.91049082659737" lon="116.16573039069118">
        <ele>71.71435546875</ele>
        <time>2026-08-10T12:14:25Z</time>
      </trkpt>
      <trkpt lat="39.91047009462172" lon="116.16533828587153">
        <ele>71.80670166015625</ele>
        <time>2026-08-10T12:14:49Z</time>
      </trkpt>
      <trkpt lat="39.91043938747826" lon="116.16495921903801">
        <ele>70.775390625</ele>
        <time>2026-08-10T12:15:13Z</time>
      </trkpt>
      <trkpt lat="39.9104036862522" lon="116.16458316129723">
        <ele>70.19842529296875</ele>
        <time>2026-08-10T12:15:37Z</time>
      </trkpt>
      <trkpt lat="39.91036396658599" lon="116.16419707575733">
        <ele>67.48748779296875</ele>
        <time>2026-08-10T12:16:01Z</time>
      </trkpt>
      <trkpt lat="39.91033230855831" lon="116.1638440827423">
        <ele>68.38421630859375</ele>
        <time>2026-08-10T12:16:25Z</time>
      </trkpt>
      <trkpt lat="39.91031083003802" lon="116.16358736042085">
        <ele>69.09326171875</ele>
        <time>2026-08-10T12:16:43Z</time>
      </trkpt>
      <trkpt lat="39.91026470841936" lon="116.163521179338">
        <ele>69.128173828125</ele>
        <time>2026-08-10T12:16:49Z</time>
      </trkpt>
      <trkpt lat="39.91019364591804" lon="116.16348608920141">
        <ele>68.848388671875</ele>
        <time>2026-08-10T12:16:55Z</time>
      </trkpt>
      <trkpt lat="39.90994097505171" lon="116.16365660257465">
        <ele>71.4144287109375</ele>
        <time>2026-08-10T12:17:13Z</time>
      </trkpt>
      <trkpt lat="39.90975024540315" lon="116.16379702318054">
        <ele>75.1822509765625</ele>
        <time>2026-08-10T12:17:28Z</time>
      </trkpt>
      <trkpt lat="39.90963646192203" lon="116.16391035760623">
        <ele>75.3126220703125</ele>
        <time>2026-08-10T12:17:37Z</time>
      </trkpt>
      <trkpt lat="39.909390736562905" lon="116.16405178802049">
        <ele>72.9862060546875</ele>
        <time>2026-08-10T12:17:55Z</time>
      </trkpt>
      <trkpt lat="39.909314135134764" lon="116.16426339535245">
        <ele>72.9239501953125</ele>
        <time>2026-08-10T12:18:07Z</time>
      </trkpt>
      <trkpt lat="39.90930525355036" lon="116.16432657492507">
        <ele>73.19476318359375</ele>
        <time>2026-08-10T12:18:10Z</time>
      </trkpt>
      <trkpt lat="39.909322438306134" lon="116.1644258531791">
        <ele>72.92730712890625</ele>
        <time>2026-08-10T12:18:16Z</time>
      </trkpt>
      <trkpt lat="39.909386572341745" lon="116.16449905185658">
        <ele>73.014892578125</ele>
        <time>2026-08-10T12:18:22Z</time>
      </trkpt>
      <trkpt lat="39.90939174076418" lon="116.16458930613967">
        <ele>72.9007568359375</ele>
        <time>2026-08-10T12:18:28Z</time>
      </trkpt>
      <trkpt lat="39.90921621302805" lon="116.16483803080622">
        <ele>73.24993896484375</ele>
        <time>2026-08-10T12:18:46Z</time>
      </trkpt>
      <trkpt lat="39.909153513698314" lon="116.16499748911046">
        <ele>73.66632080078125</ele>
        <time>2026-08-10T12:18:55Z</time>
      </trkpt>
      <trkpt lat="39.90916787855097" lon="116.16519303964284">
        <ele>73.13006591796875</ele>
        <time>2026-08-10T12:19:04Z</time>
      </trkpt>
      <trkpt lat="39.9091516383386" lon="116.16559918880652">
        <ele>72.41607666015625</ele>
        <time>2026-08-10T12:19:22Z</time>
      </trkpt>
      <trkpt lat="39.90914901706743" lon="116.16580176122574">
        <ele>71.82598876953125</ele>
        <time>2026-08-10T12:19:31Z</time>
      </trkpt>
      <trkpt lat="39.909185403491904" lon="116.1660093428322">
        <ele>73.299560546875</ele>
        <time>2026-08-10T12:19:40Z</time>
      </trkpt>
      <trkpt lat="39.909157920091225" lon="116.16628512498261">
        <ele>73.03167724609375</ele>
        <time>2026-08-10T12:19:52Z</time>
      </trkpt>
      <trkpt lat="39.909202609718626" lon="116.16665516399159">
        <ele>72.1114501953125</ele>
        <time>2026-08-10T12:20:07Z</time>
      </trkpt>
      <trkpt lat="39.90915316087955" lon="116.16694899953629">
        <ele>72.2265625</ele>
        <time>2026-08-10T12:20:19Z</time>
      </trkpt>
      <trkpt lat="39.90899154066303" lon="116.16714858307292">
        <ele>70.3798828125</ele>
        <time>2026-08-10T12:20:31Z</time>
      </trkpt>
      <trkpt lat="39.908829729333355" lon="116.16724587795476">
        <ele>70.623291015625</ele>
        <time>2026-08-10T12:20:40Z</time>
      </trkpt>
      <trkpt lat="39.90858979771354" lon="116.16727699594753">
        <ele>71.021240234375</ele>
        <time>2026-08-10T12:20:52Z</time>
      </trkpt>
      <trkpt lat="39.90847474458357" lon="116.16724592276248">
        <ele>69.43267822265625</ele>
        <time>2026-08-10T12:20:58Z</time>
      </trkpt>
      <trkpt lat="39.90818176655233" lon="116.16725097388938">
        <ele>68.62841796875</ele>
        <time>2026-08-10T12:21:13Z</time>
      </trkpt>
      <trkpt lat="39.90800674411266" lon="116.16723495071211">
        <ele>69.52117919921875</ele>
        <time>2026-08-10T12:21:22Z</time>
      </trkpt>
      <trkpt lat="39.90784950920543" lon="116.16710560555593">
        <ele>71.04693603515625</ele>
        <time>2026-08-10T12:21:31Z</time>
      </trkpt>
      <trkpt lat="39.90767038202716" lon="116.16703342442656">
        <ele>71.5438232421875</ele>
        <time>2026-08-10T12:21:40Z</time>
      </trkpt>
      <trkpt lat="39.90743342597474" lon="116.16705150527268">
        <ele>70.3575439453125</ele>
        <time>2026-08-10T12:21:52Z</time>
      </trkpt>
      <trkpt lat="39.90725857029567" lon="116.16712473390876">
        <ele>69.49237060546875</ele>
        <time>2026-08-10T12:22:01Z</time>
      </trkpt>
      <trkpt lat="39.90711183517306" lon="116.16726314288533">
        <ele>68.5972900390625</ele>
        <time>2026-08-10T12:22:10Z</time>
      </trkpt>
      <trkpt lat="39.90698431086392" lon="116.1675148690264">
        <ele>70.79693603515625</ele>
        <time>2026-08-10T12:22:22Z</time>
      </trkpt>
      <trkpt lat="39.90695475414077" lon="116.16775154020432">
        <ele>70.06402587890625</ele>
        <time>2026-08-10T12:22:31Z</time>
      </trkpt>
      <trkpt lat="39.90701035840075" lon="116.16807644922973">
        <ele>69.61370849609375</ele>
        <time>2026-08-10T12:22:43Z</time>
      </trkpt>
      <trkpt lat="39.90701069721071" lon="116.16825796077168">
        <ele>70.93798828125</ele>
        <time>2026-08-10T12:22:49Z</time>
      </trkpt>
      <trkpt lat="39.907073963991394" lon="116.16840235971141">
        <ele>71.76885986328125</ele>
        <time>2026-08-10T12:22:55Z</time>
      </trkpt>
      <trkpt lat="39.9071163962836" lon="116.16863500978954">
        <ele>71.01416015625</ele>
        <time>2026-08-10T12:23:04Z</time>
      </trkpt>
      <trkpt lat="39.907100860883716" lon="116.16888371214444">
        <ele>72.07122802734375</ele>
        <time>2026-08-10T12:23:13Z</time>
      </trkpt>
      <trkpt lat="39.90700151030557" lon="116.16922969857666">
        <ele>73.61474609375</ele>
        <time>2026-08-10T12:23:28Z</time>
      </trkpt>
      <trkpt lat="39.90700275325982" lon="116.16936006525621">
        <ele>72.27557373046875</ele>
        <time>2026-08-10T12:23:34Z</time>
      </trkpt>
      <trkpt lat="39.9070489942204" lon="116.16949042618019">
        <ele>71.593505859375</ele>
        <time>2026-08-10T12:23:40Z</time>
      </trkpt>
      <trkpt lat="39.907132222322744" lon="116.16961476543577">
        <ele>71.4515380859375</ele>
        <time>2026-08-10T12:23:46Z</time>
      </trkpt>
      <trkpt lat="39.90723835411919" lon="116.16968795791756">
        <ele>70.48870849609375</ele>
        <time>2026-08-10T12:23:52Z</time>
      </trkpt>
      <trkpt lat="39.907512310533086" lon="116.16967087542666">
        <ele>69.616455078125</ele>
        <time>2026-08-10T12:24:07Z</time>
      </trkpt>
      <trkpt lat="39.90778736592323" lon="116.16970694225361">
        <ele>71.18255615234375</ele>
        <time>2026-08-10T12:24:22Z</time>
      </trkpt>
      <trkpt lat="39.90790229184973" lon="116.16966982342116">
        <ele>69.6859130859375</ele>
        <time>2026-08-10T12:24:28Z</time>
      </trkpt>
      <trkpt lat="39.90805302191267" lon="116.16952840673504">
        <ele>69.49285888671875</ele>
        <time>2026-08-10T12:24:37Z</time>
      </trkpt>
      <trkpt lat="39.9081475150813" lon="116.16925863586117">
        <ele>69.1258544921875</ele>
        <time>2026-08-10T12:24:49Z</time>
      </trkpt>
      <trkpt lat="39.90818439197775" lon="116.16919344776751">
        <ele>69.235595703125</ele>
        <time>2026-08-10T12:24:52Z</time>
      </trkpt>
      <trkpt lat="39.90829121162966" lon="116.16909916897302">
        <ele>69.75042724609375</ele>
        <time>2026-08-10T12:24:58Z</time>
      </trkpt>
      <trkpt lat="39.908518132686076" lon="116.16906203590148">
        <ele>69.94378662109375</ele>
        <time>2026-08-10T12:25:10Z</time>
      </trkpt>
      <trkpt lat="39.908688252524406" lon="116.16913020639042">
        <ele>70.14422607421875</ele>
        <time>2026-08-10T12:25:19Z</time>
      </trkpt>
      <trkpt lat="39.90872240997537" lon="116.16921544198954">
        <ele>69.15771484375</ele>
        <time>2026-08-10T12:25:25Z</time>
      </trkpt>
      <trkpt lat="39.9086610163165" lon="116.1695393610757">
        <ele>69.0439453125</ele>
        <time>2026-08-10T12:25:37Z</time>
      </trkpt>
      <trkpt lat="39.90873374917215" lon="116.16993446287104">
        <ele>68.587158203125</ele>
        <time>2026-08-10T12:25:52Z</time>
      </trkpt>
      <trkpt lat="39.90874289628859" lon="116.17001368437776">
        <ele>68.409912109375</ele>
        <time>2026-08-10T12:25:55Z</time>
      </trkpt>
      <trkpt lat="39.90867848701245" lon="116.17032957998228">
        <ele>68.4583740234375</ele>
        <time>2026-08-10T12:26:07Z</time>
      </trkpt>
      <trkpt lat="39.908559585415865" lon="116.17037973579438">
        <ele>67.80902099609375</ele>
        <time>2026-08-10T12:26:13Z</time>
      </trkpt>
      <trkpt lat="39.90826054603216" lon="116.17035169464654">
        <ele>68.52264404296875</ele>
        <time>2026-08-10T12:26:28Z</time>
      </trkpt>
      <trkpt lat="39.90794858558542" lon="116.17036577341256">
        <ele>70.610107421875</ele>
        <time>2026-08-10T12:26:43Z</time>
      </trkpt>
      <trkpt lat="39.907830613058614" lon="116.17037782208332">
        <ele>70.6822509765625</ele>
        <time>2026-08-10T12:26:52Z</time>
      </trkpt>
      <trkpt lat="39.907792689322314" lon="116.17041793950891">
        <ele>72.57696533203125</ele>
        <time>2026-08-10T12:27:01Z</time>
      </trkpt>
      <trkpt lat="39.90780817732746" lon="116.17068067513866">
        <ele>73.2706298828125</ele>
        <time>2026-08-10T12:27:31Z</time>
      </trkpt>
      <trkpt lat="39.907836485587254" lon="116.17084713867818">
        <ele>72.83282470703125</ele>
        <time>2026-08-10T12:27:40Z</time>
      </trkpt>
      <trkpt lat="39.90783229622032" lon="116.17128336242773">
        <ele>74.208740234375</ele>
        <time>2026-08-10T12:28:04Z</time>
      </trkpt>
      <trkpt lat="39.90782811533048" lon="116.17172459894839">
        <ele>77.2220458984375</ele>
        <time>2026-08-10T12:28:28Z</time>
      </trkpt>
      <trkpt lat="39.90782344285314" lon="116.17190109355295">
        <ele>75.8404541015625</ele>
        <time>2026-08-10T12:28:37Z</time>
      </trkpt>
      <trkpt lat="39.90787380688157" lon="116.1720986398976">
        <ele>73.06317138671875</ele>
        <time>2026-08-10T12:28:46Z</time>
      </trkpt>
      <trkpt lat="39.90792804237774" lon="116.17222699201676">
        <ele>73.48675537109375</ele>
        <time>2026-08-10T12:28:52Z</time>
      </trkpt>
      <trkpt lat="39.90794020160137" lon="116.17231323158676">
        <ele>72.374267578125</ele>
        <time>2026-08-10T12:28:55Z</time>
      </trkpt>
      <trkpt lat="39.90787270022554" lon="116.17258098826434">
        <ele>73.79022216796875</ele>
        <time>2026-08-10T12:29:07Z</time>
      </trkpt>
      <trkpt lat="39.90789295727165" lon="116.17272037498498">
        <ele>73.93231201171875</ele>
        <time>2026-08-10T12:29:13Z</time>
      </trkpt>
      <trkpt lat="39.90787450324352" lon="116.17301520014396">
        <ele>74.068359375</ele>
        <time>2026-08-10T12:29:25Z</time>
      </trkpt>
      <trkpt lat="39.90779981777271" lon="116.17318367941853">
        <ele>76.78326416015625</ele>
        <time>2026-08-10T12:29:37Z</time>
      </trkpt>
      <trkpt lat="39.907831301582206" lon="116.17344640773197">
        <ele>76.26214599609375</ele>
        <time>2026-08-10T12:29:55Z</time>
      </trkpt>
      <trkpt lat="39.90783099159403" lon="116.1738204492384">
        <ele>75.84814453125</ele>
        <time>2026-08-10T12:30:13Z</time>
      </trkpt>
      <trkpt lat="39.90784464319992" lon="116.17417443196192">
        <ele>75.89630126953125</ele>
        <time>2026-08-10T12:30:28Z</time>
      </trkpt>
      <trkpt lat="39.90784335548111" lon="116.17456150722901">
        <ele>75.3243408203125</ele>
        <time>2026-08-10T12:30:43Z</time>
      </trkpt>
      <trkpt lat="39.907834089176006" lon="116.17496061536814">
        <ele>73.27105712890625</ele>
        <time>2026-08-10T12:30:58Z</time>
      </trkpt>
      <trkpt lat="39.90781887896961" lon="116.17539080863672">
        <ele>72.49920654296875</ele>
        <time>2026-08-10T12:31:13Z</time>
      </trkpt>
      <trkpt lat="39.90780860845884" lon="116.17578891065041">
        <ele>71.65887451171875</ele>
        <time>2026-08-10T12:31:28Z</time>
      </trkpt>
      <trkpt lat="39.90782729517102" lon="116.17616494640446">
        <ele>69.82794189453125</ele>
        <time>2026-08-10T12:31:43Z</time>
      </trkpt>
      <trkpt lat="39.90782599075211" lon="116.17654599685909">
        <ele>69.36328125</ele>
        <time>2026-08-10T12:31:58Z</time>
      </trkpt>
      <trkpt lat="39.90784865853286" lon="116.17691300397458">
        <ele>67.96441650390625</ele>
        <time>2026-08-10T12:32:13Z</time>
      </trkpt>
      <trkpt lat="39.907868332573976" lon="116.17728402083219">
        <ele>67.57611083984375</ele>
        <time>2026-08-10T12:32:28Z</time>
      </trkpt>
      <trkpt lat="39.90786799534128" lon="116.1776490219886">
        <ele>68.1287841796875</ele>
        <time>2026-08-10T12:32:43Z</time>
      </trkpt>
      <trkpt lat="39.90784770313919" lon="116.17803909250695">
        <ele>70.697265625</ele>
        <time>2026-08-10T12:32:58Z</time>
      </trkpt>
      <trkpt lat="39.90784239798444" lon="116.17842314268835">
        <ele>71.230712890625</ele>
        <time>2026-08-10T12:33:13Z</time>
      </trkpt>
      <trkpt lat="39.90785352430443" lon="116.17849333288953">
        <ele>71.41546630859375</ele>
        <time>2026-08-10T12:33:16Z</time>
      </trkpt>
      <trkpt lat="39.90805571294109" lon="116.17860260567406">
        <ele>71.7080078125</ele>
        <time>2026-08-10T12:33:28Z</time>
      </trkpt>
      <trkpt lat="39.908267783440515" lon="116.17864669933498">
        <ele>76.4931640625</ele>
        <time>2026-08-10T12:33:40Z</time>
      </trkpt>
      <trkpt lat="39.90857773391482" lon="116.17862660565689">
        <ele>68.45025634765625</ele>
        <time>2026-08-10T12:33:55Z</time>
      </trkpt>
      <trkpt lat="39.90888271900141" lon="116.17862556456187">
        <ele>70.6278076171875</ele>
        <time>2026-08-10T12:34:10Z</time>
      </trkpt>
      <trkpt lat="39.9092106560608" lon="116.17859844946727">
        <ele>70.30841064453125</ele>
        <time>2026-08-10T12:34:28Z</time>
      </trkpt>
      <trkpt lat="39.90939866429032" lon="116.17860745043622">
        <ele>68.77215576171875</ele>
        <time>2026-08-10T12:34:37Z</time>
      </trkpt>
      <trkpt lat="39.909568819855515" lon="116.17869767514087">
        <ele>66.94873046875</ele>
        <time>2026-08-10T12:34:49Z</time>
      </trkpt>
      <trkpt lat="39.90959790000746" lon="116.17874279449426">
        <ele>67.64556884765625</ele>
        <time>2026-08-10T12:34:55Z</time>
      </trkpt>
      <trkpt lat="39.909647906908944" lon="116.17874780187066">
        <ele>68.8648681640625</ele>
        <time>2026-08-10T12:35:01Z</time>
      </trkpt>
      <trkpt lat="39.909795828226635" lon="116.17870767392617">
        <ele>69.1405029296875</ele>
        <time>2026-08-10T12:35:13Z</time>
      </trkpt>
      <trkpt lat="39.91014584943413" lon="116.17872768457293">
        <ele>67.58795166015625</ele>
        <time>2026-08-10T12:35:34Z</time>
      </trkpt>
      <trkpt lat="39.910464826764944" lon="116.17872263078364">
        <ele>66.89453125</ele>
        <time>2026-08-10T12:35:52Z</time>
      </trkpt>
      <trkpt lat="39.910514853569055" lon="116.17873866822659">
        <ele>67.4483642578125</ele>
        <time>2026-08-10T12:35:55Z</time>
      </trkpt>
      <trkpt lat="39.910521476667874" lon="116.17908460955707">
        <ele>69.0177001953125</ele>
        <time>2026-08-10T12:36:10Z</time>
      </trkpt>
      <trkpt lat="39.910541735637395" lon="116.1792289997553">
        <ele>69.359375</ele>
        <time>2026-08-10T12:36:16Z</time>
      </trkpt>
      <trkpt lat="39.910528372247605" lon="116.17958296292787">
        <ele>68.18865966796875</ele>
        <time>2026-08-10T12:36:31Z</time>
      </trkpt>
      <trkpt lat="39.91052776261108" lon="116.17980055314555">
        <ele>69.59185791015625</ele>
        <time>2026-08-10T12:36:40Z</time>
      </trkpt>
      <trkpt lat="39.91053803708219" lon="116.17995396751726">
        <ele>68.26043701171875</ele>
        <time>2026-08-10T12:36:46Z</time>
      </trkpt>
      <trkpt lat="39.91053072623252" lon="116.1803390100916">
        <ele>67.49981689453125</ele>
        <time>2026-08-10T12:37:01Z</time>
      </trkpt>
      <trkpt lat="39.91056879984983" lon="116.18038111909736">
        <ele>66.83905029296875</ele>
        <time>2026-08-10T12:37:04Z</time>
      </trkpt>
      <trkpt lat="39.910841761336414" lon="116.1803660441433">
        <ele>69.57513427734375</ele>
        <time>2026-08-10T12:37:19Z</time>
      </trkpt>
      <trkpt lat="39.91111676394846" lon="116.18037403124285">
        <ele>69.85076904296875</ele>
        <time>2026-08-10T12:37:34Z</time>
      </trkpt>
      <trkpt lat="39.91125170087438" lon="116.18034192757726">
        <ele>66.5794677734375</ele>
        <time>2026-08-10T12:37:43Z</time>
      </trkpt>
      <trkpt lat="39.91131773389497" lon="116.18036197346517">
        <ele>66.3524169921875</ele>
        <time>2026-08-10T12:37:49Z</time>
      </trkpt>
      <trkpt lat="39.911408928796874" lon="116.18047326264038">
        <ele>66.5264892578125</ele>
        <time>2026-08-10T12:37:58Z</time>
      </trkpt>
      <trkpt lat="39.911459305923096" lon="116.18068582996396">
        <ele>67.25738525390625</ele>
        <time>2026-08-10T12:38:07Z</time>
      </trkpt>
      <trkpt lat="39.911487417335834" lon="116.18074899676591">
        <ele>66.2747802734375</ele>
        <time>2026-08-10T12:38:10Z</time>
      </trkpt>
      <trkpt lat="39.91154347213221" lon="116.18078107621479">
        <ele>66.43426513671875</ele>
        <time>2026-08-10T12:38:13Z</time>
      </trkpt>
      <trkpt lat="39.911846514633595" lon="116.18081212189634">
        <ele>66.11309814453125</ele>
        <time>2026-08-10T12:38:28Z</time>
      </trkpt>
      <trkpt lat="39.912070487258305" lon="116.18080206671712">
        <ele>64.79571533203125</ele>
        <time>2026-08-10T12:38:40Z</time>
      </trkpt>
      <trkpt lat="39.91232955128757" lon="116.18084414763706">
        <ele>62.578125</ele>
        <time>2026-08-10T12:38:52Z</time>
      </trkpt>
      <trkpt lat="39.912613519603816" lon="116.18083308221826">
        <ele>65.14886474609375</ele>
        <time>2026-08-10T12:39:07Z</time>
      </trkpt>
      <trkpt lat="39.91293955401868" lon="116.1808601141776">
        <ele>66.2493896484375</ele>
        <time>2026-08-10T12:39:25Z</time>
      </trkpt>
      <trkpt lat="39.913127512134615" lon="116.18084103921657">
        <ele>64.7545166015625</ele>
        <time>2026-08-10T12:39:34Z</time>
      </trkpt>
      <trkpt lat="39.91328752144284" lon="116.18085004341654">
        <ele>66.8924560546875</ele>
        <time>2026-08-10T12:39:43Z</time>
      </trkpt>
      <trkpt lat="39.91342156220796" lon="116.18087609680387">
        <ele>67.6851806640625</ele>
        <time>2026-08-10T12:39:49Z</time>
      </trkpt>
      <trkpt lat="39.91370254498517" lon="116.18087305337545">
        <ele>64.60308837890625</ele>
        <time>2026-08-10T12:40:04Z</time>
      </trkpt>
      <trkpt lat="39.91380853694078" lon="116.18087103464754">
        <ele>64.66815185546875</ele>
        <time>2026-08-10T12:40:10Z</time>
      </trkpt>
      <trkpt lat="39.91385362609219" lon="116.18092216672797">
        <ele>64.177001953125</ele>
        <time>2026-08-10T12:40:16Z</time>
      </trkpt>
      <trkpt lat="39.913857775822116" lon="116.18100639299524">
        <ele>65.7579345703125</ele>
        <time>2026-08-10T12:40:22Z</time>
      </trkpt>
    </trkseg>
  </trk>
</gpx>