<?xml version="1.0" encoding="UTF-8"?>
<gpx xmlns="http://www.topografix.com/GPX/1/1" xmlns:gpxtpx="http://www.garmin.com/xmlschemas/TrackPointExtension/v1" xmlns:xsi="http://www.w3.org/2001/XMLSchema-instance" xsi:schemaLocation="http://www.topografix.com/GPX/1/1 http://www.topografix.com/GPX/1/1/gpx.xsd" version="1.1" creator="gpx.py -- https://github.com/tkrajina/gpxpy">
  <trk>
    <name>gpx from keep</name>
    <type>Run</type>
    <trkseg>
      <trkpt lat="39.9129587852681" lon="116.18556058314475">
        <ele>68.65789794921875</ele>
        <time>2026-09-08T10:50:56Z</time>
      </trkpt>
      <trkpt lat="39.913034782051994" lon="116.18556057360418">
        <ele>67.277587890625</ele>
        <time>2026-09-08T10:51:02Z</time>
      </trkpt>
      <trkpt lat="39.91308187310887" lon="116.18561470890505">
        <ele>66.7459716796875</ele>
        <time>2026-09-08T10:51:08Z</time>
      </trkpt>
      <trkpt lat="39.913074014654775" lon="116.18569692421087">
        <ele>65.96490478515625</ele>
        <time>2026-09-08T10:51:14Z</time>
      </trkpt>
      <trkpt lat="39.913105157889945" lon="116.18578113970409">
        <ele>65.9998779296875</ele>
        <time>2026-09-08T10:51:20Z</time>
      </trkpt>
      <trkpt lat="39.91312658656728" lon="116.18603178913172">
        <ele>66.600830078125</ele>
        <time>2026-09-08T10:51:32Z</time>
      </trkpt>
      <trkpt lat="39.913172678998286" lon="116.18608692663685">
        <ele>63.91839599609375</ele>
        <time>2026-09-08T10:51:38Z</time>
      </trkpt>
      <trkpt lat="39.913327674160236" lon="116.18608790978635">
        <ele>62.90380859375</ele>
        <time>2026-09-08T10:51:47Z</time>
      </trkpt>
      <trkpt lat="39.9133846322905" lon="116.1860648427233">
        <ele>63.49737548828125</ele>
        <time>2026-09-08T10:51:50Z</time>
      </trkpt>
      <trkpt lat="39.91343154277594" lon="116.18601370394346">
        <ele>62.9835205078125</ele>
        <time>2026-09-08T10:51:56Z</time>
      </trkpt>
      <trkpt lat="39.9137254857217" lon="116.18598759927619">
        <ele>59.92803955078125</ele>
        <time>2026-09-08T10:52:11Z</time>
      </trkpt>
      <trkpt lat="39.913796489593" lon="116.18599160079029">
        <ele>60.14508056640625</ele>
        <time>2026-09-08T10:52:14Z</time>
      </trkpt>
      <trkpt lat="39.91384941351273" lon="116.18594848203836">
        <ele>60.72113037109375</ele>
        <time>2026-09-08T10:52:17Z</time>
      </trkpt>
      <trkpt lat="39.913973372208275" lon="116.18592741171302">
        <ele>63.032958984375</ele>
        <time>2026-09-08T10:52:23Z</time>
      </trkpt>
      <trkpt lat="39.91401827923809" lon="116.18587426781893">
        <ele>62.39923095703125</ele>
        <time>2026-09-08T10:52:26Z</time>
      </trkpt>
      <trkpt lat="39.91403956028085" lon="116.18545617532492">
        <ele>61.9530029296875</ele>
        <time>2026-09-08T10:52:41Z</time>
      </trkpt>
      <trkpt lat="39.9140489984467" lon="116.18513032229231">
        <ele>58.5670166015625</ele>
        <time>2026-09-08T10:52:56Z</time>
      </trkpt>
      <trkpt lat="39.91402875524054" lon="116.18498895460048">
        <ele>58.58135986328125</ele>
        <time>2026-09-08T10:53:02Z</time>
      </trkpt>
      <trkpt lat="39.91404809524021" lon="116.18460795240776">
        <ele>57.39813232421875</ele>
        <time>2026-09-08T10:53:17Z</time>
      </trkpt>
      <trkpt lat="39.9140324817018" lon="116.18425402309872">
        <ele>57.00421142578125</ele>
        <time>2026-09-08T10:53:32Z</time>
      </trkpt>
      <trkpt lat="39.914013097101765" lon="116.18403244127325">
        <ele>56.61846923828125</ele>
        <time>2026-09-08T10:53:41Z</time>
      </trkpt>
      <trkpt lat="39.91404481455802" lon="116.18387101106389">
        <ele>54.3096923828125</ele>
        <time>2026-09-08T10:53:47Z</time>
      </trkpt>
      <trkpt lat="39.914040358120936" lon="116.18360931961972">
        <ele>49.1563720703125</ele>
        <time>2026-09-08T10:53:59Z</time>
      </trkpt>
      <trkpt lat="39.91402125207204" lon="116.18354816010275">
        <ele>48.90435791015625</ele>
        <time>2026-09-08T10:54:02Z</time>
      </trkpt>
      <trkpt lat="39.91405947822522" lon="116.18310698533148">
        <ele>52.7186279296875</ele>
        <time>2026-09-08T10:54:17Z</time>
      </trkpt>
      <trkpt lat="39.9140743386748" lon="116.18302777302556">
        <ele>52.79010009765625</ele>
        <time>2026-09-08T10:54:20Z</time>
      </trkpt>
      <trkpt lat="39.9140461621317" lon="116.18292650735854">
        <ele>53.55169677734375</ele>
        <time>2026-09-08T10:54:23Z</time>
      </trkpt>
      <trkpt lat="39.91400553279778" lon="116.18256755676681">
        <ele>56.05340576171875</ele>
        <time>2026-09-08T10:54:35Z</time>
      </trkpt>
      <trkpt lat="39.91399538491954" lon="116.1824833334696">
        <ele>55.81939697265625</ele>
        <time>2026-09-08T10:54:38Z</time>
      </trkpt>
      <trkpt lat="39.91401624624635" lon="116.18240512220511">
        <ele>55.1744384765625</ele>
        <time>2026-09-08T10:54:44Z</time>
      </trkpt>
      <trkpt lat="39.91403952324726" lon="116.18199602618368">
        <ele>59.1239013671875</ele>
        <time>2026-09-08T10:55:02Z</time>
      </trkpt>
      <trkpt lat="39.91403175861276" lon="116.18156386933585">
        <ele>59.62640380859375</ele>
        <time>2026-09-08T10:55:17Z</time>
      </trkpt>
      <trkpt lat="39.91403905526371" lon="116.18116780456475">
        <ele>60.2216796875</ele>
        <time>2026-09-08T10:55:32Z</time>
      </trkpt>
      <trkpt lat="39.914028602646326" lon="116.18091312042462">
        <ele>61.6563720703125</ele>
        <time>2026-09-08T10:55:41Z</time>
      </trkpt>
      <trkpt lat="39.914002469827345" lon="116.18083792111213">
        <ele>63.29998779296875</ele>
        <time>2026-09-08T10:55:47Z</time>
      </trkpt>
      <trkpt lat="39.91394849174943" lon="116.18084895761832">
        <ele>62.103271484375</ele>
        <time>2026-09-08T10:56:02Z</time>
      </trkpt>
      <trkpt lat="39.91382747363643" lon="116.18083593770898">
        <ele>62.679443359375</ele>
        <time>2026-09-08T10:56:08Z</time>
      </trkpt>
      <trkpt lat="39.91352357396867" lon="116.1808851082901">
        <ele>61.867431640625</ele>
        <time>2026-09-08T10:56:23Z</time>
      </trkpt>
      <trkpt lat="39.913368548377086" lon="116.18086707915649">
        <ele>62.77276611328125</ele>
        <time>2026-09-08T10:56:35Z</time>
      </trkpt>
      <trkpt lat="39.91334645107929" lon="116.18081193333218">
        <ele>63.23284912109375</ele>
        <time>2026-09-08T10:56:44Z</time>
      </trkpt>
      <trkpt lat="39.91330847054739" lon="116.18082196512925">
        <ele>63.9307861328125</ele>
        <time>2026-09-08T10:57:41Z</time>
      </trkpt>
      <trkpt lat="39.91330002935439" lon="116.18057429827401">
        <ele>65.2861328125</ele>
        <time>2026-09-08T10:58:29Z</time>
      </trkpt>
      <trkpt lat="39.91326464235718" lon="116.18035671513265">
        <ele>65.70294189453125</ele>
        <time>2026-09-08T10:58:41Z</time>
      </trkpt>
      <trkpt lat="39.91326095195713" lon="116.17997067129268">
        <ele>66.2899169921875</ele>
        <time>2026-09-08T10:58:56Z</time>
      </trkpt>
      <trkpt lat="39.91324860569216" lon="116.17977714848261">
        <ele>65.924560546875</ele>
        <time>2026-09-08T10:59:02Z</time>
      </trkpt>
      <trkpt lat="39.91329388197417" lon="116.17937505152227">
        <ele>64.29693603515625</ele>
        <time>2026-09-08T10:59:17Z</time>
      </trkpt>
      <trkpt lat="39.913337149430184" lon="116.17896894153134">
        <ele>61.3441162109375</ele>
        <time>2026-09-08T10:59:35Z</time>
      </trkpt>
      <trkpt lat="39.91335845234982" lon="116.17858288667362">
        <ele>60.3624267578125</ele>
        <time>2026-09-08T10:59:47Z</time>
      </trkpt>
      <trkpt lat="39.913380603338496" lon="116.17824872470975">
        <ele>60.49090576171875</ele>
        <time>2026-09-08T10:59:59Z</time>
      </trkpt>
      <trkpt lat="39.913360765552945" lon="116.17807863695815">
        <ele>61.44036865234375</ele>
        <time>2026-09-08T11:00:05Z</time>
      </trkpt>
      <trkpt lat="39.91333581840442" lon="116.17767941918619">
        <ele>63.4168701171875</ele>
        <time>2026-09-08T11:00:17Z</time>
      </trkpt>
      <trkpt lat="39.91331815650341" lon="116.17731442036265">
        <ele>62.3228759765625</ele>
        <time>2026-09-08T11:00:29Z</time>
      </trkpt>
      <trkpt lat="39.913325399261936" lon="116.17689827610131">
        <ele>60.71368408203125</ele>
        <time>2026-09-08T11:00:44Z</time>
      </trkpt>
      <trkpt lat="39.91332659505407" lon="116.17645706141727">
        <ele>61.49267578125</ele>
        <time>2026-09-08T11:00:59Z</time>
      </trkpt>
      <trkpt lat="39.913341773982815" lon="116.17600782053549">
        <ele>63.7122802734375</ele>
        <time>2026-09-08T11:01:14Z</time>
      </trkpt>
      <trkpt lat="39.91334597565211" lon="116.17557161479779">
        <ele>65.58935546875</ele>
        <time>2026-09-08T11:01:29Z</time>
      </trkpt>
      <trkpt lat="39.91335222546115" lon="116.17516248172032">
        <ele>66.92987060546875</ele>
        <time>2026-09-08T11:01:44Z</time>
      </trkpt>
      <trkpt lat="39.91334893301631" lon="116.17500304039483">
        <ele>65.56988525390625</ele>
        <time>2026-09-08T11:01:50Z</time>
      </trkpt>
      <trkpt lat="39.9133866773331" lon="116.17486465203048">
        <ele>63.81610107421875</ele>
        <time>2026-09-08T11:01:59Z</time>
      </trkpt>
      <trkpt lat="39.91334916296278" lon="116.17458387781707">
        <ele>63.92877197265625</ele>
        <time>2026-09-08T11:02:08Z</time>
      </trkpt>
      <trkpt lat="39.913362828568864" lon="116.17440237214953">
        <ele>68.665283203125</ele>
        <time>2026-09-08T11:02:14Z</time>
      </trkpt>
      <trkpt lat="39.91335017189562" lon="116.17404538162485">
        <ele>68.2333984375</ele>
        <time>2026-09-08T11:02:29Z</time>
      </trkpt>
      <trkpt lat="39.9133008580041" lon="116.17387391085745">
        <ele>69.2689208984375</ele>
        <time>2026-09-08T11:02:38Z</time>
      </trkpt>
      <trkpt lat="39.91335817126351" lon="116.17350287065129">
        <ele>67.9708251953125</ele>
        <time>2026-09-08T11:02:53Z</time>
      </trkpt>
      <trkpt lat="39.91341572265166" lon="116.17326118990322">
        <ele>66.69976806640625</ele>
        <time>2026-09-08T11:03:02Z</time>
      </trkpt>
      <trkpt lat="39.913401989352536" lon="116.17286408388858">
        <ele>65.345703125</ele>
        <time>2026-09-08T11:03:20Z</time>
      </trkpt>
      <trkpt lat="39.91341766223874" lon="116.17268758916177">
        <ele>65.2298583984375</ele>
        <time>2026-09-08T11:03:26Z</time>
      </trkpt>
      <trkpt lat="39.91339830859153" lon="116.17249605657001">
        <ele>69.82061767578125</ele>
        <time>2026-09-08T11:03:32Z</time>
      </trkpt>
      <trkpt lat="39.9134153915903" lon="116.17214287911283">
        <ele>69.63177490234375</ele>
        <time>2026-09-08T11:03:44Z</time>
      </trkpt>
      <trkpt lat="39.91337441981852" lon="116.1720157165488">
        <ele>70.962158203125</ele>
        <time>2026-09-08T11:03:50Z</time>
      </trkpt>
      <trkpt lat="39.913354119488126" lon="116.1718532644973">
        <ele>69.4774169921875</ele>
        <time>2026-09-08T11:03:59Z</time>
      </trkpt>
      <trkpt lat="39.91338479455405" lon="116.17167877213237">
        <ele>68.2427978515625</ele>
        <time>2026-09-08T11:04:05Z</time>
      </trkpt>
      <trkpt lat="39.91341313821342" lon="116.17132577968256">
        <ele>68.4324951171875</ele>
        <time>2026-09-08T11:04:20Z</time>
      </trkpt>
      <trkpt lat="39.91342147658397" lon="116.17096978048214">
        <ele>70.59039306640625</ele>
        <time>2026-09-08T11:04:32Z</time>
      </trkpt>
      <trkpt lat="39.913434222572114" lon="116.17083339627003">
        <ele>71.0511474609375</ele>
        <time>2026-09-08T11:04:41Z</time>
      </trkpt>
      <trkpt lat="39.91345410988201" lon="116.17077322492898">
        <ele>71.6683349609375</ele>
        <time>2026-09-08T11:04:50Z</time>
      </trkpt>
      <trkpt lat="39.91344041667733" lon="116.17040017940313">
        <ele>73.22381591796875</ele>
        <time>2026-09-08T11:05:17Z</time>
      </trkpt>
      <trkpt lat="39.91347402151326" lon="116.17018858079824">
        <ele>69.4573974609375</ele>
        <time>2026-09-08T11:05:29Z</time>
      </trkpt>
      <trkpt lat="39.91348927587861" lon="116.16978845425788">
        <ele>69.598388671875</ele>
        <time>2026-09-08T11:05:44Z</time>
      </trkpt>
      <trkpt lat="39.9134526066861" lon="116.16942844630489">
        <ele>75.6865234375</ele>
        <time>2026-09-08T11:06:02Z</time>
      </trkpt>
      <trkpt lat="39.913417234342795" lon="116.16922788638499">
        <ele>77.7852783203125</ele>
        <time>2026-09-08T11:06:11Z</time>
      </trkpt>
      <trkpt lat="39.91341560986041" lon="116.16889294366379">
        <ele>76.95257568359375</ele>
        <time>2026-09-08T11:06:26Z</time>
      </trkpt>
      <trkpt lat="39.9134499068638" lon="116.16851688009493">
        <ele>71.7999267578125</ele>
        <time>2026-09-08T11:06:53Z</time>
      </trkpt>
      <trkpt lat="39.91346205098225" lon="116.1680585869661">
        <ele>71.19268798828125</ele>
        <time>2026-09-08T11:07:14Z</time>
      </trkpt>
      <trkpt lat="39.91346031516429" lon="116.16766447589349">
        <ele>71.27099609375</ele>
        <time>2026-09-08T11:07:32Z</time>
      </trkpt>
      <trkpt lat="39.913445618995986" lon="116.16729142540802">
        <ele>71.71429443359375</ele>
        <time>2026-09-08T11:07:47Z</time>
      </trkpt>
      <trkpt lat="39.91347396205968" lon="116.16694043138908">
        <ele>72.56561279296875</ele>
        <time>2026-09-08T11:07:59Z</time>
      </trkpt>
      <trkpt lat="39.913493181702364" lon="116.16652325139208">
        <ele>72.7578125</ele>
        <time>2026-09-08T11:08:14Z</time>
      </trkpt>
      <trkpt lat="39.91349660806694" lon="116.16621638455632">
        <ele>72.2952880859375</ele>
        <time>2026-09-08T11:08:29Z</time>
      </trkpt>
      <trkpt lat="39.91345192583958" lon="116.16585035655848">
        <ele>71.1702880859375</ele>
        <time>2026-09-08T11:09:32Z</time>
      </trkpt>
      <trkpt lat="39.913422595321514" lon="116.16567285895903">
        <ele>72.13470458984375</ele>
        <time>2026-09-08T11:09:44Z</time>
      </trkpt>
      <trkpt lat="39.91337977243609" lon="116.16523161806695">
        <ele>72.32275390625</ele>
        <time>2026-09-08T11:10:11Z</time>
      </trkpt>
      <trkpt lat="39.913364566913195" lon="116.16512130839291">
        <ele>73.05328369140625</ele>
        <time>2026-09-08T11:10:17Z</time>
      </trkpt>
      <trkpt lat="39.913296033806944" lon="116.16483450688422">
        <ele>75.3817138671875</ele>
        <time>2026-09-08T11:10:32Z</time>
      </trkpt>
      <trkpt lat="39.91325962869468" lon="116.16461689676865">
        <ele>77.29119873046875</ele>
        <time>2026-09-08T11:10:44Z</time>
      </trkpt>
      <trkpt lat="39.913170984134474" lon="116.16426992783856">
        <ele>79.94696044921875</ele>
        <time>2026-09-08T11:11:08Z</time>
      </trkpt>
      <trkpt lat="39.913135462964824" lon="116.1639901420279">
        <ele>74.86993408203125</ele>
        <time>2026-09-08T11:11:38Z</time>
      </trkpt>
      <trkpt lat="39.911650327740695" lon="116.164419542061">
        <ele>73.2830810546875</ele>
        <time>2026-09-08T11:20:11Z</time>
      </trkpt>
      <trkpt lat="39.91163885664813" lon="116.1647023423353">
        <ele>73.41778564453125</ele>
        <time>2026-09-08T11:20:26Z</time>
      </trkpt>
      <trkpt lat="39.91170949083023" lon="116.16504329653256">
        <ele>70.08795166015625</ele>
        <time>2026-09-08T11:20:44Z</time>
      </trkpt>
      <trkpt lat="39.911718887765296" lon="116.16525589586234">
        <ele>69.439697265625</ele>
        <time>2026-09-08T11:20:53Z</time>
      </trkpt>
      <trkpt lat="39.911713592729626" lon="116.16563296153028">
        <ele>70.16162109375</ele>
        <time>2026-09-08T11:21:11Z</time>
      </trkpt>
      <trkpt lat="39.91173634898956" lon="116.16603810281278">
        <ele>71.20263671875</ele>
        <time>2026-09-08T11:21:29Z</time>
      </trkpt>
      <trkpt lat="39.911681529374654" lon="116.16613337875266">
        <ele>71.03973388671875</ele>
        <time>2026-09-08T11:21:41Z</time>
      </trkpt>
      <trkpt lat="39.91161558840421" lon="116.16616347202992">
        <ele>71.658935546875</ele>
        <time>2026-09-08T11:21:59Z</time>
      </trkpt>
      <trkpt lat="39.9113256419655" lon="116.16618557094074">
        <ele>70.7947998046875</ele>
        <time>2026-09-08T11:22:14Z</time>
      </trkpt>
      <trkpt lat="39.91102564911122" lon="116.16618260032926">
        <ele>70.28192138671875</ele>
        <time>2026-09-08T11:22:29Z</time>
      </trkpt>
      <trkpt lat="39.9108446605697" lon="116.16618462884755">
        <ele>70.39581298828125</ele>
        <time>2026-09-08T11:22:38Z</time>
      </trkpt>
      <trkpt lat="39.91078663305475" lon="116.16616859086979">
        <ele>70.58538818359375</ele>
        <time>2026-09-08T11:22:41Z</time>
      </trkpt>
      <trkpt lat="39.91074453176502" lon="116.16611344044617">
        <ele>70.4923095703125</ele>
        <time>2026-09-08T11:22:44Z</time>
      </trkpt>
      <trkpt lat="39.91074280460507" lon="116.1657243418745">
        <ele>69.22369384765625</ele>
        <time>2026-09-08T11:22:59Z</time>
      </trkpt>
      <trkpt lat="39.91070310904901" lon="116.16535129326145">
        <ele>67.70660400390625</ele>
        <time>2026-09-08T11:23:14Z</time>
      </trkpt>
      <trkpt lat="39.91067031578194" lon="116.16492609638799">
        <ele>67.8336181640625</ele>
        <time>2026-09-08T11:23:29Z</time>
      </trkpt>
      <trkpt lat="39.910659649099195" lon="116.16456908930111">
        <ele>67.877197265625</ele>
        <time>2026-09-08T11:23:41Z</time>
      </trkpt>
      <trkpt lat="39.91064797133081" lon="116.16420606536457">
        <ele>69.0770263671875</ele>
        <time>2026-09-08T11:23:56Z</time>
      </trkpt>
      <trkpt lat="39.91060026903017" lon="116.16382900639559">
        <ele>70.6641845703125</ele>
        <time>2026-09-08T11:24:17Z</time>
      </trkpt>
      <trkpt lat="39.91053551711106" lon="116.16342487324944">
        <ele>75.07958984375</ele>
        <time>2026-09-08T11:24:41Z</time>
      </trkpt>
      <trkpt lat="39.91051236644668" lon="116.1633436468004">
        <ele>75.24658203125</ele>
        <time>2026-09-08T11:24:47Z</time>
      </trkpt>
      <trkpt lat="39.91044734113863" lon="116.16332861254314">
        <ele>75.19061279296875</ele>
        <time>2026-09-08T11:24:53Z</time>
      </trkpt>
      <trkpt lat="39.910315537732366" lon="116.16343091804295">
        <ele>75.5711669921875</ele>
        <time>2026-09-08T11:25:05Z</time>
      </trkpt>
      <trkpt lat="39.91001384646888" lon="116.16358940361731">
        <ele>75.671630859375</ele>
        <time>2026-09-08T11:25:29Z</time>
      </trkpt>
      <trkpt lat="39.90976921649785" lon="116.16378197829985">
        <ele>74.80157470703125</ele>
        <time>2026-09-08T11:25:47Z</time>
      </trkpt>
      <trkpt lat="39.90952059050923" lon="116.16397655918281">
        <ele>72.92218017578125</ele>
        <time>2026-09-08T11:26:02Z</time>
      </trkpt>
      <trkpt lat="39.90937781204887" lon="116.16409190295083">
        <ele>72.47650146484375</ele>
        <time>2026-09-08T11:26:11Z</time>
      </trkpt>
      <trkpt lat="39.90932725260771" lon="116.16432657214561">
        <ele>71.34136962890625</ele>
        <time>2026-09-08T11:26:23Z</time>
      </trkpt>
      <trkpt lat="39.90932940053385" lon="116.16440579564765">
        <ele>70.94940185546875</ele>
        <time>2026-09-08T11:26:26Z</time>
      </trkpt>
      <trkpt lat="39.909423625094554" lon="116.16452812932135">
        <ele>70.441650390625</ele>
        <time>2026-09-08T11:26:32Z</time>
      </trkpt>
      <trkpt lat="39.909419747059964" lon="116.16459331393202">
        <ele>69.769287109375</ele>
        <time>2026-09-08T11:26:35Z</time>
      </trkpt>
      <trkpt lat="39.90923420101271" lon="116.1648320115382">
        <ele>67.84600830078125</ele>
        <time>2026-09-08T11:26:47Z</time>
      </trkpt>
      <trkpt lat="39.909182486218114" lon="116.16498344579453">
        <ele>67.01708984375</ele>
        <time>2026-09-08T11:26:53Z</time>
      </trkpt>
      <trkpt lat="39.90919215490176" lon="116.16534145578153">
        <ele>67.45452880859375</ele>
        <time>2026-09-08T11:27:05Z</time>
      </trkpt>
      <trkpt lat="39.909177826524" lon="116.16570047154853">
        <ele>68.18359375</ele>
        <time>2026-09-08T11:27:17Z</time>
      </trkpt>
      <trkpt lat="39.909214317908514" lon="116.16596421175036">
        <ele>69.35076904296875</ele>
        <time>2026-09-08T11:27:26Z</time>
      </trkpt>
      <trkpt lat="39.909188823181246" lon="116.16623397667941">
        <ele>69.18621826171875</ele>
        <time>2026-09-08T11:27:35Z</time>
      </trkpt>
      <trkpt lat="39.909205311630906" lon="116.16649571354623">
        <ele>68.66619873046875</ele>
        <time>2026-09-08T11:27:44Z</time>
      </trkpt>
      <trkpt lat="39.9092346102208" lon="116.16665616278217">
        <ele>68.50592041015625</ele>
        <time>2026-09-08T11:27:50Z</time>
      </trkpt>
      <trkpt lat="39.909235780699575" lon="116.16674742021874">
        <ele>68.76531982421875</ele>
        <time>2026-09-08T11:27:53Z</time>
      </trkpt>
      <trkpt lat="39.90910136545733" lon="116.16705731170757">
        <ele>70.2064208984375</ele>
        <time>2026-09-08T11:28:05Z</time>
      </trkpt>
      <trkpt lat="39.909061483330056" lon="116.16711949218517">
        <ele>69.96954345703125</ele>
        <time>2026-09-08T11:28:08Z</time>
      </trkpt>
      <trkpt lat="39.90875873612842" lon="116.16724789257452">
        <ele>68.5751953125</ele>
        <time>2026-09-08T11:28:23Z</time>
      </trkpt>
      <trkpt lat="39.90845078308152" lon="116.16726598237264">
        <ele>67.46673583984375</ele>
        <time>2026-09-08T11:28:38Z</time>
      </trkpt>
      <trkpt lat="39.90814379066748" lon="116.16726301263395">
        <ele>70.217041015625</ele>
        <time>2026-09-08T11:28:53Z</time>
      </trkpt>
      <trkpt lat="39.90801871736908" lon="116.16722090959011">
        <ele>71.4375</ele>
        <time>2026-09-08T11:28:59Z</time>
      </trkpt>
      <trkpt lat="39.90773441673899" lon="116.16705347293929">
        <ele>70.947265625</ele>
        <time>2026-09-08T11:29:14Z</time>
      </trkpt>
      <trkpt lat="39.90750839276157" lon="116.16703545053358">
        <ele>70.452392578125</ele>
        <time>2026-09-08T11:29:26Z</time>
      </trkpt>
      <trkpt lat="39.90728155244119" lon="116.1671157055417">
        <ele>70.22784423828125</ele>
        <time>2026-09-08T11:29:38Z</time>
      </trkpt>
      <trkpt lat="39.90717172954719" lon="116.16720797971512">
        <ele>69.91070556640625</ele>
        <time>2026-09-08T11:29:44Z</time>
      </trkpt>
      <trkpt lat="39.90704309478574" lon="116.16740053913794">
        <ele>69.6661376953125</ele>
        <time>2026-09-08T11:29:53Z</time>
      </trkpt>
      <trkpt lat="39.90698152637566" lon="116.1676301946381">
        <ele>71.5843505859375</ele>
        <time>2026-09-08T11:30:02Z</time>
      </trkpt>
      <trkpt lat="39.9069679633011" lon="116.16786385523253">
        <ele>73.86572265625</ele>
        <time>2026-09-08T11:30:11Z</time>
      </trkpt>
      <trkpt lat="39.90701456414201" lon="116.16818675962071">
        <ele>71.10247802734375</ele>
        <time>2026-09-08T11:30:23Z</time>
      </trkpt>
      <trkpt lat="39.907126120805884" lon="116.16848759329173">
        <ele>71.27008056640625</ele>
        <time>2026-09-08T11:30:35Z</time>
      </trkpt>
      <trkpt lat="39.90714342318005" lon="116.1686500487496">
        <ele>71.03472900390625</ele>
        <time>2026-09-08T11:30:41Z</time>
      </trkpt>
      <trkpt lat="39.90711391829999" lon="116.16891479802851">
        <ele>70.68377685546875</ele>
        <time>2026-09-08T11:30:50Z</time>
      </trkpt>
      <trkpt lat="39.90702250378954" lon="116.16922668746223">
        <ele>70.49639892578125</ele>
        <time>2026-09-08T11:31:02Z</time>
      </trkpt>
      <trkpt lat="39.90701681993771" lon="116.16939616505336">
        <ele>71.1458740234375</ele>
        <time>2026-09-08T11:31:08Z</time>
      </trkpt>
      <trkpt lat="39.907109234526246" lon="116.16962078525661">
        <ele>71.6964111328125</ele>
        <time>2026-09-08T11:31:17Z</time>
      </trkpt>
      <trkpt lat="39.907226378921905" lon="116.16970099608633">
        <ele>70.74249267578125</ele>
        <time>2026-09-08T11:31:23Z</time>
      </trkpt>
      <trkpt lat="39.907356406931534" lon="116.16971903044387">
        <ele>69.285888671875</ele>
        <time>2026-09-08T11:31:29Z</time>
      </trkpt>
      <trkpt lat="39.90749432625449" lon="116.1696789002548">
        <ele>68.61834716796875</ele>
        <time>2026-09-08T11:31:35Z</time>
      </trkpt>
      <trkpt lat="39.90782734365117" lon="116.16969590619297">
        <ele>69.2264404296875</ele>
        <time>2026-09-08T11:31:50Z</time>
      </trkpt>
      <trkpt lat="39.907892312829546" lon="116.16968085569981">
        <ele>69.00750732421875</ele>
        <time>2026-09-08T11:31:53Z</time>
      </trkpt>
      <trkpt lat="39.90806202152515" lon="116.1695284055999">
        <ele>68.0069580078125</ele>
        <time>2026-09-08T11:32:02Z</time>
      </trkpt>
      <trkpt lat="39.90814257698227" lon="116.16929172960859">
        <ele>66.90887451171875</ele>
        <time>2026-09-08T11:32:11Z</time>
      </trkpt>
      <trkpt lat="39.90823031895562" lon="116.16915533472206">
        <ele>67.55096435546875</ele>
        <time>2026-09-08T11:32:17Z</time>
      </trkpt>
      <trkpt lat="39.90828022706075" lon="116.16910719294066">
        <ele>67.32037353515625</ele>
        <time>2026-09-08T11:32:20Z</time>
      </trkpt>
      <trkpt lat="39.90846313879005" lon="116.16906404848487">
        <ele>68.02984619140625</ele>
        <time>2026-09-08T11:32:29Z</time>
      </trkpt>
      <trkpt lat="39.90866824777455" lon="116.16912720044607">
        <ele>68.84423828125</ele>
        <time>2026-09-08T11:32:42Z</time>
      </trkpt>
      <trkpt lat="39.90872424349945" lon="116.16912619055957">
        <ele>69.14556884765625</ele>
        <time>2026-09-08T11:32:47Z</time>
      </trkpt>
      <trkpt lat="39.90869480556522" lon="116.16942704086308">
        <ele>69.63311767578125</ele>
        <time>2026-09-08T11:33:02Z</time>
      </trkpt>
      <trkpt lat="39.9086600294389" lon="116.16954638094505">
        <ele>69.59710693359375</ele>
        <time>2026-09-08T11:33:09Z</time>
      </trkpt>
      <trkpt lat="39.9086833628598" lon="116.16972588282356">
        <ele>70.529052734375</ele>
        <time>2026-09-08T11:33:17Z</time>
      </trkpt>
      <trkpt lat="39.908722551696854" lon="116.16982816547177">
        <ele>70.774169921875</ele>
        <time>2026-09-08T11:33:23Z</time>
      </trkpt>
      <trkpt lat="39.90874996133068" lon="116.17004878212299">
        <ele>70.687255859375</ele>
        <time>2026-09-08T11:33:35Z</time>
      </trkpt>
      <trkpt lat="39.90870936065784" lon="116.17026238736955">
        <ele>70.94403076171875</ele>
        <time>2026-09-08T11:33:48Z</time>
      </trkpt>
      <trkpt lat="39.90866352124236" lon="116.17034763256585">
        <ele>71.3114013671875</ele>
        <time>2026-09-08T11:33:54Z</time>
      </trkpt>
      <trkpt lat="39.90837760070338" lon="116.17038377000722">
        <ele>69.086669921875</ele>
        <time>2026-09-08T11:34:12Z</time>
      </trkpt>
      <trkpt lat="39.908101685339105" lon="116.17042291462613">
        <ele>69.266357421875</ele>
        <time>2026-09-08T11:34:27Z</time>
      </trkpt>
      <trkpt lat="39.908044691524466" lon="116.17042492744467">
        <ele>68.4732666015625</ele>
        <time>2026-09-08T11:34:30Z</time>
      </trkpt>
      <trkpt lat="39.908009762054476" lon="116.17046203603492">
        <ele>67.9066162109375</ele>
        <time>2026-09-08T11:34:33Z</time>
      </trkpt>
      <trkpt lat="39.90797319072821" lon="116.17069168529147">
        <ele>69.36236572265625</ele>
        <time>2026-09-08T11:34:42Z</time>
      </trkpt>
      <trkpt lat="39.9079423113861" lon="116.17075586929101">
        <ele>69.4619140625</ele>
        <time>2026-09-08T11:34:45Z</time>
      </trkpt>
      <trkpt lat="39.907891406792835" lon="116.17080601639941">
        <ele>69.33502197265625</ele>
        <time>2026-09-08T11:34:48Z</time>
      </trkpt>
      <trkpt lat="39.90786554025351" lon="116.17087721941412">
        <ele>69.789306640625</ele>
        <time>2026-09-08T11:34:51Z</time>
      </trkpt>
      <trkpt lat="39.90787385110744" lon="116.17104468808367">
        <ele>70.5703125</ele>
        <time>2026-09-08T11:34:57Z</time>
      </trkpt>
      <trkpt lat="39.90792023656319" lon="116.17125326702147">
        <ele>71.35791015625</ele>
        <time>2026-09-08T11:35:06Z</time>
      </trkpt>
      <trkpt lat="39.90791396838171" lon="116.17164737192537">
        <ele>73.27362060546875</ele>
        <time>2026-09-08T11:35:21Z</time>
      </trkpt>
      <trkpt lat="39.90791767675029" lon="116.17202944081886">
        <ele>71.17169189453125</ele>
        <time>2026-09-08T11:35:36Z</time>
      </trkpt>
      <trkpt lat="39.90793827968659" lon="116.17235534955589">
        <ele>67.8228759765625</ele>
        <time>2026-09-08T11:35:48Z</time>
      </trkpt>
      <trkpt lat="39.90792745098359" lon="116.17244760875053">
        <ele>68.3048095703125</ele>
        <time>2026-09-08T11:35:51Z</time>
      </trkpt>
      <trkpt lat="39.907920239870535" lon="116.17287379984626">
        <ele>67.7119140625</ele>
        <time>2026-09-08T11:36:06Z</time>
      </trkpt>
      <trkpt lat="39.90790755742209" lon="116.17304527990159">
        <ele>65.3450927734375</ele>
        <time>2026-09-08T11:36:12Z</time>
      </trkpt>
      <trkpt lat="39.90789522108004" lon="116.17340428233172">
        <ele>65.5906982421875</ele>
        <time>2026-09-08T11:36:24Z</time>
      </trkpt>
      <trkpt lat="39.90787292507818" lon="116.17378534628541">
        <ele>69.26934814453125</ele>
        <time>2026-09-08T11:36:39Z</time>
      </trkpt>
      <trkpt lat="39.9078765919669" lon="116.17414735268234">
        <ele>70.40264892578125</ele>
        <time>2026-09-08T11:36:57Z</time>
      </trkpt>
      <trkpt lat="39.90788734067835" lon="116.17455448220626">
        <ele>70.48583984375</ele>
        <time>2026-09-08T11:37:18Z</time>
      </trkpt>
      <trkpt lat="39.90789404424603" lon="116.17493754389218">
        <ele>70.2642822265625</ele>
        <time>2026-09-08T11:37:36Z</time>
      </trkpt>
      <trkpt lat="39.90785378188432" lon="116.17533865994017">
        <ele>69.95672607421875</ele>
        <time>2026-09-08T11:37:51Z</time>
      </trkpt>
      <trkpt lat="39.90784051349545" lon="116.17573776532902">
        <ele>66.83331298828125</ele>
        <time>2026-09-08T11:38:06Z</time>
      </trkpt>
      <trkpt lat="39.90785522801394" lon="116.17612884330003">
        <ele>66.5718994140625</ele>
        <time>2026-09-08T11:38:21Z</time>
      </trkpt>
      <trkpt lat="39.90784793859754" lon="116.17651791676516">
        <ele>69.1553955078125</ele>
        <time>2026-09-08T11:38:39Z</time>
      </trkpt>
      <trkpt lat="39.9078585960277" lon="116.17687890897047">
        <ele>68.64727783203125</ele>
        <time>2026-09-08T11:38:57Z</time>
      </trkpt>
      <trkpt lat="39.90787998200924" lon="116.17709149062797">
        <ele>68.03546142578125</ele>
        <time>2026-09-08T11:39:06Z</time>
      </trkpt>
      <trkpt lat="39.90796438128031" lon="116.17731308856817">
        <ele>67.99114990234375</ele>
        <time>2026-09-08T11:39:15Z</time>
      </trkpt>
      <trkpt lat="39.908003960375574" lon="116.17763296091356">
        <ele>65.0709228515625</ele>
        <time>2026-09-08T11:39:27Z</time>
      </trkpt>
      <trkpt lat="39.907986640867826" lon="116.17800798999481">
        <ele>65.2021484375</ele>
        <time>2026-09-08T11:39:39Z</time>
      </trkpt>
      <trkpt lat="39.907941056575375" lon="116.17823662084137">
        <ele>65.74761962890625</ele>
        <time>2026-09-08T11:39:45Z</time>
      </trkpt>
      <trkpt lat="39.907935247197464" lon="116.17834190921602">
        <ele>66.234619140625</ele>
        <time>2026-09-08T11:39:48Z</time>
      </trkpt>
      <trkpt lat="39.90796739440902" lon="116.17842412970387">
        <ele>65.73028564453125</ele>
        <time>2026-09-08T11:39:51Z</time>
      </trkpt>
      <trkpt lat="39.90820957959087" lon="116.17853239482557">
        <ele>65.94927978515625</ele>
        <time>2026-09-08T11:40:03Z</time>
      </trkpt>
      <trkpt lat="39.9083246868808" lon="116.17859454996201">
        <ele>67.62310791015625</ele>
        <time>2026-09-08T11:40:09Z</time>
      </trkpt>
      <trkpt lat="39.908648700097004" lon="116.17860955023652">
        <ele>67.58258056640625</ele>
        <time>2026-09-08T11:40:24Z</time>
      </trkpt>
      <trkpt lat="39.908927718879035" lon="116.17862656163676">
        <ele>65.430908203125</ele>
        <time>2026-09-08T11:40:36Z</time>
      </trkpt>
      <trkpt lat="39.909243676364504" lon="116.17861047813614">
        <ele>64.6842041015625</ele>
        <time>2026-09-08T11:40:51Z</time>
      </trkpt>
      <trkpt lat="39.909426677569094" lon="116.17861546879341">
        <ele>69.0562744140625</ele>
        <time>2026-09-08T11:41:00Z</time>
      </trkpt>
      <trkpt lat="39.9095408210548" lon="116.17869767866252">
        <ele>68.48016357421875</ele>
        <time>2026-09-08T11:41:15Z</time>
      </trkpt>
      <trkpt lat="39.90958590052137" lon="116.17874279600352">
        <ele>69.2767333984375</ele>
        <time>2026-09-08T11:41:42Z</time>
      </trkpt>
      <trkpt lat="39.91010483852554" lon="116.1787206705965">
        <ele>69.77630615234375</ele>
        <time>2026-09-08T11:42:39Z</time>
      </trkpt>
      <trkpt lat="39.910340823015794" lon="116.17871763271312">
        <ele>67.10107421875</ele>
        <time>2026-09-08T11:42:54Z</time>
      </trkpt>
      <trkpt lat="39.910487981296676" lon="116.17880886290686">
        <ele>67.36578369140625</ele>
        <time>2026-09-08T11:43:03Z</time>
      </trkpt>
      <trkpt lat="39.910566599272684" lon="116.17915379211041">
        <ele>68.030517578125</ele>
        <time>2026-09-08T11:43:18Z</time>
      </trkpt>
      <trkpt lat="39.91059322725058" lon="116.17950373975361">
        <ele>68.70452880859375</ele>
        <time>2026-09-08T11:43:30Z</time>
      </trkpt>
      <trkpt lat="39.91057680365793" lon="116.17982461220465">
        <ele>75.56707763671875</ele>
        <time>2026-09-08T11:43:39Z</time>
      </trkpt>
      <trkpt lat="39.91059750291686" lon="116.18021566828882">
        <ele>78.0478515625</ele>
        <time>2026-09-08T11:43:51Z</time>
      </trkpt>
      <trkpt lat="39.910593795200626" lon="116.18037911053688">
        <ele>74.7952880859375</ele>
        <time>2026-09-08T11:43:57Z</time>
      </trkpt>
      <trkpt lat="39.91066983315252" lon="116.18040216328136">
        <ele>71.280517578125</ele>
        <time>2026-09-08T11:44:03Z</time>
      </trkpt>
      <trkpt lat="39.91093975357641" lon="116.18036402640493">
        <ele>70.49090576171875</ele>
        <time>2026-09-08T11:44:18Z</time>
      </trkpt>
      <trkpt lat="39.91126265561243" lon="116.1803168584538">
        <ele>65.26593017578125</ele>
        <time>2026-09-08T11:44:36Z</time>
      </trkpt>
      <trkpt lat="39.911382679174054" lon="116.1803328867224">
        <ele>66.8834228515625</ele>
        <time>2026-09-08T11:44:42Z</time>
      </trkpt>
      <trkpt lat="39.91169161048492" lon="116.18030176386979">
        <ele>65.010986328125</ele>
        <time>2026-09-08T11:44:57Z</time>
      </trkpt>
      <trkpt lat="39.91196555583209" lon="116.18027766437493">
        <ele>61.60595703125</ele>
        <time>2026-09-08T11:45:09Z</time>
      </trkpt>
      <trkpt lat="39.91223957287875" lon="116.18029367329109">
        <ele>62.3087158203125</ele>
        <time>2026-09-08T11:45:21Z</time>
      </trkpt>
      <trkpt lat="39.91237355823476" lon="116.18028864289231">
        <ele>65.2923583984375</ele>
        <time>2026-09-08T11:45:27Z</time>
      </trkpt>
      <trkpt lat="39.91256448919761" lon="116.18025452671888">
        <ele>63.02215576171875</ele>
        <time>2026-09-08T11:45:39Z</time>
      </trkpt>
      <trkpt lat="39.9128685050028" lon="116.18027053186805">
        <ele>63.6395263671875</ele>
        <time>2026-09-08T11:45:51Z</time>
      </trkpt>
      <trkpt lat="39.91292459940588" lon="116.18032467117655">
        <ele>63.6314697265625</ele>
        <time>2026-09-08T11:45:54Z</time>
      </trkpt>
      <trkpt lat="39.912984636283724" lon="116.18034672324362">
        <ele>63.9908447265625</ele>
        <time>2026-09-08T11:45:57Z</time>
      </trkpt>
      <trkpt lat="39.91303461804394" lon="116.18033769257177">
        <ele>65.0089111328125</ele>
        <time>2026-09-08T11:46:00Z</time>
      </trkpt>
      <trkpt lat="39.913066774312036" lon="116.18042592692892">
        <ele>64.0673828125</ele>
        <time>2026-09-08T11:46:24Z</time>
      </trkpt>
      <trkpt lat="39.91310316467296" lon="116.18064551511647">
        <ele>63.5037841796875</ele>
        <time>2026-09-08T11:46:33Z</time>
      </trkpt>
      <trkpt lat="39.91317037812527" lon="116.18076683384824">
        <ele>63.44708251953125</ele>
        <time>2026-09-08T11:46:39Z</time>
      </trkpt>
      <trkpt lat="39.91326446526247" lon="116.18081795985283">
        <ele>64.577880859375</ele>
        <time>2026-09-08T11:46:45Z</time>
      </trkpt>
      <trkpt lat="39.91346343184539" lon="116.18080389700648">
        <ele>65.5089111328125</ele>
        <time>2026-09-08T11:46:57Z</time>
      </trkpt>
      <trkpt lat="39.913594463823976" lon="116.18082493728082">
        <ele>65.701171875</ele>
        <time>2026-09-08T11:47:03Z</time>
      </trkpt>
      <trkpt lat="39.91366942850556" lon="116.18080687921575">
        <ele>62.844482421875</ele>
        <time>2026-09-08T11:47:09Z</time>
      </trkpt>
      <trkpt lat="39.91387841968625" lon="116.18080685294107">
        <ele>63.76666259765625</ele>
        <time>2026-09-08T11:47:18Z</time>
      </trkpt>
      <trkpt lat="39.91390992166181" lon="116.18108961041642">
        <ele>63.24652099609375</ele>
        <time>2026-09-08T11:47:30Z</time>
      </trkpt>
      <trkpt lat="39.9139097015409" lon="116.18152879051716">
        <ele>64.71295166015625</ele>
        <time>2026-09-08T11:47:45Z</time>
      </trkpt>
      <trkpt lat="39.91393038780695" lon="116.18191682791372">
        <ele>66.7894287109375</ele>
        <time>2026-09-08T11:48:00Z</time>
      </trkpt>
      <trkpt lat="39.91395006872909" lon="116.18230285751916">
        <ele>62.0963134765625</ele>
        <time>2026-09-08T11:48:15Z</time>
      </trkpt>
      <trkpt lat="39.913960744632035" lon="116.18268688032443">
        <ele>64.844482421875</ele>
        <time>2026-09-08T11:48:27Z</time>
      </trkpt>
      <trkpt lat="39.91395802849926" lon="116.18284831040344">
        <ele>65.75225830078125</ele>
        <time>2026-09-08T11:48:33Z</time>
      </trkpt>
      <trkpt lat="39.9139077148111" lon="116.18323835310215">
        <ele>66.24072265625</ele>
        <time>2026-09-08T11:48:57Z</time>
      </trkpt>
      <trkpt lat="39.913913435265734" lon="116.18365044435357">
        <ele>65.8529052734375</ele>
        <time>2026-09-08T11:49:27Z</time>
      </trkpt>
      <trkpt lat="39.91387956096322" lon="116.18372163692683">
        <ele>66.2119140625</ele>
        <time>2026-09-08T11:49:36Z</time>
      </trkpt>
      <trkpt lat="39.9138922138846" lon="116.1840966257499">
        <ele>68.0770263671875</ele>
        <time>2026-09-08T11:49:51Z</time>
      </trkpt>
      <trkpt lat="39.913911829775124" lon="116.18445155826731">
        <ele>65.726806640625</ele>
        <time>2026-09-08T11:50:06Z</time>
      </trkpt>
      <trkpt lat="39.913915947864645" lon="116.18451973707265">
        <ele>64.87005615234375</ele>
        <time>2026-09-08T11:50:09Z</time>
      </trkpt>
      <trkpt lat="39.91389143343512" lon="116.1847994749509">
        <ele>66.7513427734375</ele>
        <time>2026-09-08T11:50:21Z</time>
      </trkpt>
      <trkpt lat="39.91390214471346" lon="116.1852115532376">
        <ele>66.97454833984375</ele>
        <time>2026-09-08T11:50:39Z</time>
      </trkpt>
      <trkpt lat="39.913908500244474" lon="116.18541809228958">
        <ele>66.1234130859375</ele>
        <time>2026-09-08T11:50:48Z</time>
      </trkpt>
      <trkpt lat="39.913926618514935" lon="116.18548727064542">
        <ele>66.2437744140625</ele>
        <time>2026-09-08T11:50:51Z</time>
      </trkpt>
      <trkpt lat="39.91391625431925" lon="116.18585723626757">
        <ele>64.33697509765625</ele>
        <time>2026-09-08T11:51:06Z</time>
      </trkpt>
      <trkpt lat="39.91390838010381" lon="116.18593042769564">
        <ele>64.6436767578125</ele>
        <time>2026-09-08T11:51:09Z</time>
      </trkpt>
      <trkpt lat="39.91383250180909" lon="116.18599961712287">
        <ele>61.89044189453125</ele>
        <time>2026-09-08T11:51:15Z</time>
      </trkpt>
      <trkpt lat="39.913541448843226" lon="116.18596155459399">
        <ele>58.058837890625</ele>
        <time>2026-09-08T11:51:30Z</time>
      </trkpt>
      <trkpt lat="39.913492459500034" lon="116.18596657377992">
        <ele>57.67620849609375</ele>
        <time>2026-09-08T11:51:33Z</time>
      </trkpt>
      <trkpt lat="39.91323979107022" lon="116.18615409268142">
        <ele>61.5303955078125</ele>
        <time>2026-09-08T11:51:51Z</time>
      </trkpt>
      <trkpt lat="39.9130648790359" lon="116.18620123696776">
        <ele>62.736328125</ele>
        <time>2026-09-08T11:52:00Z</time>
      </trkpt>
      <trkpt lat="39.91276388663594" lon="116.18619826693991">
        <ele>63.49810791015625</ele>
        <time>2026-09-08T11:52:15Z</time>
      </trkpt>
      <trkpt lat="39.912477927887345" lon="116.18621534706854">
        <ele>64.77471923828125</ele>
        <time>2026-09-08T11:52:33Z</time>
      </trkpt>
      <trkpt lat="39.91217586014339" lon="116.18616826266525">
        <ele>64.83837890625</ele>
        <time>2026-09-08T11:52:51Z</time>
      </trkpt>
      <trkpt lat="39.911990828564875" lon="116.1861452260152">
        <ele>62.93365478515625</ele>
        <time>2026-09-08T11:53:09Z</time>
      </trkpt>
      <trkpt lat="39.91195275643551" lon="116.18610211882608">
        <ele>62.45501708984375</ele>
        <time>2026-09-08T11:53:15Z</time>
      </trkpt>
      <trkpt lat="39.9119446349512" lon="116.18603093488372">
        <ele>62.95166015625</ele>
        <time>2026-09-08T11:53:21Z</time>
      </trkpt>
      <trkpt lat="39.91199240449974" lon="116.18589758212613">
        <ele>63.117919921875</ele>
        <time>2026-09-08T11:53:33Z</time>
      </trkpt>
    </trkseg>
  </trk>
</gpx>