<?xml version="1.0" encoding="UTF-8"?>
<gpx xmlns="http://www.topografix.com/GPX/1/1" xmlns:gpxtpx="http://www.garmin.com/xmlschemas/TrackPointExtension/v1" xmlns:xsi="http://www.w3.org/2001/XMLSchema-instance" xsi:schemaLocation="http://www.topografix.com/GPX/1/1 http://www.topografix.com/GPX/1/1/gpx.xsd" version="1.1" creator="gpx.py -- https://github.com/tkrajina/gpxpy">
  <trk>
    <name>gpx from keep</name>
    <type>Ride</type>
    <trkseg>
      <trkpt lat="39.93462590835141" lon="116.22108160037531">
        <ele>54.51708984375</ele>
        <time>2026-10-07T02:00:15Z</time>
      </trkpt>
      <trkpt lat="39.93474489951564" lon="116.2210765785695">
        <ele>54.75457763671875</ele>
        <time>2026-10-07T02:00:23Z</time>
      </trkpt>
      <trkpt lat="39.9351909695138" lon="116.22118467341254">
        <ele>54.25872802734375</ele>
        <time>2026-10-07T02:00:35Z</time>
      </trkpt>
      <trkpt lat="39.93563402551121" lon="116.22127574453985">
        <ele>52.65631103515625</ele>
        <time>2026-10-07T02:00:45Z</time>
      </trkpt>
      <trkpt lat="39.93606108992799" lon="116.22137683110293">
        <ele>52.1727294921875</ele>
        <time>2026-10-07T02:00:55Z</time>
      </trkpt>
      <trkpt lat="39.936540164752394" lon="116.22149393274766">
        <ele>50.20404052734375</ele>
        <time>2026-10-07T02:01:07Z</time>
      </trkpt>
      <trkpt lat="39.9369572376093" lon="116.22160603463955">
        <ele>51.24871826171875</ele>
        <time>2026-10-07T02:01:18Z</time>
      </trkpt>
      <trkpt lat="39.937187262684866" lon="116.22164906489519">
        <ele>50.5428466796875</ele>
        <time>2026-10-07T02:01:25Z</time>
      </trkpt>
      <trkpt lat="39.93767434879539" lon="116.22178218590724">
        <ele>50.9346923828125</ele>
        <time>2026-10-07T02:01:39Z</time>
      </trkpt>
      <trkpt lat="39.93814040130053" lon="116.22187225033109">
        <ele>52.6778564453125</ele>
        <time>2026-10-07T02:01:51Z</time>
      </trkpt>
      <trkpt lat="39.93858042315385" lon="116.22192226339061">
        <ele>53.57183837890625</ele>
        <time>2026-10-07T02:02:02Z</time>
      </trkpt>
      <trkpt lat="39.939115425461615" lon="116.22195223739672">
        <ele>53.14208984375</ele>
        <time>2026-10-07T02:02:15Z</time>
      </trkpt>
      <trkpt lat="39.93961937243877" lon="116.22191011761508">
        <ele>53.68853759765625</ele>
        <time>2026-10-07T02:02:28Z</time>
      </trkpt>
      <trkpt lat="39.94006833887968" lon="116.22189003449817">
        <ele>52.84027099609375</ele>
        <time>2026-10-07T02:02:39Z</time>
      </trkpt>
      <trkpt lat="39.94055531877577" lon="116.22188897244143">
        <ele>49.58612060546875</ele>
        <time>2026-10-07T02:02:51Z</time>
      </trkpt>
      <trkpt lat="39.941003312035676" lon="116.22190293561468">
        <ele>51.427734375</ele>
        <time>2026-10-07T02:03:02Z</time>
      </trkpt>
      <trkpt lat="39.941450294325804" lon="116.22190287989959">
        <ele>51.74029541015625</ele>
        <time>2026-10-07T02:03:13Z</time>
      </trkpt>
      <trkpt lat="39.94195329171055" lon="116.22192484706146">
        <ele>53.63330078125</ele>
        <time>2026-10-07T02:03:25Z</time>
      </trkpt>
      <trkpt lat="39.9424482972581" lon="116.22195682875196">
        <ele>51.387939453125</ele>
        <time>2026-10-07T02:03:38Z</time>
      </trkpt>
      <trkpt lat="39.942932282038704" lon="116.22196177519733">
        <ele>50.08636474609375</ele>
        <time>2026-10-07T02:03:50Z</time>
      </trkpt>
      <trkpt lat="39.94343129054259" lon="116.221997761747">
        <ele>54.2423095703125</ele>
        <time>2026-10-07T02:04:03Z</time>
      </trkpt>
      <trkpt lat="39.94387628470848" lon="116.22201272657156">
        <ele>53.402587890625</ele>
        <time>2026-10-07T02:04:15Z</time>
      </trkpt>
      <trkpt lat="39.94436729817381" lon="116.22205472213822">
        <ele>52.0372314453125</ele>
        <time>2026-10-07T02:04:28Z</time>
      </trkpt>
      <trkpt lat="39.94481233055823" lon="116.22211875302125">
        <ele>51.0347900390625</ele>
        <time>2026-10-07T02:04:40Z</time>
      </trkpt>
      <trkpt lat="39.94525536055572" lon="116.2221797799305">
        <ele>52.2005615234375</ele>
        <time>2026-10-07T02:04:52Z</time>
      </trkpt>
      <trkpt lat="39.94573540369502" lon="116.2222598275507">
        <ele>51.078857421875</ele>
        <time>2026-10-07T02:05:06Z</time>
      </trkpt>
      <trkpt lat="39.94624941592743" lon="116.22230181977218">
        <ele>52.5400390625</ele>
        <time>2026-10-07T02:05:26Z</time>
      </trkpt>
      <trkpt lat="39.94668142825173" lon="116.22233981678386">
        <ele>50.89794921875</ele>
        <time>2026-10-07T02:05:38Z</time>
      </trkpt>
      <trkpt lat="39.94717445045145" lon="116.22239382749372">
        <ele>52.31805419921875</ele>
        <time>2026-10-07T02:05:52Z</time>
      </trkpt>
      <trkpt lat="39.94767645837169" lon="116.22242981294981">
        <ele>50.97296142578125</ele>
        <time>2026-10-07T02:06:06Z</time>
      </trkpt>
      <trkpt lat="39.947924470114515" lon="116.22245781935455">
        <ele>50.757568359375</ele>
        <time>2026-10-07T02:06:12Z</time>
      </trkpt>
      <trkpt lat="39.94807745794676" lon="116.22244978962026">
        <ele>50.9136962890625</ele>
        <time>2026-10-07T02:06:16Z</time>
      </trkpt>
      <trkpt lat="39.94840247507638" lon="116.22248880104179">
        <ele>51.94866943359375</ele>
        <time>2026-10-07T02:06:24Z</time>
      </trkpt>
      <trkpt lat="39.94876245860486" lon="116.22248575216707">
        <ele>51.63189697265625</ele>
        <time>2026-10-07T02:06:32Z</time>
      </trkpt>
      <trkpt lat="39.94892950562016" lon="116.2225558244059">
        <ele>50.5225830078125</ele>
        <time>2026-10-07T02:06:36Z</time>
      </trkpt>
      <trkpt lat="39.94937151877184" lon="116.22259582237575">
        <ele>51.0772705078125</ele>
        <time>2026-10-07T02:06:46Z</time>
      </trkpt>
      <trkpt lat="39.94981553940719" lon="116.22264583326101">
        <ele>49.72021484375</ele>
        <time>2026-10-07T02:06:56Z</time>
      </trkpt>
      <trkpt lat="39.950304549832886" lon="116.22268482388228">
        <ele>47.705810546875</ele>
        <time>2026-10-07T02:07:08Z</time>
      </trkpt>
      <trkpt lat="39.950808565686884" lon="116.22273182312175">
        <ele>48.28076171875</ele>
        <time>2026-10-07T02:07:20Z</time>
      </trkpt>
      <trkpt lat="39.9513235855745" lon="116.22278482879163">
        <ele>52.46673583984375</ele>
        <time>2026-10-07T02:07:33Z</time>
      </trkpt>
      <trkpt lat="39.95176558331787" lon="116.22280480001838">
        <ele>47.78253173828125</ele>
        <time>2026-10-07T02:07:45Z</time>
      </trkpt>
      <trkpt lat="39.95226060612464" lon="116.22286081194365">
        <ele>44.76806640625</ele>
        <time>2026-10-07T02:07:58Z</time>
      </trkpt>
      <trkpt lat="39.95270267145704" lon="116.22297090106932">
        <ele>48.63623046875</ele>
        <time>2026-10-07T02:08:09Z</time>
      </trkpt>
      <trkpt lat="39.95318468921901" lon="116.22301990504143">
        <ele>47.76220703125</ele>
        <time>2026-10-07T02:08:24Z</time>
      </trkpt>
      <trkpt lat="39.953645711456616" lon="116.22307391804073">
        <ele>49.682861328125</ele>
        <time>2026-10-07T02:08:58Z</time>
      </trkpt>
      <trkpt lat="39.954109734964824" lon="116.22312993313342">
        <ele>48.0318603515625</ele>
        <time>2026-10-07T02:09:11Z</time>
      </trkpt>
      <trkpt lat="39.95440573970156" lon="116.22315192484366">
        <ele>48.5147705078125</ele>
        <time>2026-10-07T02:09:19Z</time>
      </trkpt>
      <trkpt lat="39.95488271872437" lon="116.22314886146377">
        <ele>49.62225341796875</ele>
        <time>2026-10-07T02:09:31Z</time>
      </trkpt>
      <trkpt lat="39.95537073223912" lon="116.22319285778956">
        <ele>48.17547607421875</ele>
        <time>2026-10-07T02:09:43Z</time>
      </trkpt>
      <trkpt lat="39.955880758889" lon="116.22325587590552">
        <ele>48.73406982421875</ele>
        <time>2026-10-07T02:09:55Z</time>
      </trkpt>
      <trkpt lat="39.95637777853013" lon="116.22330888252945">
        <ele>49.27789306640625</ele>
        <time>2026-10-07T02:10:07Z</time>
      </trkpt>
      <trkpt lat="39.95684279122755" lon="116.2233508788131">
        <ele>49.110107421875</ele>
        <time>2026-10-07T02:10:19Z</time>
      </trkpt>
      <trkpt lat="39.957289789856425" lon="116.22337285146536">
        <ele>47.95550537109375</ele>
        <time>2026-10-07T02:10:31Z</time>
      </trkpt>
      <trkpt lat="39.9577877761647" lon="116.22338079968198">
        <ele>47.095703125</ele>
        <time>2026-10-07T02:10:44Z</time>
      </trkpt>
      <trkpt lat="39.95826575884116" lon="116.22338274265122">
        <ele>48.86602783203125</ele>
        <time>2026-10-07T02:11:00Z</time>
      </trkpt>
      <trkpt lat="39.958435732280755" lon="116.22335568661178">
        <ele>48.590576171875</ele>
        <time>2026-10-07T02:11:13Z</time>
      </trkpt>
      <trkpt lat="39.95887872884739" lon="116.2233746558845">
        <ele>47.977783203125</ele>
        <time>2026-10-07T02:11:26Z</time>
      </trkpt>
      <trkpt lat="39.959356712252884" lon="116.2233776001414">
        <ele>47.7001953125</ele>
        <time>2026-10-07T02:11:38Z</time>
      </trkpt>
      <trkpt lat="39.959865698112665" lon="116.22338554697897">
        <ele>47.71685791015625</ele>
        <time>2026-10-07T02:11:50Z</time>
      </trkpt>
      <trkpt lat="39.96036967018583" lon="116.22337446993224">
        <ele>48.35992431640625</ele>
        <time>2026-10-07T02:12:02Z</time>
      </trkpt>
      <trkpt lat="39.96086465070129" lon="116.2233744081949">
        <ele>48.7060546875</ele>
        <time>2026-10-07T02:12:14Z</time>
      </trkpt>
      <trkpt lat="39.96135163005446" lon="116.22337234487368">
        <ele>47.09375</ele>
        <time>2026-10-07T02:12:26Z</time>
      </trkpt>
      <trkpt lat="39.961432626864664" lon="116.22337233477086">
        <ele>46.57171630859375</ele>
        <time>2026-10-07T02:12:28Z</time>
      </trkpt>
      <trkpt lat="39.96192261345185" lon="116.22338028397458">
        <ele>48.5679931640625</ele>
        <time>2026-10-07T02:12:40Z</time>
      </trkpt>
      <trkpt lat="39.96240859062456" lon="116.22337521690574">
        <ele>48.7734375</ele>
        <time>2026-10-07T02:12:52Z</time>
      </trkpt>
      <trkpt lat="39.9629205770665" lon="116.22338416465145">
        <ele>49.23406982421875</ele>
        <time>2026-10-07T02:13:04Z</time>
      </trkpt>
      <trkpt lat="39.96342355429145" lon="116.2233800967502">
        <ele>48.41015625</ele>
        <time>2026-10-07T02:13:16Z</time>
      </trkpt>
      <trkpt lat="39.96390854104588" lon="116.22338804656965">
        <ele>46.99688720703125</ele>
        <time>2026-10-07T02:13:28Z</time>
      </trkpt>
      <trkpt lat="39.96442650073597" lon="116.22336094711955">
        <ele>46.69329833984375</ele>
        <time>2026-10-07T02:13:40Z</time>
      </trkpt>
      <trkpt lat="39.964602476842984" lon="116.22333789546434">
        <ele>46.71112060546875</ele>
        <time>2026-10-07T02:13:44Z</time>
      </trkpt>
      <trkpt lat="39.965087477584426" lon="116.223364869826">
        <ele>47.06805419921875</ele>
        <time>2026-10-07T02:13:56Z</time>
      </trkpt>
      <trkpt lat="39.965588471040476" lon="116.22338283055085">
        <ele>46.20001220703125</ele>
        <time>2026-10-07T02:14:09Z</time>
      </trkpt>
      <trkpt lat="39.96609745460149" lon="116.22338777350124">
        <ele>45.49249267578125</ele>
        <time>2026-10-07T02:14:22Z</time>
      </trkpt>
      <trkpt lat="39.966535428454776" lon="116.22337570338132">
        <ele>47.16278076171875</ele>
        <time>2026-10-07T02:14:32Z</time>
      </trkpt>
      <trkpt lat="39.96704940591261" lon="116.22337263538627">
        <ele>48.41668701171875</ele>
        <time>2026-10-07T02:14:44Z</time>
      </trkpt>
      <trkpt lat="39.96748540336702" lon="116.22339260678787">
        <ele>45.78466796875</ele>
        <time>2026-10-07T02:14:55Z</time>
      </trkpt>
      <trkpt lat="39.96795137387935" lon="116.22337752930387">
        <ele>43.94549560546875</ele>
        <time>2026-10-07T02:15:07Z</time>
      </trkpt>
      <trkpt lat="39.96846434987196" lon="116.2233724588493">
        <ele>48.32196044921875</ele>
        <time>2026-10-07T02:15:19Z</time>
      </trkpt>
      <trkpt lat="39.96889834590584" lon="116.22339042791872">
        <ele>45.92962646484375</ele>
        <time>2026-10-07T02:15:29Z</time>
      </trkpt>
      <trkpt lat="39.969387311792474" lon="116.22337034110814">
        <ele>45.0238037109375</ele>
        <time>2026-10-07T02:15:41Z</time>
      </trkpt>
      <trkpt lat="39.969823295220735" lon="116.22337128799826">
        <ele>44.9586181640625</ele>
        <time>2026-10-07T02:15:51Z</time>
      </trkpt>
      <trkpt lat="39.970255278061664" lon="116.22337123409605">
        <ele>45.7247314453125</ele>
        <time>2026-10-07T02:16:01Z</time>
      </trkpt>
      <trkpt lat="39.970677284823616" lon="116.223403222709">
        <ele>46.8941650390625</ele>
        <time>2026-10-07T02:16:11Z</time>
      </trkpt>
      <trkpt lat="39.971005248982806" lon="116.22337214180374">
        <ele>48.47686767578125</ele>
        <time>2026-10-07T02:16:20Z</time>
      </trkpt>
      <trkpt lat="39.971249281902836" lon="116.22343018611939">
        <ele>48.37005615234375</ele>
        <time>2026-10-07T02:16:26Z</time>
      </trkpt>
      <trkpt lat="39.97167426131704" lon="116.22342512664883">
        <ele>45.45111083984375</ele>
        <time>2026-10-07T02:16:36Z</time>
      </trkpt>
      <trkpt lat="39.9717692788089" lon="116.22345415212386">
        <ele>45.08544921875</ele>
        <time>2026-10-07T02:16:39Z</time>
      </trkpt>
      <trkpt lat="39.971794371364645" lon="116.22358231330105">
        <ele>44.82623291015625</ele>
        <time>2026-10-07T02:16:42Z</time>
      </trkpt>
      <trkpt lat="39.97177245145522" lon="116.22369145535406">
        <ele>43.4991455078125</ele>
        <time>2026-10-07T02:16:44Z</time>
      </trkpt>
      <trkpt lat="39.97176788308096" lon="116.22429621787919">
        <ele>43.359375</ele>
        <time>2026-10-07T02:16:56Z</time>
      </trkpt>
      <trkpt lat="39.971768307855264" lon="116.2249099736728">
        <ele>44.22503662109375</ele>
        <time>2026-10-07T02:17:08Z</time>
      </trkpt>
      <trkpt lat="39.97177172521071" lon="116.22553272212235">
        <ele>44.18511962890625</ele>
        <time>2026-10-07T02:17:20Z</time>
      </trkpt>
      <trkpt lat="39.97179414150165" lon="116.22617647426222">
        <ele>40.8592529296875</ele>
        <time>2026-10-07T02:17:33Z</time>
      </trkpt>
      <trkpt lat="39.97182427525707" lon="116.22638971625858">
        <ele>41.9456787109375</ele>
        <time>2026-10-07T02:17:40Z</time>
      </trkpt>
      <trkpt lat="39.97183262689416" lon="116.22695836000611">
        <ele>42.54473876953125</ele>
        <time>2026-10-07T02:17:51Z</time>
      </trkpt>
      <trkpt lat="39.97183897001186" lon="116.22753199407042">
        <ele>42.47052001953125</ele>
        <time>2026-10-07T02:18:01Z</time>
      </trkpt>
      <trkpt lat="39.97183030931751" lon="116.22811862813039">
        <ele>40.56011962890625</ele>
        <time>2026-10-07T02:18:11Z</time>
      </trkpt>
      <trkpt lat="39.971837491685754" lon="116.22844397117055">
        <ele>40.2816162109375</ele>
        <time>2026-10-07T02:18:17Z</time>
      </trkpt>
      <trkpt lat="39.971794606095074" lon="116.22864818980338">
        <ele>39.7587890625</ele>
        <time>2026-10-07T02:18:21Z</time>
      </trkpt>
      <trkpt lat="39.9717839250422" lon="116.22924079869468">
        <ele>41.16766357421875</ele>
        <time>2026-10-07T02:18:32Z</time>
      </trkpt>
      <trkpt lat="39.97178922303458" lon="116.22981837385909">
        <ele>44.0726318359375</ele>
        <time>2026-10-07T02:18:44Z</time>
      </trkpt>
      <trkpt lat="39.97178946038836" lon="116.23029583764009">
        <ele>45.423583984375</ele>
        <time>2026-10-07T02:18:56Z</time>
      </trkpt>
      <trkpt lat="39.97177351506733" lon="116.23040694596934">
        <ele>45.14776611328125</ele>
        <time>2026-10-07T02:18:59Z</time>
      </trkpt>
      <trkpt lat="39.97179178568844" lon="116.23097948214868">
        <ele>45.65618896484375</ele>
        <time>2026-10-07T02:19:15Z</time>
      </trkpt>
      <trkpt lat="39.97179306355701" lon="116.2315940421707">
        <ele>46.24609375</ele>
        <time>2026-10-07T02:19:30Z</time>
      </trkpt>
      <trkpt lat="39.97179032143166" lon="116.23219357118164">
        <ele>48.04254150390625</ele>
        <time>2026-10-07T02:19:45Z</time>
      </trkpt>
      <trkpt lat="39.97179857673608" lon="116.23282110461817">
        <ele>48.42291259765625</ele>
        <time>2026-10-07T02:20:01Z</time>
      </trkpt>
      <trkpt lat="39.971790681108736" lon="116.23308732648675">
        <ele>47.8818359375</ele>
        <time>2026-10-07T02:20:07Z</time>
      </trkpt>
      <trkpt lat="39.971809893764515" lon="116.2336557840464">
        <ele>45.8388671875</ele>
        <time>2026-10-07T02:20:19Z</time>
      </trkpt>
      <trkpt lat="39.97178813199572" lon="116.23432931105378">
        <ele>41.68414306640625</ele>
        <time>2026-10-07T02:20:31Z</time>
      </trkpt>
      <trkpt lat="39.97180134565998" lon="116.23498279662132">
        <ele>40.2235107421875</ele>
        <time>2026-10-07T02:20:43Z</time>
      </trkpt>
      <trkpt lat="39.9717985452119" lon="116.23564026574667">
        <ele>39.249267578125</ele>
        <time>2026-10-07T02:20:55Z</time>
      </trkpt>
      <trkpt lat="39.97179470477465" lon="116.23620865414298">
        <ele>38.58575439453125</ele>
        <time>2026-10-07T02:21:06Z</time>
      </trkpt>
      <trkpt lat="39.97181986816222" lon="116.23684606686409">
        <ele>39.217529296875</ele>
        <time>2026-10-07T02:21:18Z</time>
      </trkpt>
      <trkpt lat="39.97183102374127" lon="116.23751447974102">
        <ele>38.83929443359375</ele>
        <time>2026-10-07T02:21:30Z</time>
      </trkpt>
      <trkpt lat="39.97182516242936" lon="116.23817887007262">
        <ele>37.173095703125</ele>
        <time>2026-10-07T02:21:42Z</time>
      </trkpt>
      <trkpt lat="39.97182428310977" lon="116.23883623387103">
        <ele>38.23553466796875</ele>
        <time>2026-10-07T02:21:54Z</time>
      </trkpt>
      <trkpt lat="39.97182738426192" lon="116.23947256485864">
        <ele>39.76971435546875</ele>
        <time>2026-10-07T02:22:06Z</time>
      </trkpt>
      <trkpt lat="39.97182243993173" lon="116.23986976199356">
        <ele>39.926513671875</ele>
        <time>2026-10-07T02:22:14Z</time>
      </trkpt>
      <trkpt lat="39.97182150886387" lon="116.24043702900036">
        <ele>41.02490234375</ele>
        <time>2026-10-07T02:22:26Z</time>
      </trkpt>
      <trkpt lat="39.97182557107322" lon="116.24106830643741">
        <ele>41.86138916015625</ele>
        <time>2026-10-07T02:22:38Z</time>
      </trkpt>
      <trkpt lat="39.97182361938699" lon="116.24171457040048">
        <ele>41.58013916015625</ele>
        <time>2026-10-07T02:22:50Z</time>
      </trkpt>
      <trkpt lat="39.97182765168869" lon="116.24236181288792">
        <ele>40.785888671875</ele>
        <time>2026-10-07T02:23:02Z</time>
      </trkpt>
      <trkpt lat="39.9718336661463" lon="116.2428879940873">
        <ele>41.17376708984375</ele>
        <time>2026-10-07T02:23:13Z</time>
      </trkpt>
      <trkpt lat="39.97184766709566" lon="116.24298102305703">
        <ele>41.474365234375</ele>
        <time>2026-10-07T02:23:19Z</time>
      </trkpt>
      <trkpt lat="39.97190466632386" lon="116.24310505622758">
        <ele>41.95941162109375</ele>
        <time>2026-10-07T02:23:24Z</time>
      </trkpt>
      <trkpt lat="39.97199666308945" lon="116.24315406046607">
        <ele>41.54412841796875</ele>
        <time>2026-10-07T02:23:28Z</time>
      </trkpt>
      <trkpt lat="39.972462644030415" lon="116.24309998510597">
        <ele>42.19268798828125</ele>
        <time>2026-10-07T02:23:40Z</time>
      </trkpt>
      <trkpt lat="39.97268763435459" lon="116.24303693669683">
        <ele>42.3768310546875</ele>
        <time>2026-10-07T02:23:45Z</time>
      </trkpt>
      <trkpt lat="39.972880625469415" lon="116.2429518848391">
        <ele>42.9656982421875</ele>
        <time>2026-10-07T02:23:52Z</time>
      </trkpt>
      <trkpt lat="39.97336160480793" lon="116.2428667967362">
        <ele>42.0997314453125</ele>
        <time>2026-10-07T02:24:04Z</time>
      </trkpt>
      <trkpt lat="39.97384358348313" lon="116.24276670306642">
        <ele>44.33221435546875</ele>
        <time>2026-10-07T02:24:17Z</time>
      </trkpt>
      <trkpt lat="39.97393057933524" lon="116.24273768238294">
        <ele>45.4034423828125</ele>
        <time>2026-10-07T02:24:23Z</time>
      </trkpt>
      <trkpt lat="39.974371560391155" lon="116.24268460933831">
        <ele>43.61834716796875</ele>
        <time>2026-10-07T02:24:35Z</time>
      </trkpt>
      <trkpt lat="39.97485553823322" lon="116.24258351414761">
        <ele>44.793212890625</ele>
        <time>2026-10-07T02:24:48Z</time>
      </trkpt>
      <trkpt lat="39.97516952365904" lon="116.24251845229927">
        <ele>46.3309326171875</ele>
        <time>2026-10-07T02:24:56Z</time>
      </trkpt>
      <trkpt lat="39.975574505916256" lon="116.242472385626">
        <ele>44.25244140625</ele>
        <time>2026-10-07T02:25:08Z</time>
      </trkpt>
      <trkpt lat="39.97582449244281" lon="116.24237531993897">
        <ele>45.94903564453125</ele>
        <time>2026-10-07T02:25:16Z</time>
      </trkpt>
      <trkpt lat="39.97633346878199" lon="116.24229222658717">
        <ele>44.20159912109375</ele>
        <time>2026-10-07T02:25:29Z</time>
      </trkpt>
      <trkpt lat="39.97684144422102" lon="116.24219412750057">
        <ele>43.13385009765625</ele>
        <time>2026-10-07T02:25:42Z</time>
      </trkpt>
      <trkpt lat="39.97731742051519" lon="116.24209503154137">
        <ele>43.7900390625</ele>
        <time>2026-10-07T02:25:54Z</time>
      </trkpt>
      <trkpt lat="39.977803396481136" lon="116.24200493723605">
        <ele>43.2376708984375</ele>
        <time>2026-10-07T02:26:06Z</time>
      </trkpt>
      <trkpt lat="39.97825737252882" lon="116.24189884039232">
        <ele>44.337158203125</ele>
        <time>2026-10-07T02:26:18Z</time>
      </trkpt>
      <trkpt lat="39.97841336416349" lon="116.24186180676229">
        <ele>44.0325927734375</ele>
        <time>2026-10-07T02:26:22Z</time>
      </trkpt>
      <trkpt lat="39.978865341978555" lon="116.2417937241761">
        <ele>43.84747314453125</ele>
        <time>2026-10-07T02:26:35Z</time>
      </trkpt>
      <trkpt lat="39.97912132844262" lon="116.2417406716445">
        <ele>43.921875</ele>
        <time>2026-10-07T02:26:45Z</time>
      </trkpt>
      <trkpt lat="39.9791993259657" lon="116.24175166621752">
        <ele>44.7491455078125</ele>
        <time>2026-10-07T02:27:40Z</time>
      </trkpt>
      <trkpt lat="39.979260326621784" lon="116.24180367882853">
        <ele>44.6484375</ele>
        <time>2026-10-07T02:27:43Z</time>
      </trkpt>
      <trkpt lat="39.979316329406075" lon="116.24189170574475">
        <ele>44.30908203125</ele>
        <time>2026-10-07T02:27:46Z</time>
      </trkpt>
      <trkpt lat="39.9794623502894" lon="116.24249791033307">
        <ele>38.86285400390625</ele>
        <time>2026-10-07T02:28:00Z</time>
      </trkpt>
      <trkpt lat="39.97960935673231" lon="116.24305908170128">
        <ele>37.6993408203125</ele>
        <time>2026-10-07T02:28:12Z</time>
      </trkpt>
      <trkpt lat="39.97975535081025" lon="116.24366425023072">
        <ele>37.96826171875</ele>
        <time>2026-10-07T02:28:25Z</time>
      </trkpt>
      <trkpt lat="39.979875332972874" lon="116.24424239637092">
        <ele>36.5128173828125</ele>
        <time>2026-10-07T02:28:38Z</time>
      </trkpt>
      <trkpt lat="39.98001030057425" lon="116.24484352912783">
        <ele>38.974365234375</ele>
        <time>2026-10-07T02:28:50Z</time>
      </trkpt>
      <trkpt lat="39.98013226376352" lon="116.24533062172955">
        <ele>39.56109619140625</ele>
        <time>2026-10-07T02:29:00Z</time>
      </trkpt>
      <trkpt lat="39.980260205974034" lon="116.24594072388872">
        <ele>40.538818359375</ele>
        <time>2026-10-07T02:29:13Z</time>
      </trkpt>
      <trkpt lat="39.980293193344274" lon="116.24605373959018">
        <ele>39.96685791015625</ele>
        <time>2026-10-07T02:29:16Z</time>
      </trkpt>
      <trkpt lat="39.98044011112792" lon="116.24671882479804">
        <ele>39.95587158203125</ele>
        <time>2026-10-07T02:29:32Z</time>
      </trkpt>
      <trkpt lat="39.98056602179246" lon="116.24732588408652">
        <ele>38.97186279296875</ele>
        <time>2026-10-07T02:29:44Z</time>
      </trkpt>
      <trkpt lat="39.98071291035372" lon="116.2479749253671">
        <ele>39.9951171875</ele>
        <time>2026-10-07T02:29:57Z</time>
      </trkpt>
      <trkpt lat="39.980824801802825" lon="116.24853594580418">
        <ele>38.85174560546875</ele>
        <time>2026-10-07T02:30:09Z</time>
      </trkpt>
      <trkpt lat="39.980902729608715" lon="116.24887694923743">
        <ele>39.28582763671875</ele>
        <time>2026-10-07T02:30:17Z</time>
      </trkpt>
      <trkpt lat="39.98098168495678" lon="116.24907194428162">
        <ele>40.27178955078125</ele>
        <time>2026-10-07T02:30:25Z</time>
      </trkpt>
      <trkpt lat="39.98099865826828" lon="116.2491909442057">
        <ele>40.134521484375</ele>
        <time>2026-10-07T02:30:29Z</time>
      </trkpt>
      <trkpt lat="39.980979614824435" lon="116.24938794838776">
        <ele>40.38250732421875</ele>
        <time>2026-10-07T02:30:37Z</time>
      </trkpt>
      <trkpt lat="39.981026629923605" lon="116.24931294207036">
        <ele>42.92352294921875</ele>
        <time>2026-10-07T02:31:21Z</time>
      </trkpt>
      <trkpt lat="39.981099609728766" lon="116.24938893343808">
        <ele>42.19329833984375</ele>
        <time>2026-10-07T02:31:25Z</time>
      </trkpt>
      <trkpt lat="39.98133247031217" lon="116.24993389922105">
        <ele>39.6292724609375</ele>
        <time>2026-10-07T02:31:40Z</time>
      </trkpt>
      <trkpt lat="39.981600314510146" lon="116.25049284499799">
        <ele>38.93231201171875</ele>
        <time>2026-10-07T02:31:54Z</time>
      </trkpt>
      <trkpt lat="39.98174720501695" lon="116.25086680398556">
        <ele>38.138671875</ele>
        <time>2026-10-07T02:32:03Z</time>
      </trkpt>
      <trkpt lat="39.98193003305579" lon="116.25142573418445">
        <ele>38.914794921875</ele>
        <time>2026-10-07T02:32:15Z</time>
      </trkpt>
      <trkpt lat="39.982144842525734" lon="116.25200164259641">
        <ele>38.445068359375</ele>
        <time>2026-10-07T02:32:27Z</time>
      </trkpt>
      <trkpt lat="39.98235563206757" lon="116.25259953148287">
        <ele>39.4017333984375</ele>
        <time>2026-10-07T02:32:39Z</time>
      </trkpt>
      <trkpt lat="39.9825814120816" lon="116.25318540289038">
        <ele>39.8758544921875</ele>
        <time>2026-10-07T02:32:51Z</time>
      </trkpt>
      <trkpt lat="39.98286919242814" lon="116.25373125803387">
        <ele>40.06365966796875</ele>
        <time>2026-10-07T02:33:03Z</time>
      </trkpt>
      <trkpt lat="39.9832320052581" lon="116.25416311607735">
        <ele>41.2125244140625</ele>
        <time>2026-10-07T02:33:15Z</time>
      </trkpt>
      <trkpt lat="39.98335395075815" lon="116.25428407212172">
        <ele>41.10205078125</ele>
        <time>2026-10-07T02:33:19Z</time>
      </trkpt>
      <trkpt lat="39.98357886857182" lon="116.25446000096348">
        <ele>38.488037109375</ele>
        <time>2026-10-07T02:33:29Z</time>
      </trkpt>
      <trkpt lat="39.98364685114092" lon="116.25449498373086">
        <ele>38.737060546875</ele>
        <time>2026-10-07T02:33:36Z</time>
      </trkpt>
      <trkpt lat="39.983999668615304" lon="116.25488883696816">
        <ele>39.40863037109375</ele>
        <time>2026-10-07T02:33:51Z</time>
      </trkpt>
      <trkpt lat="39.98429852320064" lon="116.25519171544447">
        <ele>39.817626953125</ele>
        <time>2026-10-07T02:34:01Z</time>
      </trkpt>
      <trkpt lat="39.98443541241185" lon="116.2554256301953">
        <ele>38.98394775390625</ele>
        <time>2026-10-07T02:34:07Z</time>
      </trkpt>
      <trkpt lat="39.98480421094717" lon="116.25582946013884">
        <ele>40.45953369140625</ele>
        <time>2026-10-07T02:34:19Z</time>
      </trkpt>
      <trkpt lat="39.98498511285502" lon="116.25602137579686">
        <ele>40.7784423828125</ele>
        <time>2026-10-07T02:34:25Z</time>
      </trkpt>
      <trkpt lat="39.985339882918055" lon="116.25646618138195">
        <ele>38.91680908203125</ele>
        <time>2026-10-07T02:34:38Z</time>
      </trkpt>
      <trkpt lat="39.985478792513554" lon="116.25663710376304">
        <ele>38.84197998046875</ele>
        <time>2026-10-07T02:34:44Z</time>
      </trkpt>
      <trkpt lat="39.98560264132206" lon="116.25692698277705">
        <ele>37.8460693359375</ele>
        <time>2026-10-07T02:34:52Z</time>
      </trkpt>
      <trkpt lat="39.98568949012246" lon="116.257213863437">
        <ele>38.15557861328125</ele>
        <time>2026-10-07T02:35:01Z</time>
      </trkpt>
      <trkpt lat="39.98573743914385" lon="116.25730782104151">
        <ele>38.65643310546875</ele>
        <time>2026-10-07T02:35:04Z</time>
      </trkpt>
      <trkpt lat="39.985762324808576" lon="116.25752273301921">
        <ele>38.6220703125</ele>
        <time>2026-10-07T02:35:11Z</time>
      </trkpt>
      <trkpt lat="39.98583620946511" lon="116.25773263868182">
        <ele>38.331787109375</ele>
        <time>2026-10-07T02:35:18Z</time>
      </trkpt>
      <trkpt lat="39.98582610360471" lon="116.25792855854935">
        <ele>39.20404052734375</ele>
        <time>2026-10-07T02:36:13Z</time>
      </trkpt>
      <trkpt lat="39.985802086012725" lon="116.25796254723414">
        <ele>40.4405517578125</ele>
        <time>2026-10-07T02:36:20Z</time>
      </trkpt>
    </trkseg>
  </trk>
</gpx>