<?xml version="1.0" encoding="UTF-8"?>
<gpx xmlns="http://www.topografix.com/GPX/1/1" xmlns:gpxtpx="http://www.garmin.com/xmlschemas/TrackPointExtension/v1" xmlns:xsi="http://www.w3.org/2001/XMLSchema-instance" xsi:schemaLocation="http://www.topografix.com/GPX/1/1 http://www.topografix.com/GPX/1/1/gpx.xsd" version="1.1" creator="gpx.py -- https://github.com/tkrajina/gpxpy">
  <trk>
    <name>gpx from keep</name>
    <type>Run</type>
    <trkseg>
      <trkpt lat="39.913019679251796" lon="116.18550041852721">
        <ele>67.4830322265625</ele>
        <time>2026-08-27T11:39:10Z</time>
      </trkpt>
      <trkpt lat="39.91310474289444" lon="116.18553950988913">
        <ele>67.0562744140625</ele>
        <time>2026-08-27T11:39:16Z</time>
      </trkpt>
      <trkpt lat="39.913364764650105" lon="116.18555852694679">
        <ele>62.44964599609375</ele>
        <time>2026-08-27T11:39:28Z</time>
      </trkpt>
      <trkpt lat="39.91342283974123" lon="116.18560363733974">
        <ele>63.61688232421875</ele>
        <time>2026-08-27T11:39:34Z</time>
      </trkpt>
      <trkpt lat="39.913398238368295" lon="116.18583524388103">
        <ele>63.24810791015625</ele>
        <time>2026-08-27T11:39:43Z</time>
      </trkpt>
      <trkpt lat="39.91342646228857" lon="116.18596658206434">
        <ele>66.49151611328125</ele>
        <time>2026-08-27T11:39:49Z</time>
      </trkpt>
      <trkpt lat="39.91346156039041" lon="116.18602472884298">
        <ele>67.45098876953125</ele>
        <time>2026-08-27T11:39:52Z</time>
      </trkpt>
      <trkpt lat="39.91351160804915" lon="116.1860537981266">
        <ele>67.9703369140625</ele>
        <time>2026-08-27T11:39:55Z</time>
      </trkpt>
      <trkpt lat="39.913818529867456" lon="116.18601566057897">
        <ele>67.2083740234375</ele>
        <time>2026-08-27T11:40:13Z</time>
      </trkpt>
      <trkpt lat="39.91386649179005" lon="116.18599459982313">
        <ele>67.84307861328125</ele>
        <time>2026-08-27T11:40:16Z</time>
      </trkpt>
      <trkpt lat="39.91390040105499" lon="116.18594245999176">
        <ele>66.49493408203125</ele>
        <time>2026-08-27T11:40:19Z</time>
      </trkpt>
      <trkpt lat="39.913888155772554" lon="116.18579908840775">
        <ele>62.8699951171875</ele>
        <time>2026-08-27T11:40:25Z</time>
      </trkpt>
      <trkpt lat="39.913848061122906" lon="116.18574294720807">
        <ele>60.77484130859375</ele>
        <time>2026-08-27T11:40:28Z</time>
      </trkpt>
      <trkpt lat="39.913917663727986" lon="116.18551333980813">
        <ele>59.5006103515625</ele>
        <time>2026-08-27T11:40:37Z</time>
      </trkpt>
      <trkpt lat="39.913925020973636" lon="116.18514036410149">
        <ele>63.755859375</ele>
        <time>2026-08-27T11:40:52Z</time>
      </trkpt>
      <trkpt lat="39.91390361151749" lon="116.18490274430314">
        <ele>62.76385498046875</ele>
        <time>2026-08-27T11:41:04Z</time>
      </trkpt>
      <trkpt lat="39.91400403106577" lon="116.18456985780817">
        <ele>60.6923828125</ele>
        <time>2026-08-27T11:41:19Z</time>
      </trkpt>
      <trkpt lat="39.914046709238974" lon="116.18438536719356">
        <ele>60.9642333984375</ele>
        <time>2026-08-27T11:41:25Z</time>
      </trkpt>
      <trkpt lat="39.914032575768346" lon="116.18430816570432">
        <ele>60.984619140625</ele>
        <time>2026-08-27T11:41:28Z</time>
      </trkpt>
      <trkpt lat="39.914074898911984" lon="116.18392013705814">
        <ele>60.9422607421875</ele>
        <time>2026-08-27T11:41:43Z</time>
      </trkpt>
      <trkpt lat="39.91405355012546" lon="116.18371960976812">
        <ele>62.300048828125</ele>
        <time>2026-08-27T11:41:52Z</time>
      </trkpt>
      <trkpt lat="39.91401725048864" lon="116.18354715795047">
        <ele>61.67449951171875</ele>
        <time>2026-08-27T11:42:01Z</time>
      </trkpt>
      <trkpt lat="39.91403397628533" lon="116.18339074144835">
        <ele>64.6910400390625</ele>
        <time>2026-08-27T11:42:07Z</time>
      </trkpt>
      <trkpt lat="39.914056845470505" lon="116.1833165418428">
        <ele>64.53009033203125</ele>
        <time>2026-08-27T11:42:10Z</time>
      </trkpt>
      <trkpt lat="39.914101117562026" lon="116.18290243645657">
        <ele>60.51556396484375</ele>
        <time>2026-08-27T11:42:28Z</time>
      </trkpt>
      <trkpt lat="39.91409355732499" lon="116.18258358846755">
        <ele>59.96087646484375</ele>
        <time>2026-08-27T11:42:40Z</time>
      </trkpt>
      <trkpt lat="39.914131870006116" lon="116.18219454541303">
        <ele>69.749267578125</ele>
        <time>2026-08-27T11:42:55Z</time>
      </trkpt>
      <trkpt lat="39.91412529978295" lon="116.18187168261751">
        <ele>67.361328125</ele>
        <time>2026-08-27T11:43:07Z</time>
      </trkpt>
      <trkpt lat="39.9140736395069" lon="116.1814976864943">
        <ele>66.4881591796875</ele>
        <time>2026-08-27T11:43:22Z</time>
      </trkpt>
      <trkpt lat="39.91407898584808" lon="116.18112969706371">
        <ele>65.689697265625</ele>
        <time>2026-08-27T11:43:37Z</time>
      </trkpt>
      <trkpt lat="39.914062749336246" lon="116.18099634023427">
        <ele>63.029541015625</ele>
        <time>2026-08-27T11:43:46Z</time>
      </trkpt>
      <trkpt lat="39.914086635900915" lon="116.18093316713956">
        <ele>61.62255859375</ele>
        <time>2026-08-27T11:43:49Z</time>
      </trkpt>
      <trkpt lat="39.91420658264787" lon="116.18090607914375">
        <ele>59.99847412109375</ele>
        <time>2026-08-27T11:43:55Z</time>
      </trkpt>
      <trkpt lat="39.914267394356216" lon="116.18080179052569">
        <ele>60.5985107421875</ele>
        <time>2026-08-27T11:44:01Z</time>
      </trkpt>
      <trkpt lat="39.91432137243061" lon="116.18079075401084">
        <ele>60.77838134765625</ele>
        <time>2026-08-27T11:44:07Z</time>
      </trkpt>
      <trkpt lat="39.914340376989855" lon="116.18079375972947">
        <ele>61.40606689453125</ele>
        <time>2026-08-27T11:44:25Z</time>
      </trkpt>
      <trkpt lat="39.91443865015095" lon="116.18038865421128">
        <ele>63.42919921875</ele>
        <time>2026-08-27T11:46:04Z</time>
      </trkpt>
      <trkpt lat="39.91465461061023" lon="116.18037158100002">
        <ele>63.49188232421875</ele>
        <time>2026-08-27T11:46:16Z</time>
      </trkpt>
      <trkpt lat="39.91471062795768" lon="116.18038260375774">
        <ele>64.1405029296875</ele>
        <time>2026-08-27T11:46:19Z</time>
      </trkpt>
      <trkpt lat="39.914732444277405" lon="116.18028032460066">
        <ele>64.49420166015625</ele>
        <time>2026-08-27T11:46:25Z</time>
      </trkpt>
      <trkpt lat="39.914803383932636" lon="116.18024822892866">
        <ele>67.89630126953125</ele>
        <time>2026-08-27T11:46:31Z</time>
      </trkpt>
      <trkpt lat="39.91510036248636" lon="116.18024317802741">
        <ele>69.756103515625</ele>
        <time>2026-08-27T11:46:46Z</time>
      </trkpt>
      <trkpt lat="39.915201379755686" lon="116.18025519785924">
        <ele>71.19451904296875</ele>
        <time>2026-08-27T11:46:52Z</time>
      </trkpt>
      <trkpt lat="39.91528231540096" lon="116.18022109549366">
        <ele>67.3199462890625</ele>
        <time>2026-08-27T11:46:58Z</time>
      </trkpt>
      <trkpt lat="39.91533622885355" lon="116.18017396124817">
        <ele>66.69384765625</ele>
        <time>2026-08-27T11:47:01Z</time>
      </trkpt>
      <trkpt lat="39.915364098520335" lon="116.18010176241049">
        <ele>66.33355712890625</ele>
        <time>2026-08-27T11:47:04Z</time>
      </trkpt>
      <trkpt lat="39.91537555744923" lon="116.17979994350956">
        <ele>64.3887939453125</ele>
        <time>2026-08-27T11:47:16Z</time>
      </trkpt>
      <trkpt lat="39.915413143935766" lon="116.17957031594331">
        <ele>63.60797119140625</ele>
        <time>2026-08-27T11:47:25Z</time>
      </trkpt>
      <trkpt lat="39.91539863109585" lon="116.1792845415318">
        <ele>63.34320068359375</ele>
        <time>2026-08-27T11:47:37Z</time>
      </trkpt>
      <trkpt lat="39.91537235981652" lon="116.17913313308527">
        <ele>64.21466064453125</ele>
        <time>2026-08-27T11:47:43Z</time>
      </trkpt>
      <trkpt lat="39.91537062998374" lon="116.17872803005311">
        <ele>67.77716064453125</ele>
        <time>2026-08-27T11:47:58Z</time>
      </trkpt>
      <trkpt lat="39.915351888355445" lon="116.178316910431">
        <ele>67.37921142578125</ele>
        <time>2026-08-27T11:48:13Z</time>
      </trkpt>
      <trkpt lat="39.91543391935381" lon="116.17833595215488">
        <ele>66.4932861328125</ele>
        <time>2026-08-27T11:48:19Z</time>
      </trkpt>
      <trkpt lat="39.91549098401875" lon="116.1783730463124">
        <ele>66.32208251953125</ele>
        <time>2026-08-27T11:48:22Z</time>
      </trkpt>
      <trkpt lat="39.91578294277871" lon="116.1783569657571">
        <ele>68.531982421875</ele>
        <time>2026-08-27T11:48:37Z</time>
      </trkpt>
      <trkpt lat="39.91606489834162" lon="116.17833888097803">
        <ele>77.9937744140625</ele>
        <time>2026-08-27T11:48:52Z</time>
      </trkpt>
      <trkpt lat="39.916300859462076" lon="116.17832280745985">
        <ele>73.5712890625</ele>
        <time>2026-08-27T11:49:04Z</time>
      </trkpt>
      <trkpt lat="39.916335653107375" lon="116.17820949345155">
        <ele>71.61602783203125</ele>
        <time>2026-08-27T11:49:10Z</time>
      </trkpt>
      <trkpt lat="39.91635198793149" lon="116.17784248734179">
        <ele>71.7115478515625</ele>
        <time>2026-08-27T11:49:25Z</time>
      </trkpt>
      <trkpt lat="39.916361227114606" lon="116.17742333731232">
        <ele>71.9967041015625</ele>
        <time>2026-08-27T11:49:43Z</time>
      </trkpt>
      <trkpt lat="39.916369570582674" lon="116.17706234501384">
        <ele>68.57861328125</ele>
        <time>2026-08-27T11:49:58Z</time>
      </trkpt>
      <trkpt lat="39.91636690241131" lon="116.1766953359287">
        <ele>66.0577392578125</ele>
        <time>2026-08-27T11:50:13Z</time>
      </trkpt>
      <trkpt lat="39.91636641053543" lon="116.17642559305969">
        <ele>63.770263671875</ele>
        <time>2026-08-27T11:50:25Z</time>
      </trkpt>
      <trkpt lat="39.91639176306831" lon="116.17607161364953">
        <ele>64.4371337890625</ele>
        <time>2026-08-27T11:50:40Z</time>
      </trkpt>
      <trkpt lat="39.91638109959026" lon="116.1757086124018">
        <ele>68.135498046875</ele>
        <time>2026-08-27T11:50:55Z</time>
      </trkpt>
      <trkpt lat="39.916391327595214" lon="116.17528744606669">
        <ele>65.1705322265625</ele>
        <time>2026-08-27T11:51:13Z</time>
      </trkpt>
      <trkpt lat="39.91639120071636" lon="116.17521825449981">
        <ele>66.7835693359375</ele>
        <time>2026-08-27T11:51:16Z</time>
      </trkpt>
      <trkpt lat="39.916370505861636" lon="116.1748392066772">
        <ele>68.0169677734375</ele>
        <time>2026-08-27T11:51:31Z</time>
      </trkpt>
      <trkpt lat="39.91640128165452" lon="116.17471786624002">
        <ele>67.35711669921875</ele>
        <time>2026-08-27T11:51:37Z</time>
      </trkpt>
      <trkpt lat="39.91639417506127" lon="116.17465970575608">
        <ele>66.93341064453125</ele>
        <time>2026-08-27T11:51:40Z</time>
      </trkpt>
      <trkpt lat="39.91633013534598" lon="116.17463664981888">
        <ele>67.53570556640625</ele>
        <time>2026-08-27T11:51:43Z</time>
      </trkpt>
      <trkpt lat="39.91621319737795" lon="116.17466775081556">
        <ele>67.122802734375</ele>
        <time>2026-08-27T11:51:49Z</time>
      </trkpt>
      <trkpt lat="39.91592721303821" lon="116.1746697924066">
        <ele>67.6973876953125</ele>
        <time>2026-08-27T11:52:04Z</time>
      </trkpt>
      <trkpt lat="39.91562821451054" lon="116.17466381337583">
        <ele>68.8177490234375</ele>
        <time>2026-08-27T11:52:22Z</time>
      </trkpt>
      <trkpt lat="39.91534622081064" lon="116.17466084055025">
        <ele>66.3443603515625</ele>
        <time>2026-08-27T11:52:37Z</time>
      </trkpt>
      <trkpt lat="39.91514326434967" lon="116.17467991898431">
        <ele>67.2059326171875</ele>
        <time>2026-08-27T11:52:49Z</time>
      </trkpt>
      <trkpt lat="39.915048098761226" lon="116.17458767494512">
        <ele>67.7916259765625</ele>
        <time>2026-08-27T11:52:55Z</time>
      </trkpt>
      <trkpt lat="39.91499008276196" lon="116.17457765441924">
        <ele>67.80328369140625</ele>
        <time>2026-08-27T11:52:58Z</time>
      </trkpt>
      <trkpt lat="39.91485229131938" lon="116.17468797789586">
        <ele>63.313232421875</ele>
        <time>2026-08-27T11:53:07Z</time>
      </trkpt>
      <trkpt lat="39.9145513740026" lon="116.17472612152186">
        <ele>69.2503662109375</ele>
        <time>2026-08-27T11:53:22Z</time>
      </trkpt>
      <trkpt lat="39.914434382611894" lon="116.17472814182202">
        <ele>69.50933837890625</ele>
        <time>2026-08-27T11:53:28Z</time>
      </trkpt>
      <trkpt lat="39.91414432111598" lon="116.1746880670732">
        <ele>69.21240234375</ele>
        <time>2026-08-27T11:53:43Z</time>
      </trkpt>
      <trkpt lat="39.914047205402426" lon="116.17462289843398">
        <ele>68.7606201171875</ele>
        <time>2026-08-27T11:53:49Z</time>
      </trkpt>
      <trkpt lat="39.913764222866384" lon="116.17462594242767">
        <ele>68.8377685546875</ele>
        <time>2026-08-27T11:54:04Z</time>
      </trkpt>
      <trkpt lat="39.91352922909837" lon="116.17462396646155">
        <ele>68.33984375</ele>
        <time>2026-08-27T11:54:16Z</time>
      </trkpt>
      <trkpt lat="39.91347630506359" lon="116.17466408443732">
        <ele>68.50518798828125</ele>
        <time>2026-08-27T11:54:19Z</time>
      </trkpt>
      <trkpt lat="39.91341758209095" lon="116.1748135063192">
        <ele>69.3515625</ele>
        <time>2026-08-27T11:54:25Z</time>
      </trkpt>
      <trkpt lat="39.91340333550204" lon="116.17522364468576">
        <ele>69.17169189453125</ele>
        <time>2026-08-27T11:54:40Z</time>
      </trkpt>
      <trkpt lat="39.913405026413116" lon="116.17560068777485">
        <ele>67.3111572265625</ele>
        <time>2026-08-27T11:54:55Z</time>
      </trkpt>
      <trkpt lat="39.91341216381233" lon="116.17567589479727">
        <ele>67.25506591796875</ele>
        <time>2026-08-27T11:54:58Z</time>
      </trkpt>
      <trkpt lat="39.91349537318928" lon="116.17579220578207">
        <ele>66.844482421875</ele>
        <time>2026-08-27T11:55:04Z</time>
      </trkpt>
      <trkpt lat="39.91351651905693" lon="116.17587242473014">
        <ele>66.47802734375</ele>
        <time>2026-08-27T11:55:07Z</time>
      </trkpt>
      <trkpt lat="39.91352595863676" lon="116.17611308793892">
        <ele>66.81207275390625</ele>
        <time>2026-08-27T11:55:16Z</time>
      </trkpt>
      <trkpt lat="39.91348607757075" lon="116.17617727002117">
        <ele>66.6407470703125</ele>
        <time>2026-08-27T11:55:19Z</time>
      </trkpt>
      <trkpt lat="39.913432140292926" lon="116.17621036809038">
        <ele>67.35565185546875</ele>
        <time>2026-08-27T11:55:22Z</time>
      </trkpt>
      <trkpt lat="39.91339139468381" lon="116.1763487547932">
        <ele>68.84661865234375</ele>
        <time>2026-08-27T11:55:28Z</time>
      </trkpt>
      <trkpt lat="39.913377070130906" lon="116.17671877578482">
        <ele>68.88958740234375</ele>
        <time>2026-08-27T11:55:43Z</time>
      </trkpt>
      <trkpt lat="39.91338182386622" lon="116.1771329139481">
        <ele>65.1746826171875</ele>
        <time>2026-08-27T11:56:01Z</time>
      </trkpt>
      <trkpt lat="39.91338436136755" lon="116.1774287257282">
        <ele>65.1497802734375</ele>
        <time>2026-08-27T11:56:13Z</time>
      </trkpt>
      <trkpt lat="39.91340948411865" lon="116.17749690960545">
        <ele>64.15106201171875</ele>
        <time>2026-08-27T11:56:16Z</time>
      </trkpt>
      <trkpt lat="39.913455587742654" lon="116.17755506328976">
        <ele>64.1953125</ele>
        <time>2026-08-27T11:56:19Z</time>
      </trkpt>
      <trkpt lat="39.913507645596795" lon="116.17758814746145">
        <ele>64.63958740234375</ele>
        <time>2026-08-27T11:56:22Z</time>
      </trkpt>
      <trkpt lat="39.91381762159451" lon="116.17758209195861">
        <ele>68.83380126953125</ele>
        <time>2026-08-27T11:56:37Z</time>
      </trkpt>
      <trkpt lat="39.91410958198692" lon="116.17756701397903">
        <ele>70.3291015625</ele>
        <time>2026-08-27T11:56:52Z</time>
      </trkpt>
      <trkpt lat="39.914403571422206" lon="116.17756797973017">
        <ele>77.65972900390625</ele>
        <time>2026-08-27T11:57:07Z</time>
      </trkpt>
      <trkpt lat="39.914723503360165" lon="116.17753785698275">
        <ele>78.89471435546875</ele>
        <time>2026-08-27T11:57:22Z</time>
      </trkpt>
      <trkpt lat="39.91479147865974" lon="116.17752581543104">
        <ele>77.12677001953125</ele>
        <time>2026-08-27T11:57:25Z</time>
      </trkpt>
      <trkpt lat="39.91483641123743" lon="116.17748971077434">
        <ele>75.25616455078125</ele>
        <time>2026-08-27T11:57:28Z</time>
      </trkpt>
      <trkpt lat="39.91481273255182" lon="116.1771156870143">
        <ele>74.2479248046875</ele>
        <time>2026-08-27T11:57:43Z</time>
      </trkpt>
      <trkpt lat="39.91482107504692" lon="116.17675469336035">
        <ele>72.02099609375</ele>
        <time>2026-08-27T11:57:58Z</time>
      </trkpt>
      <trkpt lat="39.91493743019589" lon="116.17640371217203">
        <ele>72.692626953125</ele>
        <time>2026-08-27T11:58:10Z</time>
      </trkpt>
      <trkpt lat="39.91499393710874" lon="116.17613496398451">
        <ele>78.133056640625</ele>
        <time>2026-08-27T11:58:19Z</time>
      </trkpt>
      <trkpt lat="39.91505368169146" lon="116.1759965745403">
        <ele>81.02191162109375</ele>
        <time>2026-08-27T11:58:25Z</time>
      </trkpt>
      <trkpt lat="39.91508961051437" lon="116.17595846481122">
        <ele>79.796142578125</ele>
        <time>2026-08-27T11:58:28Z</time>
      </trkpt>
      <trkpt lat="39.91506914540805" lon="116.17570376375672">
        <ele>81.0306396484375</ele>
        <time>2026-08-27T11:58:37Z</time>
      </trkpt>
      <trkpt lat="39.91496636894876" lon="116.17527759777124">
        <ele>80.46441650390625</ele>
        <time>2026-08-27T11:58:52Z</time>
      </trkpt>
      <trkpt lat="39.91487861814655" lon="116.17486646967707">
        <ele>75.80316162109375</ele>
        <time>2026-08-27T11:59:10Z</time>
      </trkpt>
      <trkpt lat="39.91483134195715" lon="116.17471505565445">
        <ele>72.34674072265625</ele>
        <time>2026-08-27T11:59:22Z</time>
      </trkpt>
      <trkpt lat="39.91475331759556" lon="116.17470002375036">
        <ele>72.81787109375</ele>
        <time>2026-08-27T11:59:28Z</time>
      </trkpt>
      <trkpt lat="39.914676348474835" lon="116.17471507517779">
        <ele>73.7412109375</ele>
        <time>2026-08-27T11:59:34Z</time>
      </trkpt>
      <trkpt lat="39.9146114285956" lon="116.17475720019306">
        <ele>73.34844970703125</ele>
        <time>2026-08-27T11:59:40Z</time>
      </trkpt>
      <trkpt lat="39.91455834791087" lon="116.17471208169508">
        <ele>70.87762451171875</ele>
        <time>2026-08-27T11:59:49Z</time>
      </trkpt>
      <trkpt lat="39.91426437502906" lon="116.17472014098043">
        <ele>68.9814453125</ele>
        <time>2026-08-27T12:00:10Z</time>
      </trkpt>
      <trkpt lat="39.9141123501067" lon="116.17470311283394">
        <ele>69.23089599609375</ele>
        <time>2026-08-27T12:00:22Z</time>
      </trkpt>
      <trkpt lat="39.91406220661352" lon="116.17462389932737">
        <ele>68.8626708984375</ele>
        <time>2026-08-27T12:00:28Z</time>
      </trkpt>
      <trkpt lat="39.913758208372876" lon="116.17461792092148">
        <ele>67.92425537109375</ele>
        <time>2026-08-27T12:00:49Z</time>
      </trkpt>
      <trkpt lat="39.91359920217935" lon="116.17461092146867">
        <ele>65.63812255859375</ele>
        <time>2026-08-27T12:00:58Z</time>
      </trkpt>
      <trkpt lat="39.913492313603015" lon="116.1746690963335">
        <ele>66.96630859375</ele>
        <time>2026-08-27T12:01:04Z</time>
      </trkpt>
      <trkpt lat="39.91344942782937" lon="116.17473027144807">
        <ele>66.6771240234375</ele>
        <time>2026-08-27T12:01:07Z</time>
      </trkpt>
      <trkpt lat="39.9134281137077" lon="116.17510330827777">
        <ele>67.7169189453125</ele>
        <time>2026-08-27T12:01:22Z</time>
      </trkpt>
      <trkpt lat="39.91342882704305" lon="116.17549238526273">
        <ele>66.602783203125</ele>
        <time>2026-08-27T12:01:37Z</time>
      </trkpt>
      <trkpt lat="39.91343011165095" lon="116.17564781492065">
        <ele>66.47021484375</ele>
        <time>2026-08-27T12:01:43Z</time>
      </trkpt>
      <trkpt lat="39.91345523541562" lon="116.17571600023972">
        <ele>66.26275634765625</ele>
        <time>2026-08-27T12:01:46Z</time>
      </trkpt>
      <trkpt lat="39.913493312722956" lon="116.17575911460628">
        <ele>64.8046875</ele>
        <time>2026-08-27T12:01:49Z</time>
      </trkpt>
      <trkpt lat="39.913537910489936" lon="116.17608701448954">
        <ele>65.39654541015625</ele>
        <time>2026-08-27T12:02:01Z</time>
      </trkpt>
      <trkpt lat="39.91350204758695" lon="116.1761612237497">
        <ele>65.45306396484375</ele>
        <time>2026-08-27T12:02:04Z</time>
      </trkpt>
      <trkpt lat="39.91344812130245" lon="116.17620033841956">
        <ele>65.41400146484375</ele>
        <time>2026-08-27T12:02:07Z</time>
      </trkpt>
      <trkpt lat="39.91341323448758" lon="116.1762615115126">
        <ele>66.037841796875</ele>
        <time>2026-08-27T12:02:10Z</time>
      </trkpt>
      <trkpt lat="39.913386998440735" lon="116.17667966689297">
        <ele>65.1761474609375</ele>
        <time>2026-08-27T12:02:25Z</time>
      </trkpt>
      <trkpt lat="39.913391783321615" lon="116.17711085208732">
        <ele>64.998291015625</ele>
        <time>2026-08-27T12:02:40Z</time>
      </trkpt>
      <trkpt lat="39.913403382416234" lon="116.1774407563456">
        <ele>64.04852294921875</ele>
        <time>2026-08-27T12:02:52Z</time>
      </trkpt>
      <trkpt lat="39.913419501899625" lon="116.17750693584544">
        <ele>64.1480712890625</ele>
        <time>2026-08-27T12:02:55Z</time>
      </trkpt>
      <trkpt lat="39.91346461283964" lon="116.17756910064419">
        <ele>64.66455078125</ele>
        <time>2026-08-27T12:02:58Z</time>
      </trkpt>
      <trkpt lat="39.91374857173316" lon="116.17755302092027">
        <ele>65.41986083984375</ele>
        <time>2026-08-27T12:03:10Z</time>
      </trkpt>
      <trkpt lat="39.91402652906885" lon="116.17753593919787">
        <ele>66.4693603515625</ele>
        <time>2026-08-27T12:03:22Z</time>
      </trkpt>
      <trkpt lat="39.9143344851495" lon="116.17751885369556">
        <ele>67.638916015625</ele>
        <time>2026-08-27T12:03:37Z</time>
      </trkpt>
      <trkpt lat="39.91461644779581" lon="116.17750477971028">
        <ele>70.98504638671875</ele>
        <time>2026-08-27T12:03:49Z</time>
      </trkpt>
      <trkpt lat="39.914853368650014" lon="116.17746664538029">
        <ele>71.67071533203125</ele>
        <time>2026-08-27T12:04:01Z</time>
      </trkpt>
      <trkpt lat="39.91481157389147" lon="116.17702844742746">
        <ele>67.18438720703125</ele>
        <time>2026-08-27T12:04:19Z</time>
      </trkpt>
      <trkpt lat="39.91480746274609" lon="116.1769672798005">
        <ele>65.075927734375</ele>
        <time>2026-08-27T12:04:22Z</time>
      </trkpt>
      <trkpt lat="39.914765507488326" lon="116.17685908683414">
        <ele>66.1068115234375</ele>
        <time>2026-08-27T12:04:28Z</time>
      </trkpt>
      <trkpt lat="39.91477021070493" lon="116.17678112791613">
        <ele>66.54974365234375</ele>
        <time>2026-08-27T12:04:31Z</time>
      </trkpt>
      <trkpt lat="39.91498242281528" lon="116.17640069821663">
        <ele>80.1395263671875</ele>
        <time>2026-08-27T12:04:40Z</time>
      </trkpt>
      <trkpt lat="39.91503112421026" lon="116.176238244217">
        <ele>83.33599853515625</ele>
        <time>2026-08-27T12:04:46Z</time>
      </trkpt>
      <trkpt lat="39.91503244236511" lon="116.17586521446502">
        <ele>88.21002197265625</ele>
        <time>2026-08-27T12:04:58Z</time>
      </trkpt>
      <trkpt lat="39.91497667547823" lon="116.17544505995674">
        <ele>87.69036865234375</ele>
        <time>2026-08-27T12:05:13Z</time>
      </trkpt>
      <trkpt lat="39.91495854024671" lon="116.17537085690178">
        <ele>87.847900390625</ele>
        <time>2026-08-27T12:05:16Z</time>
      </trkpt>
      <trkpt lat="39.91496101784345" lon="116.17508606798856">
        <ele>94.73486328125</ele>
        <time>2026-08-27T12:05:22Z</time>
      </trkpt>
      <trkpt lat="39.91488731933326" lon="116.1747040179999">
        <ele>81.3062744140625</ele>
        <time>2026-08-27T12:05:43Z</time>
      </trkpt>
      <trkpt lat="39.914806217689595" lon="116.17464686961478">
        <ele>77.248779296875</ele>
        <time>2026-08-27T12:05:49Z</time>
      </trkpt>
      <trkpt lat="39.91456625911642" lon="116.17466394714639">
        <ele>77.28656005859375</ele>
        <time>2026-08-27T12:05:58Z</time>
      </trkpt>
      <trkpt lat="39.914450343242414" lon="116.17470708138889">
        <ele>74.56982421875</ele>
        <time>2026-08-27T12:06:04Z</time>
      </trkpt>
      <trkpt lat="39.91412836233167" lon="116.17471013029198">
        <ele>70.3214111328125</ele>
        <time>2026-08-27T12:06:19Z</time>
      </trkpt>
      <trkpt lat="39.914006231093296" lon="116.17463593977295">
        <ele>69.1663818359375</ele>
        <time>2026-08-27T12:06:25Z</time>
      </trkpt>
      <trkpt lat="39.91372826862259" lon="116.17465001374386">
        <ele>69.46612548828125</ele>
        <time>2026-08-27T12:06:40Z</time>
      </trkpt>
      <trkpt lat="39.91353730248773" lon="116.17466407675425">
        <ele>69.281005859375</ele>
        <time>2026-08-27T12:06:49Z</time>
      </trkpt>
      <trkpt lat="39.91344242443985" lon="116.17472826676642">
        <ele>68.54901123046875</ele>
        <time>2026-08-27T12:06:55Z</time>
      </trkpt>
      <trkpt lat="39.913402796348485" lon="116.17492983071106">
        <ele>66.6309814453125</ele>
        <time>2026-08-27T12:07:04Z</time>
      </trkpt>
      <trkpt lat="39.91340550274008" lon="116.17531489705388">
        <ele>67.27685546875</ele>
        <time>2026-08-27T12:07:19Z</time>
      </trkpt>
      <trkpt lat="39.913405103527595" lon="116.17564280420862">
        <ele>68.74981689453125</ele>
        <time>2026-08-27T12:07:31Z</time>
      </trkpt>
      <trkpt lat="39.9134983804015" lon="116.17579621648565">
        <ele>62.910888671875</ele>
        <time>2026-08-27T12:07:40Z</time>
      </trkpt>
      <trkpt lat="39.91353381352948" lon="116.17603386832498">
        <ele>61.6527099609375</ele>
        <time>2026-08-27T12:07:49Z</time>
      </trkpt>
      <trkpt lat="39.91351695535238" lon="116.17611108353852">
        <ele>61.8917236328125</ele>
        <time>2026-08-27T12:07:52Z</time>
      </trkpt>
      <trkpt lat="39.91342715149253" lon="116.17621638531321">
        <ele>62.837158203125</ele>
        <time>2026-08-27T12:07:58Z</time>
      </trkpt>
      <trkpt lat="39.91339188673369" lon="116.17661849787756">
        <ele>63.5438232421875</ele>
        <time>2026-08-27T12:08:13Z</time>
      </trkpt>
      <trkpt lat="39.91339059181343" lon="116.17700556289229">
        <ele>64.38873291015625</ele>
        <time>2026-08-27T12:08:28Z</time>
      </trkpt>
      <trkpt lat="39.91339017532487" lon="116.17732644432743">
        <ele>67.18017578125</ele>
        <time>2026-08-27T12:08:43Z</time>
      </trkpt>
      <trkpt lat="39.913434561330796" lon="116.17754002469353">
        <ele>70.74102783203125</ele>
        <time>2026-08-27T12:08:55Z</time>
      </trkpt>
      <trkpt lat="39.913505651139886" lon="116.17759115595926">
        <ele>69.92474365234375</ele>
        <time>2026-08-27T12:09:01Z</time>
      </trkpt>
      <trkpt lat="39.913600608916404" lon="116.17757008627906">
        <ele>70.359375</ele>
        <time>2026-08-27T12:09:07Z</time>
      </trkpt>
      <trkpt lat="39.913889574884145" lon="116.17755801692249">
        <ele>69.519287109375</ele>
        <time>2026-08-27T12:09:25Z</time>
      </trkpt>
      <trkpt lat="39.91419254573243" lon="116.17754895404939">
        <ele>69.361083984375</ele>
        <time>2026-08-27T12:09:43Z</time>
      </trkpt>
      <trkpt lat="39.914495447426695" lon="116.1775017866882">
        <ele>68.35284423828125</ele>
        <time>2026-08-27T12:10:01Z</time>
      </trkpt>
      <trkpt lat="39.91480239992358" lon="116.17748269580255">
        <ele>72.4715576171875</ele>
        <time>2026-08-27T12:10:19Z</time>
      </trkpt>
      <trkpt lat="39.9148602900591" lon="116.17742352622253">
        <ele>70.01806640625</ele>
        <time>2026-08-27T12:10:25Z</time>
      </trkpt>
      <trkpt lat="39.91483653452299" lon="116.17700738640498">
        <ele>72.52947998046875</ele>
        <time>2026-08-27T12:10:43Z</time>
      </trkpt>
      <trkpt lat="39.91483079683918" lon="116.17660227256228">
        <ele>71.52276611328125</ele>
        <time>2026-08-27T12:11:04Z</time>
      </trkpt>
      <trkpt lat="39.91492307564042" lon="116.17620917761461">
        <ele>77.071044921875</ele>
        <time>2026-08-27T12:11:25Z</time>
      </trkpt>
      <trkpt lat="39.914980437213195" lon="116.17586120993407">
        <ele>82.49090576171875</ele>
        <time>2026-08-27T12:11:43Z</time>
      </trkpt>
      <trkpt lat="39.91499806578893" lon="116.17565864797332">
        <ele>81.57373046875</ele>
        <time>2026-08-27T12:11:55Z</time>
      </trkpt>
      <trkpt lat="39.91493932043727" lon="116.17525052621528">
        <ele>77.4625244140625</ele>
        <time>2026-08-27T12:12:16Z</time>
      </trkpt>
      <trkpt lat="39.91488950349017" lon="116.17480429589293">
        <ele>76.667236328125</ele>
        <time>2026-08-27T12:12:34Z</time>
      </trkpt>
      <trkpt lat="39.914861419924954" lon="116.17475817148564">
        <ele>72.47430419921875</ele>
        <time>2026-08-27T12:12:37Z</time>
      </trkpt>
      <trkpt lat="39.91486729621744" lon="116.17469098435278">
        <ele>70.9136962890625</ele>
        <time>2026-08-27T12:12:40Z</time>
      </trkpt>
      <trkpt lat="39.91492132896072" lon="116.17471003040889">
        <ele>69.3663330078125</ele>
        <time>2026-08-27T12:12:43Z</time>
      </trkpt>
      <trkpt lat="39.91496742283953" lon="116.17476216925985">
        <ele>68.628173828125</ele>
        <time>2026-08-27T12:12:46Z</time>
      </trkpt>
      <trkpt lat="39.915129502617006" lon="116.17480927956835">
        <ele>64.770263671875</ele>
        <time>2026-08-27T12:12:55Z</time>
      </trkpt>
      <trkpt lat="39.9151744528323" lon="116.17478320159348">
        <ele>64.61212158203125</ele>
        <time>2026-08-27T12:12:58Z</time>
      </trkpt>
      <trkpt lat="39.915266432389565" lon="116.1747741649745">
        <ele>64.15826416015625</ele>
        <time>2026-08-27T12:13:04Z</time>
      </trkpt>
      <trkpt lat="39.91530718544126" lon="116.17518529938704">
        <ele>65.60186767578125</ele>
        <time>2026-08-27T12:13:22Z</time>
      </trkpt>
      <trkpt lat="39.9152980586974" lon="116.17566161851225">
        <ele>67.0638427734375</ele>
        <time>2026-08-27T12:13:40Z</time>
      </trkpt>
      <trkpt lat="39.915296812614905" lon="116.17607375705555">
        <ele>66.9149169921875</ele>
        <time>2026-08-27T12:13:55Z</time>
      </trkpt>
      <trkpt lat="39.91529654684445" lon="116.17647586591153">
        <ele>69.72650146484375</ele>
        <time>2026-08-27T12:14:10Z</time>
      </trkpt>
      <trkpt lat="39.915308315747865" lon="116.17689802650217">
        <ele>69.78900146484375</ele>
        <time>2026-08-27T12:14:25Z</time>
      </trkpt>
      <trkpt lat="39.91534797625589" lon="116.17726202174322">
        <ele>65.55322265625</ele>
        <time>2026-08-27T12:14:40Z</time>
      </trkpt>
      <trkpt lat="39.9153586786464" lon="116.17764908217858">
        <ele>64.00274658203125</ele>
        <time>2026-08-27T12:14:55Z</time>
      </trkpt>
      <trkpt lat="39.915360343734214" lon="116.17801608694747">
        <ele>67.6578369140625</ele>
        <time>2026-08-27T12:15:07Z</time>
      </trkpt>
      <trkpt lat="39.915367748077216" lon="116.17823969746392">
        <ele>66.81298828125</ele>
        <time>2026-08-27T12:15:16Z</time>
      </trkpt>
      <trkpt lat="39.91538889224065" lon="116.17831991399298">
        <ele>66.637451171875</ele>
        <time>2026-08-27T12:15:19Z</time>
      </trkpt>
      <trkpt lat="39.9154249831636" lon="116.17837104913964">
        <ele>65.904541015625</ele>
        <time>2026-08-27T12:15:22Z</time>
      </trkpt>
      <trkpt lat="39.915710925860736" lon="116.17834594469076">
        <ele>64.65411376953125</ele>
        <time>2026-08-27T12:15:37Z</time>
      </trkpt>
      <trkpt lat="39.916008848120576" lon="116.17830980859142">
        <ele>67.91387939453125</ele>
        <time>2026-08-27T12:15:52Z</time>
      </trkpt>
      <trkpt lat="39.916337810782046" lon="116.1782967315833">
        <ele>71.46435546875</ele>
        <time>2026-08-27T12:16:07Z</time>
      </trkpt>
      <trkpt lat="39.916395804729916" lon="116.17829471880643">
        <ele>70.61212158203125</ele>
        <time>2026-08-27T12:16:10Z</time>
      </trkpt>
      <trkpt lat="39.916340770770525" lon="116.17827467093467">
        <ele>65.58642578125</ele>
        <time>2026-08-27T12:16:16Z</time>
      </trkpt>
      <trkpt lat="39.916012784500225" lon="116.17827471220576">
        <ele>66.8763427734375</ele>
        <time>2026-08-27T12:16:31Z</time>
      </trkpt>
      <trkpt lat="39.91569984294033" lon="116.17829982007768">
        <ele>67.4195556640625</ele>
        <time>2026-08-27T12:16:46Z</time>
      </trkpt>
      <trkpt lat="39.915395026099986" lon="116.17839411589375">
        <ele>67.656005859375</ele>
        <time>2026-08-27T12:17:01Z</time>
      </trkpt>
      <trkpt lat="39.91535010227042" lon="116.17843523380532">
        <ele>67.8505859375</ele>
        <time>2026-08-27T12:17:04Z</time>
      </trkpt>
      <trkpt lat="39.91533722597892" lon="116.17850342156018">
        <ele>66.586669921875</ele>
        <time>2026-08-27T12:17:07Z</time>
      </trkpt>
      <trkpt lat="39.91537446880542" lon="116.17863878621682">
        <ele>65.62347412109375</ele>
        <time>2026-08-27T12:17:13Z</time>
      </trkpt>
      <trkpt lat="39.915392005086545" lon="116.17893659566448">
        <ele>66.70245361328125</ele>
        <time>2026-08-27T12:17:25Z</time>
      </trkpt>
      <trkpt lat="39.91536728242081" lon="116.17909001640992">
        <ele>67.640380859375</ele>
        <time>2026-08-27T12:17:31Z</time>
      </trkpt>
      <trkpt lat="39.91539768342027" lon="116.17931362069108">
        <ele>67.9957275390625</ele>
        <time>2026-08-27T12:17:40Z</time>
      </trkpt>
      <trkpt lat="39.91539793029078" lon="116.17945099388952">
        <ele>68.261962890625</ele>
        <time>2026-08-27T12:17:49Z</time>
      </trkpt>
      <trkpt lat="39.91545097489578" lon="116.17947705801816">
        <ele>67.14166259765625</ele>
        <time>2026-08-27T12:17:55Z</time>
      </trkpt>
      <trkpt lat="39.915590904180654" lon="116.17944094238297">
        <ele>66.3292236328125</ele>
        <time>2026-08-27T12:18:07Z</time>
      </trkpt>
      <trkpt lat="39.91563542456554" lon="116.1791752145535">
        <ele>65.36181640625</ele>
        <time>2026-08-27T12:18:25Z</time>
      </trkpt>
      <trkpt lat="39.91563626752566" lon="116.17908797711537">
        <ele>62.57061767578125</ele>
        <time>2026-08-27T12:18:31Z</time>
      </trkpt>
      <trkpt lat="39.91567594981299" lon="116.17891249440137">
        <ele>63.93658447265625</ele>
        <time>2026-08-27T12:18:43Z</time>
      </trkpt>
      <trkpt lat="39.915844854183376" lon="116.17886333931153">
        <ele>66.48681640625</ele>
        <time>2026-08-27T12:19:01Z</time>
      </trkpt>
      <trkpt lat="39.915844854183376" lon="116.17886333931153">
        <ele>66.48681640625</ele>
        <time>2026-08-27T12:19:03Z</time>
      </trkpt>
      <trkpt lat="39.91538732497315" lon="116.17967059126939">
        <ele>67.57806396484375</ele>
        <time>2026-08-27T12:26:28Z</time>
      </trkpt>
      <trkpt lat="39.915400755860425" lon="116.17991124195636">
        <ele>66.468505859375</ele>
        <time>2026-08-27T12:26:43Z</time>
      </trkpt>
      <trkpt lat="39.915449958515865" lon="116.18002554534142">
        <ele>67.15533447265625</ele>
        <time>2026-08-27T12:26:49Z</time>
      </trkpt>
      <trkpt lat="39.91546428983219" lon="116.18021104549236">
        <ele>66.29156494140625</ele>
        <time>2026-08-27T12:26:58Z</time>
      </trkpt>
      <trkpt lat="39.91553838353618" lon="116.18026518259136">
        <ele>66.20599365234375</ele>
        <time>2026-08-27T12:27:04Z</time>
      </trkpt>
      <trkpt lat="39.91583630112749" lon="116.18022603938623">
        <ele>64.786376953125</ele>
        <time>2026-08-27T12:27:22Z</time>
      </trkpt>
      <trkpt lat="39.91620131093945" lon="116.18024003144538">
        <ele>66.01885986328125</ele>
        <time>2026-08-27T12:27:43Z</time>
      </trkpt>
      <trkpt lat="39.91645524652493" lon="116.18020991816152">
        <ele>65.1519775390625</ele>
        <time>2026-08-27T12:27:58Z</time>
      </trkpt>
      <trkpt lat="39.91653526290244" lon="116.18022093792858">
        <ele>65.24517822265625</ele>
        <time>2026-08-27T12:28:04Z</time>
      </trkpt>
      <trkpt lat="39.916545430971425" lon="116.18031519148293">
        <ele>66.39697265625</ele>
        <time>2026-08-27T12:28:13Z</time>
      </trkpt>
      <trkpt lat="39.916518792043824" lon="116.18051673927853">
        <ele>66.02154541015625</ele>
        <time>2026-08-27T12:28:19Z</time>
      </trkpt>
      <trkpt lat="39.916523451472685" lon="116.18088673653186">
        <ele>66.19403076171875</ele>
        <time>2026-08-27T12:28:31Z</time>
      </trkpt>
      <trkpt lat="39.91654316212186" lon="116.18128681054444">
        <ele>68.08502197265625</ele>
        <time>2026-08-27T12:28:47Z</time>
      </trkpt>
      <trkpt lat="39.916543857464816" lon="116.18167886281343">
        <ele>67.59332275390625</ele>
        <time>2026-08-27T12:29:02Z</time>
      </trkpt>
      <trkpt lat="39.91655355765454" lon="116.18207492209422">
        <ele>67.52117919921875</ele>
        <time>2026-08-27T12:29:17Z</time>
      </trkpt>
      <trkpt lat="39.91658226216963" lon="116.18247498699101">
        <ele>66.8077392578125</ele>
        <time>2026-08-27T12:29:32Z</time>
      </trkpt>
      <trkpt lat="39.916585941044744" lon="116.18286101487982">
        <ele>64.2708740234375</ele>
        <time>2026-08-27T12:29:47Z</time>
      </trkpt>
      <trkpt lat="39.91661569766639" lon="116.18329315919107">
        <ele>63.42108154296875</ele>
        <time>2026-08-27T12:30:02Z</time>
      </trkpt>
      <trkpt lat="39.91661738123298" lon="116.18368419487294">
        <ele>62.91156005859375</ele>
        <time>2026-08-27T12:30:17Z</time>
      </trkpt>
      <trkpt lat="39.916590634249516" lon="116.18382857999765">
        <ele>63.575439453125</ele>
        <time>2026-08-27T12:30:23Z</time>
      </trkpt>
      <trkpt lat="39.91660783449472" lon="116.18394388243682">
        <ele>64.83209228515625</ele>
        <time>2026-08-27T12:30:29Z</time>
      </trkpt>
      <trkpt lat="39.91663730611513" lon="116.18421559553387">
        <ele>63.6787109375</ele>
        <time>2026-08-27T12:30:41Z</time>
      </trkpt>
      <trkpt lat="39.916610017207816" lon="116.18462467545196">
        <ele>59.7044677734375</ele>
        <time>2026-08-27T12:30:56Z</time>
      </trkpt>
      <trkpt lat="39.916608707521" lon="116.18502372257042">
        <ele>57.28155517578125</ele>
        <time>2026-08-27T12:31:11Z</time>
      </trkpt>
      <trkpt lat="39.9166139409128" lon="116.1851590763184">
        <ele>56.35369873046875</ele>
        <time>2026-08-27T12:31:17Z</time>
      </trkpt>
      <trkpt lat="39.91664403648128" lon="116.18521521944415">
        <ele>56.59014892578125</ele>
        <time>2026-08-27T12:31:20Z</time>
      </trkpt>
      <trkpt lat="39.91665116578962" lon="116.1852904151974">
        <ele>56.84222412109375</ele>
        <time>2026-08-27T12:31:23Z</time>
      </trkpt>
      <trkpt lat="39.91668723164442" lon="116.18532951288086">
        <ele>56.60235595703125</ele>
        <time>2026-08-27T12:31:26Z</time>
      </trkpt>
      <trkpt lat="39.916722689006875" lon="116.18559620474227">
        <ele>53.78839111328125</ele>
        <time>2026-08-27T12:31:38Z</time>
      </trkpt>
      <trkpt lat="39.91668489035334" lon="116.18571251268938">
        <ele>44.7552490234375</ele>
        <time>2026-08-27T12:31:44Z</time>
      </trkpt>
      <trkpt lat="39.91663100789606" lon="116.18577969445268">
        <ele>43.4320068359375</ele>
        <time>2026-08-27T12:31:47Z</time>
      </trkpt>
      <trkpt lat="39.91633417851071" lon="116.18587197186311">
        <ele>47.317138671875</ele>
        <time>2026-08-27T12:31:59Z</time>
      </trkpt>
      <trkpt lat="39.91599433020059" lon="116.18595222320566">
        <ele>55.76611328125</ele>
        <time>2026-08-27T12:32:11Z</time>
      </trkpt>
      <trkpt lat="39.915837410620775" lon="116.18599535501353">
        <ele>59.99530029296875</ele>
        <time>2026-08-27T12:32:17Z</time>
      </trkpt>
      <trkpt lat="39.91555541729576" lon="116.18599238259425">
        <ele>62.7779541015625</ele>
        <time>2026-08-27T12:32:29Z</time>
      </trkpt>
      <trkpt lat="39.91536242196165" lon="116.18599040160872">
        <ele>64.26739501953125</ele>
        <time>2026-08-27T12:32:38Z</time>
      </trkpt>
      <trkpt lat="39.91507935485056" lon="116.18594431720922">
        <ele>66.762939453125</ele>
        <time>2026-08-27T12:32:50Z</time>
      </trkpt>
      <trkpt lat="39.91478442392797" lon="116.1859774402777">
        <ele>64.02978515625</ele>
        <time>2026-08-27T12:33:05Z</time>
      </trkpt>
      <trkpt lat="39.91446644761352" lon="116.18598349583606">
        <ele>65.33428955078125</ele>
        <time>2026-08-27T12:33:20Z</time>
      </trkpt>
      <trkpt lat="39.91413946654112" lon="116.18598654470289">
        <ele>64.87554931640625</ele>
        <time>2026-08-27T12:33:35Z</time>
      </trkpt>
      <trkpt lat="39.91413946654112" lon="116.18598654470289">
        <ele>64.87554931640625</ele>
        <time>2026-08-27T12:33:41Z</time>
      </trkpt>
    </trkseg>
  </trk>
</gpx>