<?xml version="1.0" encoding="UTF-8"?>
<gpx xmlns="http://www.topografix.com/GPX/1/1" xmlns:gpxtpx="http://www.garmin.com/xmlschemas/TrackPointExtension/v1" xmlns:xsi="http://www.w3.org/2001/XMLSchema-instance" xsi:schemaLocation="http://www.topografix.com/GPX/1/1 http://www.topografix.com/GPX/1/1/gpx.xsd" version="1.1" creator="gpx.py -- https://github.com/tkrajina/gpxpy">
  <trk>
    <name>gpx from keep</name>
    <type>Ride</type>
    <trkseg>
      <trkpt lat="39.98591616134841" lon="116.25781559447475">
        <ele>39.6109619140625</ele>
        <time>2026-10-07T05:39:45Z</time>
      </trkpt>
      <trkpt lat="39.98585018947618" lon="116.25776862212963">
        <ele>39.8487548828125</ele>
        <time>2026-10-07T05:40:32Z</time>
      </trkpt>
      <trkpt lat="39.98579630001552" lon="116.25756671112575">
        <ele>38.9893798828125</ele>
        <time>2026-10-07T05:40:42Z</time>
      </trkpt>
      <trkpt lat="39.98571559327608" lon="116.25701193697748">
        <ele>36.52996826171875</ele>
        <time>2026-10-07T05:40:58Z</time>
      </trkpt>
      <trkpt lat="39.98561474342654" lon="116.25672405558319">
        <ele>36.380859375</ele>
        <time>2026-10-07T05:41:07Z</time>
      </trkpt>
      <trkpt lat="39.98541592786037" lon="116.25636820581227">
        <ele>36.887939453125</ele>
        <time>2026-10-07T05:41:17Z</time>
      </trkpt>
      <trkpt lat="39.98530500238886" lon="116.25622426861311">
        <ele>38.098388671875</ele>
        <time>2026-10-07T05:41:21Z</time>
      </trkpt>
      <trkpt lat="39.98521503933862" lon="116.2561553029329">
        <ele>38.72509765625</ele>
        <time>2026-10-07T05:41:25Z</time>
      </trkpt>
      <trkpt lat="39.98490826081456" lon="116.25571348361879">
        <ele>39.09490966796875</ele>
        <time>2026-10-07T05:41:35Z</time>
      </trkpt>
      <trkpt lat="39.984552461819035" lon="116.25530565090843">
        <ele>36.7320556640625</ele>
        <time>2026-10-07T05:41:48Z</time>
      </trkpt>
      <trkpt lat="39.98418867994951" lon="116.25484482526659">
        <ele>37.82952880859375</ele>
        <time>2026-10-07T05:42:00Z</time>
      </trkpt>
      <trkpt lat="39.983796845854776" lon="116.25449296553602">
        <ele>38.4326171875</ele>
        <time>2026-10-07T05:42:13Z</time>
      </trkpt>
      <trkpt lat="39.983413011287126" lon="116.25413010123181">
        <ele>38.0400390625</ele>
        <time>2026-10-07T05:42:24Z</time>
      </trkpt>
      <trkpt lat="39.98309719484844" lon="116.25370123598823">
        <ele>44.037353515625</ele>
        <time>2026-10-07T05:42:35Z</time>
      </trkpt>
      <trkpt lat="39.9827803801801" lon="116.25324936608362">
        <ele>41.13232421875</ele>
        <time>2026-10-07T05:42:47Z</time>
      </trkpt>
      <trkpt lat="39.98255460753474" lon="116.25264649925828">
        <ele>41.53436279296875</ele>
        <time>2026-10-07T05:43:01Z</time>
      </trkpt>
      <trkpt lat="39.98236779732378" lon="116.25211160054342">
        <ele>37.4539794921875</ele>
        <time>2026-10-07T05:43:13Z</time>
      </trkpt>
      <trkpt lat="39.98221095585463" lon="116.25163867713907">
        <ele>38.307373046875</ele>
        <time>2026-10-07T05:43:22Z</time>
      </trkpt>
      <trkpt lat="39.98200312336204" lon="116.2511137532479">
        <ele>40.02142333984375</ele>
        <time>2026-10-07T05:43:34Z</time>
      </trkpt>
      <trkpt lat="39.981796284300245" lon="116.25057481619753">
        <ele>42.76202392578125</ele>
        <time>2026-10-07T05:43:45Z</time>
      </trkpt>
      <trkpt lat="39.98164636951017" lon="116.25027884909221">
        <ele>39.11370849609375</ele>
        <time>2026-10-07T05:43:52Z</time>
      </trkpt>
      <trkpt lat="39.98147850902968" lon="116.2497518844184">
        <ele>38.1024169921875</ele>
        <time>2026-10-07T05:44:02Z</time>
      </trkpt>
      <trkpt lat="39.981263632197255" lon="116.24925991204016">
        <ele>40.4044189453125</ele>
        <time>2026-10-07T05:44:15Z</time>
      </trkpt>
      <trkpt lat="39.98104476305648" lon="116.24868592489665">
        <ele>42.524169921875</ele>
        <time>2026-10-07T05:45:04Z</time>
      </trkpt>
      <trkpt lat="39.980910887866" lon="116.24805690671131">
        <ele>44.27276611328125</ele>
        <time>2026-10-07T05:45:16Z</time>
      </trkpt>
      <trkpt lat="39.98079098391481" lon="116.24751287540151">
        <ele>40.27886962890625</ele>
        <time>2026-10-07T05:45:29Z</time>
      </trkpt>
      <trkpt lat="39.9806560746787" lon="116.24692982605931">
        <ele>37.497314453125</ele>
        <time>2026-10-07T05:45:39Z</time>
      </trkpt>
      <trkpt lat="39.980494157269185" lon="116.24631475783988">
        <ele>36.2021484375</ele>
        <time>2026-10-07T05:45:52Z</time>
      </trkpt>
      <trkpt lat="39.9803462238949" lon="116.24571167103866">
        <ele>40.6759033203125</ele>
        <time>2026-10-07T05:46:02Z</time>
      </trkpt>
      <trkpt lat="39.980186278015104" lon="116.24509656469853">
        <ele>39.44720458984375</ele>
        <time>2026-10-07T05:46:14Z</time>
      </trkpt>
      <trkpt lat="39.98004231684647" lon="116.2444884389952">
        <ele>39.64874267578125</ele>
        <time>2026-10-07T05:46:26Z</time>
      </trkpt>
      <trkpt lat="39.97991734044598" lon="116.24390229842297">
        <ele>38.31072998046875</ele>
        <time>2026-10-07T05:46:38Z</time>
      </trkpt>
      <trkpt lat="39.97978835122" lon="116.24335715368191">
        <ele>38.3214111328125</ele>
        <time>2026-10-07T05:46:48Z</time>
      </trkpt>
      <trkpt lat="39.97964735065991" lon="116.24278598664651">
        <ele>38.62054443359375</ele>
        <time>2026-10-07T05:46:59Z</time>
      </trkpt>
      <trkpt lat="39.97953433319372" lon="116.24213877162349">
        <ele>41.73797607421875</ele>
        <time>2026-10-07T05:47:12Z</time>
      </trkpt>
      <trkpt lat="39.979448311862235" lon="116.2416866097291">
        <ele>43.98822021484375</ele>
        <time>2026-10-07T05:47:23Z</time>
      </trkpt>
      <trkpt lat="39.97941430770632" lon="116.24160158035258">
        <ele>40.182861328125</ele>
        <time>2026-10-07T05:47:25Z</time>
      </trkpt>
      <trkpt lat="39.97933530724298" lon="116.24154756865342">
        <ele>40.22149658203125</ele>
        <time>2026-10-07T05:47:56Z</time>
      </trkpt>
      <trkpt lat="39.97886132883203" lon="116.24158364210197">
        <ele>40.96435546875</ele>
        <time>2026-10-07T05:48:11Z</time>
      </trkpt>
      <trkpt lat="39.97839435728493" lon="116.2417327591144">
        <ele>40.0838623046875</ele>
        <time>2026-10-07T05:48:25Z</time>
      </trkpt>
      <trkpt lat="39.97790638327863" lon="116.24183886108503">
        <ele>41.60986328125</ele>
        <time>2026-10-07T05:48:38Z</time>
      </trkpt>
      <trkpt lat="39.97742640850504" lon="116.24194496148914">
        <ele>43.51544189453125</ele>
        <time>2026-10-07T05:48:50Z</time>
      </trkpt>
      <trkpt lat="39.976962430780624" lon="116.24201404542409">
        <ele>42.1995849609375</ele>
        <time>2026-10-07T05:49:03Z</time>
      </trkpt>
      <trkpt lat="39.97657544932823" lon="116.24207411616096">
        <ele>44.22198486328125</ele>
        <time>2026-10-07T05:49:13Z</time>
      </trkpt>
      <trkpt lat="39.97631146439438" lon="116.24216918433243">
        <ele>42.94720458984375</ele>
        <time>2026-10-07T05:49:21Z</time>
      </trkpt>
      <trkpt lat="39.97585748657005" lon="116.24226027426391">
        <ele>42.421630859375</ele>
        <time>2026-10-07T05:49:34Z</time>
      </trkpt>
      <trkpt lat="39.97540550771875" lon="116.24233535776399">
        <ele>42.630859375</ele>
        <time>2026-10-07T05:49:47Z</time>
      </trkpt>
      <trkpt lat="39.975138520500096" lon="116.24239041078361">
        <ele>43.1319580078125</ele>
        <time>2026-10-07T05:49:53Z</time>
      </trkpt>
      <trkpt lat="39.974725539076665" lon="116.24244748255">
        <ele>41.94140625</ele>
        <time>2026-10-07T05:50:03Z</time>
      </trkpt>
      <trkpt lat="39.97462754412238" lon="116.24248050644303">
        <ele>41.414306640625</ele>
        <time>2026-10-07T05:50:06Z</time>
      </trkpt>
      <trkpt lat="39.97429855900419" lon="116.24253356608152">
        <ele>42.9554443359375</ele>
        <time>2026-10-07T05:50:14Z</time>
      </trkpt>
      <trkpt lat="39.973781582818376" lon="116.24264066770884">
        <ele>40.7701416015625</ele>
        <time>2026-10-07T05:50:26Z</time>
      </trkpt>
      <trkpt lat="39.97345459717809" lon="116.24268972529735">
        <ele>38.9478759765625</ele>
        <time>2026-10-07T05:50:34Z</time>
      </trkpt>
      <trkpt lat="39.97312061272157" lon="116.24278279855334">
        <ele>41.00958251953125</ele>
        <time>2026-10-07T05:50:42Z</time>
      </trkpt>
      <trkpt lat="39.97278662730124" lon="116.24284286034735">
        <ele>38.15631103515625</ele>
        <time>2026-10-07T05:50:50Z</time>
      </trkpt>
      <trkpt lat="39.972272648559226" lon="116.24288293773522">
        <ele>36.98211669921875</ele>
        <time>2026-10-07T05:51:03Z</time>
      </trkpt>
      <trkpt lat="39.97219965164923" lon="116.24289295015535">
        <ele>36.33740234375</ele>
        <time>2026-10-07T05:51:05Z</time>
      </trkpt>
      <trkpt lat="39.97209965521646" lon="116.24286995495535">
        <ele>37.4676513671875</ele>
        <time>2026-10-07T05:51:08Z</time>
      </trkpt>
      <trkpt lat="39.97205065509229" lon="116.24276892711626">
        <ele>37.4197998046875</ele>
        <time>2026-10-07T05:51:11Z</time>
      </trkpt>
      <trkpt lat="39.972088642112816" lon="116.24238378826375">
        <ele>38.90972900390625</ele>
        <time>2026-10-07T05:51:19Z</time>
      </trkpt>
      <trkpt lat="39.97205362341746" lon="116.24194162940852">
        <ele>37.88916015625</ele>
        <time>2026-10-07T05:51:27Z</time>
      </trkpt>
      <trkpt lat="39.972089602751346" lon="116.24162050019972">
        <ele>38.59234619140625</ele>
        <time>2026-10-07T05:51:33Z</time>
      </trkpt>
      <trkpt lat="39.97208155433797" lon="116.24099424299">
        <ele>37.25396728515625</ele>
        <time>2026-10-07T05:51:45Z</time>
      </trkpt>
      <trkpt lat="39.972116496997764" lon="116.24043599179116">
        <ele>38.433837890625</ele>
        <time>2026-10-07T05:51:56Z</time>
      </trkpt>
      <trkpt lat="39.9720724730984" lon="116.24021289423168">
        <ele>38.13055419921875</ele>
        <time>2026-10-07T05:52:00Z</time>
      </trkpt>
      <trkpt lat="39.972061387459526" lon="116.23955857894767">
        <ele>39.99188232421875</ele>
        <time>2026-10-07T05:52:12Z</time>
      </trkpt>
      <trkpt lat="39.97204629387357" lon="116.23895226816632">
        <ele>40.34979248046875</ele>
        <time>2026-10-07T05:52:24Z</time>
      </trkpt>
      <trkpt lat="39.972033181022596" lon="116.23831792290764">
        <ele>39.3787841796875</ele>
        <time>2026-10-07T05:52:36Z</time>
      </trkpt>
      <trkpt lat="39.97202705081083" lon="116.23767455121839">
        <ele>39.8118896484375</ele>
        <time>2026-10-07T05:52:48Z</time>
      </trkpt>
      <trkpt lat="39.97203290480206" lon="116.23703215791325">
        <ele>37.9427490234375</ele>
        <time>2026-10-07T05:53:00Z</time>
      </trkpt>
      <trkpt lat="39.972032852275646" lon="116.23681602119363">
        <ele>38.0020751953125</ele>
        <time>2026-10-07T05:53:04Z</time>
      </trkpt>
      <trkpt lat="39.97205381696314" lon="116.23667793000506">
        <ele>38.248046875</ele>
        <time>2026-10-07T05:53:07Z</time>
      </trkpt>
      <trkpt lat="39.97203676041942" lon="116.23645478698228">
        <ele>40.188232421875</ele>
        <time>2026-10-07T05:53:11Z</time>
      </trkpt>
      <trkpt lat="39.97204869465486" lon="116.23620862249074">
        <ele>38.37078857421875</ele>
        <time>2026-10-07T05:53:17Z</time>
      </trkpt>
      <trkpt lat="39.97203052516624" lon="116.23560321100803">
        <ele>38.41436767578125</ele>
        <time>2026-10-07T05:53:27Z</time>
      </trkpt>
      <trkpt lat="39.97205040216244" lon="116.23519591991568">
        <ele>38.595703125</ele>
        <time>2026-10-07T05:53:35Z</time>
      </trkpt>
      <trkpt lat="39.972083196168505" lon="116.23455544529966">
        <ele>39.8282470703125</ele>
        <time>2026-10-07T05:53:49Z</time>
      </trkpt>
      <trkpt lat="39.97206596978454" lon="116.23389494089145">
        <ele>39.96417236328125</ele>
        <time>2026-10-07T05:54:03Z</time>
      </trkpt>
      <trkpt lat="39.97204875831118" lon="116.23331648167743">
        <ele>41.865478515625</ele>
        <time>2026-10-07T05:54:15Z</time>
      </trkpt>
      <trkpt lat="39.97204063740475" lon="116.23300022346979">
        <ele>41.888427734375</ele>
        <time>2026-10-07T05:54:21Z</time>
      </trkpt>
      <trkpt lat="39.97208251762286" lon="116.23270096843319">
        <ele>41.9932861328125</ele>
        <time>2026-10-07T05:54:27Z</time>
      </trkpt>
      <trkpt lat="39.972093293401514" lon="116.23215550039866">
        <ele>41.91064453125</ele>
        <time>2026-10-07T05:54:38Z</time>
      </trkpt>
      <trkpt lat="39.97207202589575" lon="116.2315339534668">
        <ele>39.72784423828125</ele>
        <time>2026-10-07T05:54:49Z</time>
      </trkpt>
      <trkpt lat="39.97204782951427" lon="116.23109655839559">
        <ele>40.6263427734375</ele>
        <time>2026-10-07T05:54:56Z</time>
      </trkpt>
      <trkpt lat="39.9720137773088" lon="116.23098045539929">
        <ele>41.2789306640625</ele>
        <time>2026-10-07T05:54:59Z</time>
      </trkpt>
      <trkpt lat="39.972073500691806" lon="116.23040190378927">
        <ele>40.754150390625</ele>
        <time>2026-10-07T05:55:12Z</time>
      </trkpt>
      <trkpt lat="39.972073333177036" lon="116.2300605751271">
        <ele>42.2239990234375</ele>
        <time>2026-10-07T05:55:19Z</time>
      </trkpt>
      <trkpt lat="39.97209409295835" lon="116.22958710725416">
        <ele>40.50787353515625</ele>
        <time>2026-10-07T05:55:28Z</time>
      </trkpt>
      <trkpt lat="39.97207879855027" lon="116.22902454221118">
        <ele>39.5870361328125</ele>
        <time>2026-10-07T05:55:38Z</time>
      </trkpt>
      <trkpt lat="39.97205861804682" lon="116.2286891995034">
        <ele>39.240966796875</ele>
        <time>2026-10-07T05:55:44Z</time>
      </trkpt>
      <trkpt lat="39.97207750323154" lon="116.22848198112085">
        <ele>38.634033203125</ele>
        <time>2026-10-07T05:55:48Z</time>
      </trkpt>
      <trkpt lat="39.97205418035002" lon="116.22790837527081">
        <ele>38.84869384765625</ele>
        <time>2026-10-07T05:55:58Z</time>
      </trkpt>
      <trkpt lat="39.97207981444403" lon="116.22728569339976">
        <ele>39.45648193359375</ele>
        <time>2026-10-07T05:56:10Z</time>
      </trkpt>
      <trkpt lat="39.97207044473463" lon="116.22667701327465">
        <ele>40.34197998046875</ele>
        <time>2026-10-07T05:56:22Z</time>
      </trkpt>
      <trkpt lat="39.97206224686736" lon="116.2263596520912">
        <ele>40.017822265625</ele>
        <time>2026-10-07T05:56:28Z</time>
      </trkpt>
      <trkpt lat="39.97208684921578" lon="116.22574092916318">
        <ele>38.94024658203125</ele>
        <time>2026-10-07T05:56:41Z</time>
      </trkpt>
      <trkpt lat="39.9720745040991" lon="116.22521830857863">
        <ele>40.3665771484375</ele>
        <time>2026-10-07T05:56:51Z</time>
      </trkpt>
      <trkpt lat="39.97207308739617" lon="116.22460656424244">
        <ele>42.37774658203125</ele>
        <time>2026-10-07T05:57:02Z</time>
      </trkpt>
      <trkpt lat="39.97206568563704" lon="116.22403385229563">
        <ele>42.20928955078125</ele>
        <time>2026-10-07T05:57:13Z</time>
      </trkpt>
      <trkpt lat="39.97205635145397" lon="116.22356926395695">
        <ele>42.27392578125</ele>
        <time>2026-10-07T05:57:23Z</time>
      </trkpt>
      <trkpt lat="39.97204128336294" lon="116.22347514519032">
        <ele>42.2855224609375</ele>
        <time>2026-10-07T05:57:25Z</time>
      </trkpt>
      <trkpt lat="39.97197925063897" lon="116.22342709116587">
        <ele>41.4820556640625</ele>
        <time>2026-10-07T05:57:27Z</time>
      </trkpt>
      <trkpt lat="39.971830260977015" lon="116.22343311748449">
        <ele>41.28765869140625</ele>
        <time>2026-10-07T05:57:31Z</time>
      </trkpt>
      <trkpt lat="39.97176322691007" lon="116.22338306141081">
        <ele>41.43096923828125</ele>
        <time>2026-10-07T05:57:34Z</time>
      </trkpt>
      <trkpt lat="39.97174498747719" lon="116.22305864331153">
        <ele>42.700439453125</ele>
        <time>2026-10-07T05:57:47Z</time>
      </trkpt>
      <trkpt lat="39.97168191662971" lon="116.22296052307321">
        <ele>43.14141845703125</ele>
        <time>2026-10-07T05:57:50Z</time>
      </trkpt>
      <trkpt lat="39.97153490071055" lon="116.22293150342496">
        <ele>42.7735595703125</ele>
        <time>2026-10-07T05:57:54Z</time>
      </trkpt>
      <trkpt lat="39.971459920965025" lon="116.22295454291917">
        <ele>42.44580078125</ele>
        <time>2026-10-07T05:57:56Z</time>
      </trkpt>
      <trkpt lat="39.97113694657008" lon="116.22297160548355">
        <ele>42.58563232421875</ele>
        <time>2026-10-07T05:58:04Z</time>
      </trkpt>
      <trkpt lat="39.97069300018029" lon="116.22301972366145">
        <ele>43.68646240234375</ele>
        <time>2026-10-07T05:58:16Z</time>
      </trkpt>
      <trkpt lat="39.97025401613139" lon="116.22301777582747">
        <ele>44.802001953125</ele>
        <time>2026-10-07T05:58:28Z</time>
      </trkpt>
      <trkpt lat="39.96979808056833" lon="116.22307991365587">
        <ele>45.773193359375</ele>
        <time>2026-10-07T05:58:40Z</time>
      </trkpt>
      <trkpt lat="39.96935113855084" lon="116.22313403977165">
        <ele>46.49267578125</ele>
        <time>2026-10-07T05:58:52Z</time>
      </trkpt>
      <trkpt lat="39.968827145191014" lon="116.22311508041857">
        <ele>45.602783203125</ele>
        <time>2026-10-07T05:59:05Z</time>
      </trkpt>
      <trkpt lat="39.96849512031958" lon="116.22306405536885">
        <ele>44.80804443359375</ele>
        <time>2026-10-07T05:59:14Z</time>
      </trkpt>
      <trkpt lat="39.968047143298946" lon="116.22307112039644">
        <ele>45.28094482421875</ele>
        <time>2026-10-07T05:59:24Z</time>
      </trkpt>
      <trkpt lat="39.967598151376215" lon="116.22305815945765">
        <ele>44.61236572265625</ele>
        <time>2026-10-07T05:59:34Z</time>
      </trkpt>
      <trkpt lat="39.96724918236151" lon="116.22308123299966">
        <ele>44.77630615234375</ele>
        <time>2026-10-07T05:59:43Z</time>
      </trkpt>
      <trkpt lat="39.96706317554118" lon="116.22306223142554">
        <ele>44.88525390625</ele>
        <time>2026-10-07T05:59:48Z</time>
      </trkpt>
      <trkpt lat="39.9665651803014" lon="116.22304226745462">
        <ele>46.6385498046875</ele>
        <time>2026-10-07T06:00:01Z</time>
      </trkpt>
      <trkpt lat="39.96609613594016" lon="116.22295821613613">
        <ele>46.51666259765625</ele>
        <time>2026-10-07T06:00:13Z</time>
      </trkpt>
      <trkpt lat="39.96585513195437" lon="116.22294022262545">
        <ele>47.14630126953125</ele>
        <time>2026-10-07T06:00:19Z</time>
      </trkpt>
      <trkpt lat="39.96543015100033" lon="116.22294327957788">
        <ele>46.84521484375</ele>
        <time>2026-10-07T06:00:29Z</time>
      </trkpt>
      <trkpt lat="39.964926209154946" lon="116.2229944092103">
        <ele>46.165283203125</ele>
        <time>2026-10-07T06:00:41Z</time>
      </trkpt>
      <trkpt lat="39.96450421682342" lon="116.22298244615887">
        <ele>46.80859375</ele>
        <time>2026-10-07T06:00:52Z</time>
      </trkpt>
      <trkpt lat="39.96401524810849" lon="116.22299852808797">
        <ele>47.38385009765625</ele>
        <time>2026-10-07T06:01:05Z</time>
      </trkpt>
      <trkpt lat="39.963531262706375" lon="116.22299258061882">
        <ele>47.79376220703125</ele>
        <time>2026-10-07T06:01:18Z</time>
      </trkpt>
      <trkpt lat="39.96305427552085" lon="116.22298462965736">
        <ele>47.3709716796875</ele>
        <time>2026-10-07T06:01:30Z</time>
      </trkpt>
      <trkpt lat="39.962658302368304" lon="116.2229996986724">
        <ele>47.7581787109375</ele>
        <time>2026-10-07T06:01:40Z</time>
      </trkpt>
      <trkpt lat="39.96222328802499" lon="116.22295769797856">
        <ele>47.8299560546875</ele>
        <time>2026-10-07T06:01:53Z</time>
      </trkpt>
      <trkpt lat="39.96191027707777" lon="116.22292669640701">
        <ele>46.69390869140625</ele>
        <time>2026-10-07T06:02:07Z</time>
      </trkpt>
      <trkpt lat="39.961482320215076" lon="116.22296179564529">
        <ele>46.54718017578125</ele>
        <time>2026-10-07T06:02:19Z</time>
      </trkpt>
      <trkpt lat="39.9611693107689" lon="116.22293279669982">
        <ele>46.46148681640625</ele>
        <time>2026-10-07T06:02:27Z</time>
      </trkpt>
      <trkpt lat="39.96094536460052" lon="116.2229929031902">
        <ele>46.0372314453125</ele>
        <time>2026-10-07T06:02:33Z</time>
      </trkpt>
      <trkpt lat="39.96047135626675" lon="116.2229569152019">
        <ele>47.6768798828125</ele>
        <time>2026-10-07T06:02:45Z</time>
      </trkpt>
      <trkpt lat="39.959977390709106" lon="116.22297700299653">
        <ele>50.98779296875</ele>
        <time>2026-10-07T06:02:58Z</time>
      </trkpt>
      <trkpt lat="39.959602386709996" lon="116.22295201704121">
        <ele>48.80218505859375</ele>
        <time>2026-10-07T06:03:08Z</time>
      </trkpt>
      <trkpt lat="39.95913346883458" lon="116.2230371866891">
        <ele>46.82330322265625</ele>
        <time>2026-10-07T06:03:20Z</time>
      </trkpt>
      <trkpt lat="39.959053457021575" lon="116.22301717054313">
        <ele>46.47760009765625</ele>
        <time>2026-10-07T06:03:22Z</time>
      </trkpt>
      <trkpt lat="39.95860147330209" lon="116.22301522430251">
        <ele>48.19427490234375</ele>
        <time>2026-10-07T06:03:34Z</time>
      </trkpt>
      <trkpt lat="39.958153488673844" lon="116.22301227625493">
        <ele>49.90972900390625</ele>
        <time>2026-10-07T06:03:46Z</time>
      </trkpt>
      <trkpt lat="39.957668484522706" lon="116.2229812962065">
        <ele>48.72698974609375</ele>
        <time>2026-10-07T06:03:58Z</time>
      </trkpt>
      <trkpt lat="39.95716749747081" lon="116.22297234691055">
        <ele>47.13018798828125</ele>
        <time>2026-10-07T06:04:10Z</time>
      </trkpt>
      <trkpt lat="39.95664249334221" lon="116.222939369171">
        <ele>48.877685546875</ele>
        <time>2026-10-07T06:04:24Z</time>
      </trkpt>
      <trkpt lat="39.956168486417226" lon="116.22290538370842">
        <ele>47.2916259765625</ele>
        <time>2026-10-07T06:04:37Z</time>
      </trkpt>
      <trkpt lat="39.955703457988484" lon="116.22284336027786">
        <ele>49.677734375</ele>
        <time>2026-10-07T06:04:49Z</time>
      </trkpt>
      <trkpt lat="39.95526144742395" lon="116.22280636672401">
        <ele>48.16790771484375</ele>
        <time>2026-10-07T06:05:01Z</time>
      </trkpt>
      <trkpt lat="39.954744414761414" lon="116.22273633893874">
        <ele>47.05950927734375</ele>
        <time>2026-10-07T06:05:16Z</time>
      </trkpt>
      <trkpt lat="39.95429438765949" lon="116.22267731711992">
        <ele>48.031494140625</ele>
        <time>2026-10-07T06:05:29Z</time>
      </trkpt>
      <trkpt lat="39.95382534974786" lon="116.2226032776295">
        <ele>46.3626708984375</ele>
        <time>2026-10-07T06:05:42Z</time>
      </trkpt>
      <trkpt lat="39.953304374799316" lon="116.22260935054985">
        <ele>47.0948486328125</ele>
        <time>2026-10-07T06:05:55Z</time>
      </trkpt>
      <trkpt lat="39.95320538478893" lon="116.22261737349632">
        <ele>46.74761962890625</ele>
        <time>2026-10-07T06:05:58Z</time>
      </trkpt>
      <trkpt lat="39.95271435217845" lon="116.22254934451323">
        <ele>46.0928955078125</ele>
        <time>2026-10-07T06:06:12Z</time>
      </trkpt>
      <trkpt lat="39.95229133666429" lon="116.22250734143537">
        <ele>48.52130126953125</ele>
        <time>2026-10-07T06:06:24Z</time>
      </trkpt>
      <trkpt lat="39.95185932374669" lon="116.2224683433939">
        <ele>51.35260009765625</ele>
        <time>2026-10-07T06:06:37Z</time>
      </trkpt>
      <trkpt lat="39.95135731583659" lon="116.22243235801088">
        <ele>52.57293701171875</ele>
        <time>2026-10-07T06:06:49Z</time>
      </trkpt>
      <trkpt lat="39.95081430102687" lon="116.22238536298994">
        <ele>54.40655517578125</ele>
        <time>2026-10-07T06:07:02Z</time>
      </trkpt>
      <trkpt lat="39.9502972495818" lon="116.22229230303617">
        <ele>54.12237548828125</ele>
        <time>2026-10-07T06:07:15Z</time>
      </trkpt>
      <trkpt lat="39.94980823552893" lon="116.2222493063467">
        <ele>50.38531494140625</ele>
        <time>2026-10-07T06:07:28Z</time>
      </trkpt>
      <trkpt lat="39.949348217169536" lon="116.22220230058004">
        <ele>50.24554443359375</ele>
        <time>2026-10-07T06:07:41Z</time>
      </trkpt>
      <trkpt lat="39.948834217196584" lon="116.22217632970452">
        <ele>51.5712890625</ele>
        <time>2026-10-07T06:07:56Z</time>
      </trkpt>
      <trkpt lat="39.948744207518075" lon="116.22215931804975">
        <ele>51.92523193359375</ele>
        <time>2026-10-07T06:07:59Z</time>
      </trkpt>
      <trkpt lat="39.94857021825679" lon="116.22216434647332">
        <ele>50.22882080078125</ele>
        <time>2026-10-07T06:08:04Z</time>
      </trkpt>
      <trkpt lat="39.948280186061496" lon="116.22210830719331">
        <ele>52.34375</ele>
        <time>2026-10-07T06:08:12Z</time>
      </trkpt>
      <trkpt lat="39.94808519139993" lon="116.22210532745996">
        <ele>49.7862548828125</ele>
        <time>2026-10-07T06:08:18Z</time>
      </trkpt>
      <trkpt lat="39.94781316463842" lon="116.22205729659115">
        <ele>50.30218505859375</ele>
        <time>2026-10-07T06:08:27Z</time>
      </trkpt>
      <trkpt lat="39.94735016332669" lon="116.22203232053378">
        <ele>50.50335693359375</ele>
        <time>2026-10-07T06:08:42Z</time>
      </trkpt>
      <trkpt lat="39.9469111461658" lon="116.2219883157401">
        <ele>50.29913330078125</ele>
        <time>2026-10-07T06:08:54Z</time>
      </trkpt>
      <trkpt lat="39.9464441135466" lon="116.22192328586496">
        <ele>50.32318115234375</ele>
        <time>2026-10-07T06:09:06Z</time>
      </trkpt>
      <trkpt lat="39.945919098835745" lon="116.22187829021344">
        <ele>49.06329345703125</ele>
        <time>2026-10-07T06:09:21Z</time>
      </trkpt>
      <trkpt lat="39.945642060069765" lon="116.22181523904693">
        <ele>46.1962890625</ele>
        <time>2026-10-07T06:09:29Z</time>
      </trkpt>
      <trkpt lat="39.945484067092" lon="116.22181626010614">
        <ele>46.22344970703125</ele>
        <time>2026-10-07T06:09:33Z</time>
      </trkpt>
      <trkpt lat="39.945028030506975" lon="116.2217472228879">
        <ele>49.598388671875</ele>
        <time>2026-10-07T06:09:45Z</time>
      </trkpt>
      <trkpt lat="39.944524031379444" lon="116.22172325294942">
        <ele>49.59576416015625</ele>
        <time>2026-10-07T06:09:59Z</time>
      </trkpt>
      <trkpt lat="39.94402200435831" lon="116.22166423486019">
        <ele>49.9146728515625</ele>
        <time>2026-10-07T06:10:12Z</time>
      </trkpt>
      <trkpt lat="39.94363400378021" lon="116.221644255847">
        <ele>49.39019775390625</ele>
        <time>2026-10-07T06:10:22Z</time>
      </trkpt>
      <trkpt lat="39.94319998429551" lon="116.2215982469022">
        <ele>51.814453125</ele>
        <time>2026-10-07T06:10:34Z</time>
      </trkpt>
      <trkpt lat="39.942736982660946" lon="116.2215732703137">
        <ele>53.46514892578125</ele>
        <time>2026-10-07T06:10:46Z</time>
      </trkpt>
      <trkpt lat="39.942242988631456" lon="116.22155630854994">
        <ele>52.32574462890625</ele>
        <time>2026-10-07T06:10:59Z</time>
      </trkpt>
      <trkpt lat="39.9417560015178" lon="116.22154835826626">
        <ele>54.03875732421875</ele>
        <time>2026-10-07T06:11:13Z</time>
      </trkpt>
      <trkpt lat="39.94124700089238" lon="116.22152238597691">
        <ele>54.2322998046875</ele>
        <time>2026-10-07T06:11:27Z</time>
      </trkpt>
      <trkpt lat="39.940780020199085" lon="116.22152344556267">
        <ele>53.92974853515625</ele>
        <time>2026-10-07T06:11:42Z</time>
      </trkpt>
      <trkpt lat="39.94034405587419" lon="116.22154653152128">
        <ele>54.608642578125</ele>
        <time>2026-10-07T06:11:54Z</time>
      </trkpt>
      <trkpt lat="39.940010053136575" lon="116.22152654566396">
        <ele>49.6055908203125</ele>
        <time>2026-10-07T06:12:08Z</time>
      </trkpt>
      <trkpt lat="39.939549092215834" lon="116.22155263885443">
        <ele>49.5677490234375</ele>
        <time>2026-10-07T06:12:23Z</time>
      </trkpt>
      <trkpt lat="39.93909208478579" lon="116.22152065183369">
        <ele>49.22149658203125</ele>
        <time>2026-10-07T06:12:35Z</time>
      </trkpt>
      <trkpt lat="39.93863305737528" lon="116.22146363058621">
        <ele>50.18505859375</ele>
        <time>2026-10-07T06:12:48Z</time>
      </trkpt>
      <trkpt lat="39.93824102478873" lon="116.22140359669862">
        <ele>50.14898681640625</ele>
        <time>2026-10-07T06:13:00Z</time>
      </trkpt>
      <trkpt lat="39.937967030865565" lon="116.22139762256502">
        <ele>52.340087890625</ele>
        <time>2026-10-07T06:13:09Z</time>
      </trkpt>
      <trkpt lat="39.93751394972992" lon="116.22127450885189">
        <ele>49.296142578125</ele>
        <time>2026-10-07T06:13:21Z</time>
      </trkpt>
      <trkpt lat="39.93714093546453" lon="116.22123850540333">
        <ele>51.7701416015625</ele>
        <time>2026-10-07T06:13:31Z</time>
      </trkpt>
      <trkpt lat="39.936703863622384" lon="116.22112840691852">
        <ele>50.5992431640625</ele>
        <time>2026-10-07T06:13:42Z</time>
      </trkpt>
      <trkpt lat="39.93625181484301" lon="116.22104634887789">
        <ele>49.729736328125</ele>
        <time>2026-10-07T06:13:54Z</time>
      </trkpt>
      <trkpt lat="39.9357677531992" lon="116.22094727070694">
        <ele>50.8841552734375</ele>
        <time>2026-10-07T06:14:06Z</time>
      </trkpt>
      <trkpt lat="39.93525266035905" lon="116.22080914110037">
        <ele>51.21563720703125</ele>
        <time>2026-10-07T06:14:19Z</time>
      </trkpt>
      <trkpt lat="39.93478559147632" lon="116.22070304986282">
        <ele>48.8900146484375</ele>
        <time>2026-10-07T06:14:32Z</time>
      </trkpt>
      <trkpt lat="39.93455653596734" lon="116.2206249681133">
        <ele>48.6424560546875</ele>
        <time>2026-10-07T06:14:38Z</time>
      </trkpt>
      <trkpt lat="39.93404950138152" lon="116.2205589377635">
        <ele>48.9053955078125</ele>
        <time>2026-10-07T06:14:51Z</time>
      </trkpt>
      <trkpt lat="39.93362744989665" lon="116.22047687387033">
        <ele>48.775390625</ele>
        <time>2026-10-07T06:15:02Z</time>
      </trkpt>
      <trkpt lat="39.93315546381039" lon="116.22047092415879">
        <ele>48.80926513671875</ele>
        <time>2026-10-07T06:15:14Z</time>
      </trkpt>
      <trkpt lat="39.93267647300519" lon="116.22045896677844">
        <ele>48.9180908203125</ele>
        <time>2026-10-07T06:15:26Z</time>
      </trkpt>
      <trkpt lat="39.932196544892875" lon="116.22052211616867">
        <ele>48.830810546875</ele>
        <time>2026-10-07T06:15:38Z</time>
      </trkpt>
      <trkpt lat="39.931928525623945" lon="116.22048609840463">
        <ele>50.96142578125</ele>
        <time>2026-10-07T06:15:44Z</time>
      </trkpt>
      <trkpt lat="39.9318565368693" lon="116.2204961215946">
        <ele>50.62353515625</ele>
        <time>2026-10-07T06:15:46Z</time>
      </trkpt>
      <trkpt lat="39.9317725952715" lon="116.22056222578418">
        <ele>49.06793212890625</ele>
        <time>2026-10-07T06:15:49Z</time>
      </trkpt>
      <trkpt lat="39.9313676032424" lon="116.2205522620657">
        <ele>49.82122802734375</ele>
        <time>2026-10-07T06:16:00Z</time>
      </trkpt>
      <trkpt lat="39.93100967505067" lon="116.22062140447838">
        <ele>45.69415283203125</ele>
        <time>2026-10-07T06:16:11Z</time>
      </trkpt>
      <trkpt lat="39.93091568049928" lon="116.22062341902335">
        <ele>47.8724365234375</ele>
        <time>2026-10-07T06:16:14Z</time>
      </trkpt>
      <trkpt lat="39.93075273600946" lon="116.2206825227853">
        <ele>47.39117431640625</ele>
        <time>2026-10-07T06:16:19Z</time>
      </trkpt>
      <trkpt lat="39.93065974390082" lon="116.22068754143865">
        <ele>47.904296875</ele>
        <time>2026-10-07T06:16:23Z</time>
      </trkpt>
      <trkpt lat="39.93058672280841" lon="116.22065850954326">
        <ele>46.28997802734375</ele>
        <time>2026-10-07T06:16:26Z</time>
      </trkpt>
      <trkpt lat="39.93030279057917" lon="116.22072664098964">
        <ele>49.1343994140625</ele>
        <time>2026-10-07T06:16:34Z</time>
      </trkpt>
      <trkpt lat="39.93020978357804" lon="116.22071363423004">
        <ele>51.20941162109375</ele>
        <time>2026-10-07T06:16:37Z</time>
      </trkpt>
      <trkpt lat="39.93003883428757" lon="116.22076673029176">
        <ele>49.33636474609375</ele>
        <time>2026-10-07T06:16:43Z</time>
      </trkpt>
      <trkpt lat="39.92954292108919" lon="116.22084790609439">
        <ele>48.94818115234375</ele>
        <time>2026-10-07T06:17:03Z</time>
      </trkpt>
      <trkpt lat="39.92906795428118" lon="116.220864989166">
        <ele>51.655029296875</ele>
        <time>2026-10-07T06:17:21Z</time>
      </trkpt>
      <trkpt lat="39.9289939786442" lon="116.22089103489536">
        <ele>52.21380615234375</ele>
        <time>2026-10-07T06:17:24Z</time>
      </trkpt>
      <trkpt lat="39.92893904729472" lon="116.22097215529173">
        <ele>51.6324462890625</ele>
        <time>2026-10-07T06:17:27Z</time>
      </trkpt>
      <trkpt lat="39.92891013750237" lon="116.22108131122778">
        <ele>50.9019775390625</ele>
        <time>2026-10-07T06:17:30Z</time>
      </trkpt>
      <trkpt lat="39.928831171644255" lon="116.22111937404674">
        <ele>51.33929443359375</ele>
        <time>2026-10-07T06:17:33Z</time>
      </trkpt>
      <trkpt lat="39.92852818635486" lon="116.22112241597652">
        <ele>55.0697021484375</ele>
        <time>2026-10-07T06:17:51Z</time>
      </trkpt>
      <trkpt lat="39.9284361672886" lon="116.22109438841375">
        <ele>55.19378662109375</ele>
        <time>2026-10-07T06:17:58Z</time>
      </trkpt>
      <trkpt lat="39.92815117395183" lon="116.22108841555388">
        <ele>55.87603759765625</ele>
        <time>2026-10-07T06:18:07Z</time>
      </trkpt>
      <trkpt lat="39.927952212956974" lon="116.22112649330998">
        <ele>54.334228515625</ele>
        <time>2026-10-07T06:18:13Z</time>
      </trkpt>
      <trkpt lat="39.92764621398189" lon="116.2211125119273">
        <ele>53.90301513671875</ele>
        <time>2026-10-07T06:18:21Z</time>
      </trkpt>
      <trkpt lat="39.92714931538844" lon="116.2212127129704">
        <ele>53.17486572265625</ele>
        <time>2026-10-07T06:18:33Z</time>
      </trkpt>
      <trkpt lat="39.92664639249394" lon="116.22128287274924">
        <ele>50.9515380859375</ele>
        <time>2026-10-07T06:18:46Z</time>
      </trkpt>
      <trkpt lat="39.92614943534222" lon="116.22131097344581">
        <ele>50.1629638671875</ele>
        <time>2026-10-07T06:18:59Z</time>
      </trkpt>
      <trkpt lat="39.925642508402724" lon="116.22137612649824">
        <ele>50.145263671875</ele>
        <time>2026-10-07T06:19:12Z</time>
      </trkpt>
      <trkpt lat="39.92540553094742" lon="116.22139217811898">
        <ele>52.1298828125</ele>
        <time>2026-10-07T06:19:18Z</time>
      </trkpt>
      <trkpt lat="39.92524556561186" lon="116.22142724634915">
        <ele>53.9632568359375</ele>
        <time>2026-10-07T06:19:22Z</time>
      </trkpt>
      <trkpt lat="39.924957579784824" lon="116.22143028636062">
        <ele>52.97796630859375</ele>
        <time>2026-10-07T06:19:30Z</time>
      </trkpt>
      <trkpt lat="39.92477460331917" lon="116.22145033672726">
        <ele>52.5123291015625</ele>
        <time>2026-10-07T06:19:35Z</time>
      </trkpt>
      <trkpt lat="39.92451960973449" lon="116.22144536159881">
        <ele>53.464599609375</ele>
        <time>2026-10-07T06:19:42Z</time>
      </trkpt>
      <trkpt lat="39.924253648689" lon="116.22148044294592">
        <ele>53.39910888671875</ele>
        <time>2026-10-07T06:19:49Z</time>
      </trkpt>
      <trkpt lat="39.92392067674588" lon="116.22149850919732">
        <ele>55.63348388671875</ele>
        <time>2026-10-07T06:19:57Z</time>
      </trkpt>
      <trkpt lat="39.92381170282078" lon="116.22152555990722">
        <ele>57.6307373046875</ele>
        <time>2026-10-07T06:20:00Z</time>
      </trkpt>
      <trkpt lat="39.92368176086496" lon="116.22159166672951">
        <ele>57.581298828125</ele>
        <time>2026-10-07T06:20:03Z</time>
      </trkpt>
      <trkpt lat="39.92328203939731" lon="116.22192316806766">
        <ele>51.86865234375</ele>
        <time>2026-10-07T06:20:18Z</time>
      </trkpt>
      <trkpt lat="39.923129127261056" lon="116.22202732795314">
        <ele>52.3302001953125</ele>
        <time>2026-10-07T06:20:22Z</time>
      </trkpt>
      <trkpt lat="39.9228783445421" lon="116.22229371715372">
        <ele>53.24322509765625</ele>
        <time>2026-10-07T06:20:31Z</time>
      </trkpt>
      <trkpt lat="39.92272643874471" lon="116.22240788849034">
        <ele>53.96099853515625</ele>
        <time>2026-10-07T06:20:36Z</time>
      </trkpt>
      <trkpt lat="39.92258856710899" lon="116.22256811857127">
        <ele>52.9913330078125</ele>
        <time>2026-10-07T06:20:41Z</time>
      </trkpt>
      <trkpt lat="39.92241462994955" lon="116.22264123698054">
        <ele>52.17864990234375</ele>
        <time>2026-10-07T06:20:46Z</time>
      </trkpt>
      <trkpt lat="39.92208979795886" lon="116.22284554649222">
        <ele>51.36383056640625</ele>
        <time>2026-10-07T06:20:56Z</time>
      </trkpt>
      <trkpt lat="39.92164089999227" lon="116.2229567479828">
        <ele>50.73309326171875</ele>
        <time>2026-10-07T06:21:07Z</time>
      </trkpt>
      <trkpt lat="39.921151953910595" lon="116.22300186772722">
        <ele>47.05133056640625</ele>
        <time>2026-10-07T06:21:19Z</time>
      </trkpt>
      <trkpt lat="39.920665974739066" lon="116.22300292954644">
        <ele>46.49896240234375</ele>
        <time>2026-10-07T06:21:31Z</time>
      </trkpt>
      <trkpt lat="39.920180997052356" lon="116.22300599385326">
        <ele>46.0169677734375</ele>
        <time>2026-10-07T06:21:43Z</time>
      </trkpt>
      <trkpt lat="39.919719010950324" lon="116.222999042227">
        <ele>45.5635986328125</ele>
        <time>2026-10-07T06:21:55Z</time>
      </trkpt>
      <trkpt lat="39.91932902413206" lon="116.22299508555503">
        <ele>44.70733642578125</ele>
        <time>2026-10-07T06:22:05Z</time>
      </trkpt>
      <trkpt lat="39.918825052559406" lon="116.22300516137298">
        <ele>43.703125</ele>
        <time>2026-10-07T06:22:17Z</time>
      </trkpt>
      <trkpt lat="39.91864006324784" lon="116.22300918963177">
        <ele>42.74072265625</ele>
        <time>2026-10-07T06:22:24Z</time>
      </trkpt>
      <trkpt lat="39.91855104821876" lon="116.2229841680347">
        <ele>43.13372802734375</ele>
        <time>2026-10-07T06:22:27Z</time>
      </trkpt>
      <trkpt lat="39.91847699948651" lon="116.22291508690797">
        <ele>43.78070068359375</ele>
        <time>2026-10-07T06:22:30Z</time>
      </trkpt>
      <trkpt lat="39.9182815686628" lon="116.22233834847259">
        <ele>43.49603271484375</ele>
        <time>2026-10-07T06:22:42Z</time>
      </trkpt>
      <trkpt lat="39.91813916453443" lon="116.22181265767725">
        <ele>44.98394775390625</ele>
        <time>2026-10-07T06:22:54Z</time>
      </trkpt>
      <trkpt lat="39.918094800929104" lon="116.22135403478846">
        <ele>49.82415771484375</ele>
        <time>2026-10-07T06:23:07Z</time>
      </trkpt>
      <trkpt lat="39.91797230403833" lon="116.22073819118027">
        <ele>47.32965087890625</ele>
        <time>2026-10-07T06:23:19Z</time>
      </trkpt>
      <trkpt lat="39.9179197913878" lon="116.22012232171656">
        <ele>49.4293212890625</ele>
        <time>2026-10-07T06:23:32Z</time>
      </trkpt>
      <trkpt lat="39.91781325432955" lon="116.21949041848583">
        <ele>49.5716552734375</ele>
        <time>2026-10-07T06:23:45Z</time>
      </trkpt>
      <trkpt lat="39.917771701212516" lon="116.21885848934102">
        <ele>50.4593505859375</ele>
        <time>2026-10-07T06:23:57Z</time>
      </trkpt>
      <trkpt lat="39.91775660733093" lon="116.21875233252733">
        <ele>50.02142333984375</ele>
        <time>2026-10-07T06:23:59Z</time>
      </trkpt>
      <trkpt lat="39.91776706398045" lon="116.21815042204">
        <ele>51.12921142578125</ele>
        <time>2026-10-07T06:24:11Z</time>
      </trkpt>
      <trkpt lat="39.91772147648472" lon="116.21751144512525">
        <ele>52.87176513671875</ele>
        <time>2026-10-07T06:24:23Z</time>
      </trkpt>
      <trkpt lat="39.91765394333327" lon="116.2169425637451">
        <ele>51.74176025390625</ele>
        <time>2026-10-07T06:24:34Z</time>
      </trkpt>
      <trkpt lat="39.91762032726063" lon="116.21630054692086">
        <ele>53.2120361328125</ele>
        <time>2026-10-07T06:24:46Z</time>
      </trkpt>
      <trkpt lat="39.91757669732517" lon="116.21565751196177">
        <ele>53.54107666015625</ele>
        <time>2026-10-07T06:24:58Z</time>
      </trkpt>
      <trkpt lat="39.91753009486149" lon="116.21505452614393">
        <ele>54.5382080078125</ele>
        <time>2026-10-07T06:25:10Z</time>
      </trkpt>
      <trkpt lat="39.91749867278914" lon="116.21463883747998">
        <ele>51.2611083984375</ele>
        <time>2026-10-07T06:25:18Z</time>
      </trkpt>
      <trkpt lat="39.91743000052893" lon="116.21398674493899">
        <ele>50.9326171875</ele>
        <time>2026-10-07T06:25:30Z</time>
      </trkpt>
      <trkpt lat="39.91737531758526" lon="116.21333763806938">
        <ele>50.2982177734375</ele>
        <time>2026-10-07T06:25:42Z</time>
      </trkpt>
      <trkpt lat="39.91733064290666" lon="116.21270854765822">
        <ele>49.56170654296875</ele>
        <time>2026-10-07T06:25:54Z</time>
      </trkpt>
      <trkpt lat="39.91727701613556" lon="116.2121335383755">
        <ele>48.3228759765625</ele>
        <time>2026-10-07T06:26:05Z</time>
      </trkpt>
      <trkpt lat="39.917230277887576" lon="116.2114683521309">
        <ele>47.30853271484375</ele>
        <time>2026-10-07T06:26:18Z</time>
      </trkpt>
      <trkpt lat="39.91714064926623" lon="116.21090934771983">
        <ele>46.67730712890625</ele>
        <time>2026-10-07T06:26:31Z</time>
      </trkpt>
      <trkpt lat="39.91701802657384" lon="116.2103623571584">
        <ele>46.2921142578125</ele>
        <time>2026-10-07T06:26:43Z</time>
      </trkpt>
      <trkpt lat="39.91688537428731" lon="116.20979732222024">
        <ele>47.5244140625</ele>
        <time>2026-10-07T06:26:55Z</time>
      </trkpt>
      <trkpt lat="39.916726649336624" lon="116.20917817544347">
        <ele>47.35552978515625</ele>
        <time>2026-10-07T06:27:08Z</time>
      </trkpt>
      <trkpt lat="39.9165769878695" lon="116.20862113180733">
        <ele>49.064453125</ele>
        <time>2026-10-07T06:27:22Z</time>
      </trkpt>
      <trkpt lat="39.91649457736333" lon="116.2082794846326">
        <ele>49.1260986328125</ele>
        <time>2026-10-07T06:27:32Z</time>
      </trkpt>
      <trkpt lat="39.916371209440214" lon="116.20797390818406">
        <ele>51.15069580078125</ele>
        <time>2026-10-07T06:27:41Z</time>
      </trkpt>
      <trkpt lat="39.91622472348575" lon="116.20757414683641">
        <ele>51.91265869140625</ele>
        <time>2026-10-07T06:27:52Z</time>
      </trkpt>
      <trkpt lat="39.915942083464905" lon="116.20705015102506">
        <ele>55.98883056640625</ele>
        <time>2026-10-07T06:28:12Z</time>
      </trkpt>
      <trkpt lat="39.91588482447038" lon="116.20684174522769">
        <ele>55.8323974609375</ele>
        <time>2026-10-07T06:28:18Z</time>
      </trkpt>
      <trkpt lat="39.91576944128433" lon="116.20653414717202">
        <ele>55.64373779296875</ele>
        <time>2026-10-07T06:28:27Z</time>
      </trkpt>
      <trkpt lat="39.91571685204381" lon="116.20606922138161">
        <ele>57.94854736328125</ele>
        <time>2026-10-07T06:28:39Z</time>
      </trkpt>
      <trkpt lat="39.915722378497506" lon="116.20570047555634">
        <ele>60.231689453125</ele>
        <time>2026-10-07T06:28:48Z</time>
      </trkpt>
      <trkpt lat="39.915668635071114" lon="116.20512531007688">
        <ele>58.47998046875</ele>
        <time>2026-10-07T06:29:03Z</time>
      </trkpt>
      <trkpt lat="39.915659311826" lon="116.20487780312992">
        <ele>57.35992431640625</ele>
        <time>2026-10-07T06:29:07Z</time>
      </trkpt>
      <trkpt lat="39.9156915187915" lon="116.20427755771755">
        <ele>57.70263671875</ele>
        <time>2026-10-07T06:29:17Z</time>
      </trkpt>
      <trkpt lat="39.9157016497886" lon="116.20362719693038">
        <ele>60.44195556640625</ele>
        <time>2026-10-07T06:29:29Z</time>
      </trkpt>
      <trkpt lat="39.91568635482343" lon="116.20340773670904">
        <ele>61.19793701171875</ele>
        <time>2026-10-07T06:29:33Z</time>
      </trkpt>
      <trkpt lat="39.91570006009999" lon="116.20319027541791">
        <ele>61.313720703125</ele>
        <time>2026-10-07T06:29:38Z</time>
      </trkpt>
      <trkpt lat="39.915729764839625" lon="116.20297381260504">
        <ele>62.11212158203125</ele>
        <time>2026-10-07T06:29:43Z</time>
      </trkpt>
      <trkpt lat="39.91571986491205" lon="116.20231640958042">
        <ele>62.96356201171875</ele>
        <time>2026-10-07T06:29:55Z</time>
      </trkpt>
      <trkpt lat="39.915732543318015" lon="116.20208390780857">
        <ele>64.00860595703125</ele>
        <time>2026-10-07T06:29:59Z</time>
      </trkpt>
      <trkpt lat="39.915744897963826" lon="116.20161990254147">
        <ele>64.13690185546875</ele>
        <time>2026-10-07T06:30:08Z</time>
      </trkpt>
      <trkpt lat="39.91575899005359" lon="116.20097349039823">
        <ele>64.830322265625</ele>
        <time>2026-10-07T06:30:20Z</time>
      </trkpt>
      <trkpt lat="39.91571538837279" lon="116.2005475589121">
        <ele>62.0589599609375</ele>
        <time>2026-10-07T06:31:00Z</time>
      </trkpt>
      <trkpt lat="39.915657293834855" lon="116.20047941570978">
        <ele>58.260009765625</ele>
        <time>2026-10-07T06:31:02Z</time>
      </trkpt>
      <trkpt lat="39.915644145851296" lon="116.20037518693269">
        <ele>59.97076416015625</ele>
        <time>2026-10-07T06:31:05Z</time>
      </trkpt>
      <trkpt lat="39.91564126943607" lon="116.19976382862617">
        <ele>59.5225830078125</ele>
        <time>2026-10-07T06:31:19Z</time>
      </trkpt>
      <trkpt lat="39.91571136783418" lon="116.1991434287727">
        <ele>59.99078369140625</ele>
        <time>2026-10-07T06:31:31Z</time>
      </trkpt>
      <trkpt lat="39.91570203930434" lon="116.19891792124112">
        <ele>60.207763671875</ele>
        <time>2026-10-07T06:31:35Z</time>
      </trkpt>
      <trkpt lat="39.915639586782994" lon="116.1986072255389">
        <ele>59.06158447265625</ele>
        <time>2026-10-07T06:31:41Z</time>
      </trkpt>
      <trkpt lat="39.91561368420931" lon="116.19799483329511">
        <ele>62.47637939453125</ele>
        <time>2026-10-07T06:31:54Z</time>
      </trkpt>
      <trkpt lat="39.915616743284076" lon="116.19736338185442">
        <ele>71.12158203125</ele>
        <time>2026-10-07T06:32:07Z</time>
      </trkpt>
      <trkpt lat="39.91563999072607" lon="116.19686322096827">
        <ele>76.03485107421875</ele>
        <time>2026-10-07T06:32:17Z</time>
      </trkpt>
      <trkpt lat="39.91561798137391" lon="116.19619666883256">
        <ele>69.13104248046875</ele>
        <time>2026-10-07T06:32:30Z</time>
      </trkpt>
      <trkpt lat="39.91563912832328" lon="116.19563935605612">
        <ele>66.7779541015625</ele>
        <time>2026-10-07T06:32:41Z</time>
      </trkpt>
      <trkpt lat="39.91566079917501" lon="116.19542584903557">
        <ele>65.02984619140625</ele>
        <time>2026-10-07T06:32:45Z</time>
      </trkpt>
      <trkpt lat="39.91562315532203" lon="116.19500786262834">
        <ele>65.59619140625</ele>
        <time>2026-10-07T06:32:53Z</time>
      </trkpt>
      <trkpt lat="39.91564359895857" lon="116.19465000757948">
        <ele>68.79852294921875</ele>
        <time>2026-10-07T06:33:02Z</time>
      </trkpt>
      <trkpt lat="39.915687112583846" lon="116.19433925892929">
        <ele>72.70501708984375</ele>
        <time>2026-10-07T06:33:09Z</time>
      </trkpt>
      <trkpt lat="39.91576546694202" lon="116.193929264426">
        <ele>75.052490234375</ele>
        <time>2026-10-07T06:33:17Z</time>
      </trkpt>
      <trkpt lat="39.91577910520691" lon="116.19369970934842">
        <ele>75.61639404296875</ele>
        <time>2026-10-07T06:33:22Z</time>
      </trkpt>
      <trkpt lat="39.915906151719724" lon="116.19310024157113">
        <ele>70.64013671875</ele>
        <time>2026-10-07T06:33:35Z</time>
      </trkpt>
      <trkpt lat="39.91598657248374" lon="116.19273835032112">
        <ele>71.48944091796875</ele>
        <time>2026-10-07T06:33:44Z</time>
      </trkpt>
      <trkpt lat="39.91586337604323" lon="116.19261205737526">
        <ele>70.03363037109375</ele>
        <time>2026-10-07T06:33:51Z</time>
      </trkpt>
      <trkpt lat="39.915845206958515" lon="116.19250579989014">
        <ele>70.114990234375</ele>
        <time>2026-10-07T06:34:11Z</time>
      </trkpt>
      <trkpt lat="39.9157721282254" lon="116.19245468396102">
        <ele>68.029296875</ele>
        <time>2026-10-07T06:34:14Z</time>
      </trkpt>
      <trkpt lat="39.915602050300485" lon="116.19240157520836">
        <ele>66.0360107421875</ele>
        <time>2026-10-07T06:34:20Z</time>
      </trkpt>
      <trkpt lat="39.91552496842085" lon="116.1923484547281">
        <ele>61.33746337890625</ele>
        <time>2026-10-07T06:34:23Z</time>
      </trkpt>
      <trkpt lat="39.915371957172155" lon="116.19233744688269">
        <ele>60.7320556640625</ele>
        <time>2026-10-07T06:34:35Z</time>
      </trkpt>
      <trkpt lat="39.914981955884635" lon="116.19232646873112">
        <ele>59.57464599609375</ele>
        <time>2026-10-07T06:34:56Z</time>
      </trkpt>
      <trkpt lat="39.914956009992" lon="116.19235955303989">
        <ele>60.0791015625</ele>
        <time>2026-10-07T06:35:26Z</time>
      </trkpt>
    </trkseg>
  </trk>
</gpx>