<?xml version="1.0" encoding="UTF-8"?>
<gpx xmlns="http://www.topografix.com/GPX/1/1" xmlns:gpxtpx="http://www.garmin.com/xmlschemas/TrackPointExtension/v1" xmlns:xsi="http://www.w3.org/2001/XMLSchema-instance" xsi:schemaLocation="http://www.topografix.com/GPX/1/1 http://www.topografix.com/GPX/1/1/gpx.xsd" version="1.1" creator="gpx.py -- https://github.com/tkrajina/gpxpy">
  <trk>
    <name>gpx from keep</name>
    <type>Run</type>
    <trkseg>
      <trkpt lat="39.91420457389415" lon="116.17701448524487">
        <ele>75.72052001953125</ele>
        <time>2026-08-17T11:53:51Z</time>
      </trkpt>
      <trkpt lat="39.91423384207269" lon="116.17661337808438">
        <ele>72.77099609375</ele>
        <time>2026-08-17T11:54:12Z</time>
      </trkpt>
      <trkpt lat="39.914248994098806" lon="116.17614909651044">
        <ele>71.4129638671875</ele>
        <time>2026-08-17T11:54:36Z</time>
      </trkpt>
      <trkpt lat="39.91422932571787" lon="116.17578308843028">
        <ele>70.95965576171875</ele>
        <time>2026-08-17T11:54:54Z</time>
      </trkpt>
      <trkpt lat="39.91423763674246" lon="116.17540704759028">
        <ele>71.078369140625</ele>
        <time>2026-08-17T11:55:12Z</time>
      </trkpt>
      <trkpt lat="39.91424795950961" lon="116.17503802442856">
        <ele>70.0257568359375</ele>
        <time>2026-08-17T11:55:30Z</time>
      </trkpt>
      <trkpt lat="39.91423661569346" lon="116.17485050605119">
        <ele>71.44580078125</ele>
        <time>2026-08-17T11:55:39Z</time>
      </trkpt>
      <trkpt lat="39.914267402541654" lon="116.17473518232796">
        <ele>69.73223876953125</ele>
        <time>2026-08-17T11:55:45Z</time>
      </trkpt>
      <trkpt lat="39.9141603296561" lon="116.17469307896825">
        <ele>69.72991943359375</ele>
        <time>2026-08-17T11:55:51Z</time>
      </trkpt>
      <trkpt lat="39.91408715578782" lon="116.17459682104108">
        <ele>69.1319580078125</ele>
        <time>2026-08-17T11:55:57Z</time>
      </trkpt>
      <trkpt lat="39.91380417325068" lon="116.17459986503587">
        <ele>68.9381103515625</ele>
        <time>2026-08-17T11:56:12Z</time>
      </trkpt>
      <trkpt lat="39.913632193412695" lon="116.17460690618071">
        <ele>69.42083740234375</ele>
        <time>2026-08-17T11:56:21Z</time>
      </trkpt>
      <trkpt lat="39.913521166759395" lon="116.17458987285131">
        <ele>69.47479248046875</ele>
        <time>2026-08-17T11:56:27Z</time>
      </trkpt>
      <trkpt lat="39.91347823125197" lon="116.1746239728852">
        <ele>69.51702880859375</ele>
        <time>2026-08-17T11:56:30Z</time>
      </trkpt>
      <trkpt lat="39.913413484624186" lon="116.17476035942674">
        <ele>69.93853759765625</ele>
        <time>2026-08-17T11:56:36Z</time>
      </trkpt>
      <trkpt lat="39.91339918300492" lon="116.17514041470112">
        <ele>69.01611328125</ele>
        <time>2026-08-17T11:56:51Z</time>
      </trkpt>
      <trkpt lat="39.913380840092834" lon="116.17549840794851">
        <ele>72.879638671875</ele>
        <time>2026-08-17T11:57:06Z</time>
      </trkpt>
      <trkpt lat="39.91337760378771" lon="116.17591556130665">
        <ele>73.840576171875</ele>
        <time>2026-08-17T11:57:24Z</time>
      </trkpt>
      <trkpt lat="39.9133877298771" lon="116.17598475107904">
        <ele>74.101318359375</ele>
        <time>2026-08-17T11:57:27Z</time>
      </trkpt>
      <trkpt lat="39.91348383946718" lon="116.17604691059807">
        <ele>70.75299072265625</ele>
        <time>2026-08-17T11:57:33Z</time>
      </trkpt>
      <trkpt lat="39.9135169645134" lon="116.17611609737209">
        <ele>70.272216796875</ele>
        <time>2026-08-17T11:57:36Z</time>
      </trkpt>
      <trkpt lat="39.91349207731736" lon="116.17617726926582">
        <ele>70.849609375</ele>
        <time>2026-08-17T11:57:39Z</time>
      </trkpt>
      <trkpt lat="39.913398207655185" lon="116.1762464719246">
        <ele>70.88043212890625</ele>
        <time>2026-08-17T11:57:45Z</time>
      </trkpt>
      <trkpt lat="39.9133748746553" lon="116.17661148069159">
        <ele>71.2999267578125</ele>
        <time>2026-08-17T11:58:00Z</time>
      </trkpt>
      <trkpt lat="39.91337561069421" lon="116.17701559234045">
        <ele>69.7735595703125</ele>
        <time>2026-08-17T11:58:18Z</time>
      </trkpt>
      <trkpt lat="39.91337334908505" lon="116.17742170785674">
        <ele>69.90997314453125</ele>
        <time>2026-08-17T11:58:36Z</time>
      </trkpt>
      <trkpt lat="39.91340861338543" lon="116.17756810494217">
        <ele>69.055419921875</ele>
        <time>2026-08-17T11:58:42Z</time>
      </trkpt>
      <trkpt lat="39.91346165663726" lon="116.17759316699352">
        <ele>69.20391845703125</ele>
        <time>2026-08-17T11:58:45Z</time>
      </trkpt>
      <trkpt lat="39.91374257744592" lon="116.17755602992284">
        <ele>67.4620361328125</ele>
        <time>2026-08-17T11:59:00Z</time>
      </trkpt>
      <trkpt lat="39.914027578164216" lon="116.17756301330186">
        <ele>69.8231201171875</ele>
        <time>2026-08-17T11:59:15Z</time>
      </trkpt>
      <trkpt lat="39.914137555329546" lon="116.17755297196773">
        <ele>70.56927490234375</ele>
        <time>2026-08-17T11:59:21Z</time>
      </trkpt>
      <trkpt lat="39.91418546958301" lon="116.1775068394497">
        <ele>71.589111328125</ele>
        <time>2026-08-17T11:59:24Z</time>
      </trkpt>
      <trkpt lat="39.91420033786624" lon="116.17743463954254">
        <ele>71.83984375</ele>
        <time>2026-08-17T11:59:27Z</time>
      </trkpt>
      <trkpt lat="39.91418508529948" lon="116.17729525895531">
        <ele>72.263916015625</ele>
        <time>2026-08-17T11:59:33Z</time>
      </trkpt>
      <trkpt lat="39.91422345264656" lon="116.17694830092987">
        <ele>70.630126953125</ele>
        <time>2026-08-17T11:59:48Z</time>
      </trkpt>
      <trkpt lat="39.914224772978" lon="116.17657527429499">
        <ele>71.43389892578125</ele>
        <time>2026-08-17T12:00:03Z</time>
      </trkpt>
      <trkpt lat="39.914213035915544" lon="116.1761711618993">
        <ele>70.85125732421875</ele>
        <time>2026-08-17T12:00:18Z</time>
      </trkpt>
      <trkpt lat="39.91420960719508" lon="116.17593651470024">
        <ele>69.1165771484375</ele>
        <time>2026-08-17T12:00:27Z</time>
      </trkpt>
      <trkpt lat="39.9141934684919" lon="116.17586030625667">
        <ele>69.333740234375</ele>
        <time>2026-08-17T12:00:30Z</time>
      </trkpt>
      <trkpt lat="39.914198757818866" lon="116.17547223282752">
        <ele>68.6947021484375</ele>
        <time>2026-08-17T12:00:45Z</time>
      </trkpt>
      <trkpt lat="39.914210229730564" lon="116.1751844347648">
        <ele>68.6993408203125</ele>
        <time>2026-08-17T12:00:57Z</time>
      </trkpt>
      <trkpt lat="39.914188591930554" lon="116.17483647316952">
        <ele>69.831787109375</ele>
        <time>2026-08-17T12:01:12Z</time>
      </trkpt>
      <trkpt lat="39.91421147675438" lon="116.17477429785666">
        <ele>69.694091796875</ele>
        <time>2026-08-17T12:01:15Z</time>
      </trkpt>
      <trkpt lat="39.914258367911124" lon="116.17471613060899">
        <ele>67.6959228515625</ele>
        <time>2026-08-17T12:01:18Z</time>
      </trkpt>
      <trkpt lat="39.91431332873983" lon="116.1746960680432">
        <ele>69.98175048828125</ele>
        <time>2026-08-17T12:01:21Z</time>
      </trkpt>
      <trkpt lat="39.91458638911312" lon="116.17473514214849">
        <ele>68.34197998046875</ele>
        <time>2026-08-17T12:01:33Z</time>
      </trkpt>
      <trkpt lat="39.91489537059155" lon="116.17473209488305">
        <ele>70.24072265625</ele>
        <time>2026-08-17T12:01:48Z</time>
      </trkpt>
      <trkpt lat="39.91495032221383" lon="116.17470701841034">
        <ele>69.94207763671875</ele>
        <time>2026-08-17T12:01:51Z</time>
      </trkpt>
      <trkpt lat="39.9150440970857" lon="116.17458667266584">
        <ele>69.752197265625</ele>
        <time>2026-08-17T12:01:57Z</time>
      </trkpt>
      <trkpt lat="39.915098078225" lon="116.17457764081512">
        <ele>69.59063720703125</ele>
        <time>2026-08-17T12:02:00Z</time>
      </trkpt>
      <trkpt lat="39.915212276195525" lon="116.17468793255038">
        <ele>69.879150390625</ele>
        <time>2026-08-17T12:02:09Z</time>
      </trkpt>
      <trkpt lat="39.915253197067514" lon="116.17464581052754">
        <ele>70.21148681640625</ele>
        <time>2026-08-17T12:02:12Z</time>
      </trkpt>
      <trkpt lat="39.915237057638876" lon="116.17456960103982">
        <ele>70.17236328125</ele>
        <time>2026-08-17T12:02:15Z</time>
      </trkpt>
      <trkpt lat="39.91519196180313" lon="116.17451645917863">
        <ele>70.33380126953125</ele>
        <time>2026-08-17T12:02:18Z</time>
      </trkpt>
      <trkpt lat="39.915131920063494" lon="116.17449239992165">
        <ele>70.12933349609375</ele>
        <time>2026-08-17T12:02:21Z</time>
      </trkpt>
      <trkpt lat="39.91510084205793" lon="116.17444928410227">
        <ele>69.4029541015625</ele>
        <time>2026-08-17T12:02:24Z</time>
      </trkpt>
      <trkpt lat="39.9151177048319" lon="116.1743750758808">
        <ele>68.63470458984375</ele>
        <time>2026-08-17T12:02:27Z</time>
      </trkpt>
      <trkpt lat="39.915235567019195" lon="116.17430286045399">
        <ele>68.7518310546875</ele>
        <time>2026-08-17T12:02:33Z</time>
      </trkpt>
      <trkpt lat="39.915308318446165" lon="116.17416948064263">
        <ele>69.2109375</ele>
        <time>2026-08-17T12:02:39Z</time>
      </trkpt>
      <trkpt lat="39.91535422788233" lon="116.17412134104984">
        <ele>69.39215087890625</ele>
        <time>2026-08-17T12:02:42Z</time>
      </trkpt>
      <trkpt lat="39.91531546439925" lon="116.17370619093342">
        <ele>66.63189697265625</ele>
        <time>2026-08-17T12:03:00Z</time>
      </trkpt>
      <trkpt lat="39.915321992328224" lon="116.17345047791542">
        <ele>69.1058349609375</ele>
        <time>2026-08-17T12:03:12Z</time>
      </trkpt>
      <trkpt lat="39.91529730439723" lon="116.17307744103039">
        <ele>71.4354248046875</ele>
        <time>2026-08-17T12:03:27Z</time>
      </trkpt>
      <trkpt lat="39.915287039769844" lon="116.17293404222522">
        <ele>68.2967529296875</ele>
        <time>2026-08-17T12:03:33Z</time>
      </trkpt>
      <trkpt lat="39.91523096425258" lon="116.17289193174871">
        <ele>67.0185546875</ele>
        <time>2026-08-17T12:03:39Z</time>
      </trkpt>
      <trkpt lat="39.91524527907965" lon="116.17252189661488">
        <ele>69.13397216796875</ele>
        <time>2026-08-17T12:03:54Z</time>
      </trkpt>
      <trkpt lat="39.91527487863158" lon="116.17230629030672">
        <ele>71.1922607421875</ele>
        <time>2026-08-17T12:04:03Z</time>
      </trkpt>
      <trkpt lat="39.91527435468533" lon="116.17202349947662">
        <ele>72.00384521484375</ele>
        <time>2026-08-17T12:04:15Z</time>
      </trkpt>
      <trkpt lat="39.91529823471309" lon="116.1719593168887">
        <ele>71.2021484375</ele>
        <time>2026-08-17T12:04:18Z</time>
      </trkpt>
      <trkpt lat="39.91524925907722" lon="116.17197135673628">
        <ele>70.9281005859375</ele>
        <time>2026-08-17T12:04:24Z</time>
      </trkpt>
      <trkpt lat="39.91524101562431" lon="116.17237949921184">
        <ele>72.56097412109375</ele>
        <time>2026-08-17T12:04:39Z</time>
      </trkpt>
      <trkpt lat="39.915223749431505" lon="116.17277560793686">
        <ele>73.0389404296875</ele>
        <time>2026-08-17T12:04:54Z</time>
      </trkpt>
      <trkpt lat="39.91519646056937" lon="116.17315968308854">
        <ele>72.91131591796875</ele>
        <time>2026-08-17T12:05:09Z</time>
      </trkpt>
      <trkpt lat="39.91520792862677" lon="116.17341338890287">
        <ele>69.2164306640625</ele>
        <time>2026-08-17T12:05:30Z</time>
      </trkpt>
      <trkpt lat="39.91524158954713" lon="116.17377238447882">
        <ele>69.27606201171875</ele>
        <time>2026-08-17T12:05:45Z</time>
      </trkpt>
      <trkpt lat="39.9152323327145" lon="116.17417550694033">
        <ele>70.2529296875</ele>
        <time>2026-08-17T12:06:00Z</time>
      </trkpt>
      <trkpt lat="39.91521461219066" lon="116.17432692995908">
        <ele>69.5115966796875</ele>
        <time>2026-08-17T12:06:06Z</time>
      </trkpt>
      <trkpt lat="39.91515571799591" lon="116.17438309337535">
        <ele>70.0836181640625</ele>
        <time>2026-08-17T12:06:09Z</time>
      </trkpt>
      <trkpt lat="39.91508675225698" lon="116.17440014941353">
        <ele>71.5028076171875</ele>
        <time>2026-08-17T12:06:12Z</time>
      </trkpt>
      <trkpt lat="39.91495372279142" lon="116.17438111325134">
        <ele>71.7589111328125</ele>
        <time>2026-08-17T12:06:18Z</time>
      </trkpt>
      <trkpt lat="39.914653764922676" lon="116.17439719560362">
        <ele>70.4176025390625</ele>
        <time>2026-08-17T12:06:33Z</time>
      </trkpt>
      <trkpt lat="39.91436178274569" lon="116.17440024074124">
        <ele>71.3001708984375</ele>
        <time>2026-08-17T12:06:48Z</time>
      </trkpt>
      <trkpt lat="39.9141187560831" lon="116.17438021565027">
        <ele>71.4024658203125</ele>
        <time>2026-08-17T12:07:00Z</time>
      </trkpt>
      <trkpt lat="39.91383079589888" lon="116.17439529370426">
        <ele>73.03594970703125</ele>
        <time>2026-08-17T12:07:15Z</time>
      </trkpt>
      <trkpt lat="39.91352681241799" lon="116.17439733756713">
        <ele>72.33465576171875</ele>
        <time>2026-08-17T12:07:30Z</time>
      </trkpt>
      <trkpt lat="39.91334980513477" lon="116.17438933758258">
        <ele>73.3985595703125</ele>
        <time>2026-08-17T12:07:39Z</time>
      </trkpt>
      <trkpt lat="39.913304771981544" lon="116.17437029033374">
        <ele>72.10296630859375</ele>
        <time>2026-08-17T12:07:42Z</time>
      </trkpt>
      <trkpt lat="39.91328366953604" lon="116.17431413699221">
        <ele>71.25653076171875</ele>
        <time>2026-08-17T12:07:45Z</time>
      </trkpt>
      <trkpt lat="39.91334102263308" lon="116.17396415687362">
        <ele>73.421875</ele>
        <time>2026-08-17T12:08:09Z</time>
      </trkpt>
      <trkpt lat="39.91338033131077" lon="116.17359011086192">
        <ele>74.00067138671875</ele>
        <time>2026-08-17T12:08:39Z</time>
      </trkpt>
      <trkpt lat="39.9133887812016" lon="116.17329227995899">
        <ele>77.3900146484375</ele>
        <time>2026-08-17T12:09:03Z</time>
      </trkpt>
      <trkpt lat="39.913337762985684" lon="116.17328125563819">
        <ele>76.0401611328125</ele>
        <time>2026-08-17T12:09:09Z</time>
      </trkpt>
      <trkpt lat="39.91319678931477" lon="116.17329230415191">
        <ele>76.284912109375</ele>
        <time>2026-08-17T12:09:18Z</time>
      </trkpt>
      <trkpt lat="39.91313673999777" lon="116.17326423344505">
        <ele>76.58087158203125</ele>
        <time>2026-08-17T12:09:21Z</time>
      </trkpt>
      <trkpt lat="39.913079531242836" lon="116.17314992189866">
        <ele>76.04229736328125</ele>
        <time>2026-08-17T12:09:27Z</time>
      </trkpt>
      <trkpt lat="39.912808574202295" lon="116.1731670035836">
        <ele>72.87677001953125</ele>
        <time>2026-08-17T12:09:42Z</time>
      </trkpt>
      <trkpt lat="39.91259759610426" lon="116.1731740497441">
        <ele>74.09613037109375</ele>
        <time>2026-08-17T12:09:54Z</time>
      </trkpt>
      <trkpt lat="39.912341586574634" lon="116.17316305124353">
        <ele>76.26580810546875</ele>
        <time>2026-08-17T12:10:12Z</time>
      </trkpt>
      <trkpt lat="39.912231633846915" lon="116.17318612941459">
        <ele>77.24993896484375</ele>
        <time>2026-08-17T12:10:18Z</time>
      </trkpt>
      <trkpt lat="39.91195661772848" lon="116.17317112212424">
        <ele>78.93731689453125</ele>
        <time>2026-08-17T12:10:33Z</time>
      </trkpt>
      <trkpt lat="39.91167565189375" lon="116.17318319108347">
        <ele>78.7666015625</ele>
        <time>2026-08-17T12:10:48Z</time>
      </trkpt>
      <trkpt lat="39.91139963769312" lon="116.17316918671439">
        <ele>78.2945556640625</ele>
        <time>2026-08-17T12:11:03Z</time>
      </trkpt>
      <trkpt lat="39.91134156975949" lon="116.17313108776342">
        <ele>78.98687744140625</ele>
        <time>2026-08-17T12:11:06Z</time>
      </trkpt>
      <trkpt lat="39.911309430294" lon="116.17305487924078">
        <ele>78.72113037109375</ele>
        <time>2026-08-17T12:11:09Z</time>
      </trkpt>
      <trkpt lat="39.91129287290453" lon="116.17275303895265">
        <ele>78.18035888671875</ele>
        <time>2026-08-17T12:11:21Z</time>
      </trkpt>
      <trkpt lat="39.91132517368043" lon="116.17237598157725">
        <ele>80.88775634765625</ele>
        <time>2026-08-17T12:11:36Z</time>
      </trkpt>
      <trkpt lat="39.911331034143174" lon="116.17230077060451">
        <ele>81.87542724609375</ele>
        <time>2026-08-17T12:11:39Z</time>
      </trkpt>
      <trkpt lat="39.91131533608543" lon="116.17192371796439">
        <ele>77.65753173828125</ele>
        <time>2026-08-17T12:11:54Z</time>
      </trkpt>
      <trkpt lat="39.91130957364272" lon="116.17151256752811">
        <ele>76.86474609375</ele>
        <time>2026-08-17T12:12:12Z</time>
      </trkpt>
      <trkpt lat="39.91131086975067" lon="116.1711335050168">
        <ele>78.9169921875</ele>
        <time>2026-08-17T12:12:27Z</time>
      </trkpt>
      <trkpt lat="39.911340192025875" lon="116.17076948024815">
        <ele>74.99127197265625</ele>
        <time>2026-08-17T12:12:42Z</time>
      </trkpt>
      <trkpt lat="39.91133106749657" lon="116.1707022928462">
        <ele>74.43609619140625</ele>
        <time>2026-08-17T12:12:45Z</time>
      </trkpt>
      <trkpt lat="39.9110370222099" lon="116.17067124267591">
        <ele>76.3843994140625</ele>
        <time>2026-08-17T12:13:00Z</time>
      </trkpt>
      <trkpt lat="39.910741072114355" lon="116.17069133628591">
        <ele>77.4478759765625</ele>
        <time>2026-08-17T12:13:15Z</time>
      </trkpt>
      <trkpt lat="39.91047415062396" lon="116.17072747126065">
        <ele>77.47930908203125</ele>
        <time>2026-08-17T12:13:30Z</time>
      </trkpt>
      <trkpt lat="39.91023819239386" lon="116.17074454885483">
        <ele>77.1715087890625</ele>
        <time>2026-08-17T12:13:42Z</time>
      </trkpt>
      <trkpt lat="39.910055211398706" lon="116.17075058881211">
        <ele>74.64410400390625</ele>
        <time>2026-08-17T12:13:51Z</time>
      </trkpt>
      <trkpt lat="39.90994925507966" lon="116.17077166126658">
        <ele>72.34130859375</ele>
        <time>2026-08-17T12:13:57Z</time>
      </trkpt>
      <trkpt lat="39.90964224957114" lon="116.17076167183743">
        <ele>74.1151123046875</ele>
        <time>2026-08-17T12:14:12Z</time>
      </trkpt>
      <trkpt lat="39.909587261246955" lon="116.17076669284077">
        <ele>75.26318359375</ele>
        <time>2026-08-17T12:14:15Z</time>
      </trkpt>
      <trkpt lat="39.90960703560734" lon="116.17118386040947">
        <ele>72.83941650390625</ele>
        <time>2026-08-17T12:14:33Z</time>
      </trkpt>
      <trkpt lat="39.90961781705584" lon="116.17160503920627">
        <ele>74.33856201171875</ele>
        <time>2026-08-17T12:14:51Z</time>
      </trkpt>
      <trkpt lat="39.90961759444634" lon="116.17202421254265">
        <ele>73.93438720703125</ele>
        <time>2026-08-17T12:15:09Z</time>
      </trkpt>
      <trkpt lat="39.90963910635189" lon="116.17230098384455">
        <ele>73.06494140625</ele>
        <time>2026-08-17T12:15:21Z</time>
      </trkpt>
      <trkpt lat="39.90962476229114" lon="116.17265497474497">
        <ele>72.00927734375</ele>
        <time>2026-08-17T12:15:36Z</time>
      </trkpt>
      <trkpt lat="39.90961917617231" lon="116.17287859977121">
        <ele>73.14215087890625</ele>
        <time>2026-08-17T12:15:45Z</time>
      </trkpt>
      <trkpt lat="39.909571435907274" lon="116.17301799473024">
        <ele>72.25543212890625</ele>
        <time>2026-08-17T12:15:54Z</time>
      </trkpt>
      <trkpt lat="39.9095245398494" lon="116.17307315449273">
        <ele>73.781005859375</ele>
        <time>2026-08-17T12:16:03Z</time>
      </trkpt>
      <trkpt lat="39.909563358573976" lon="116.17351738787279">
        <ele>73.84246826171875</ele>
        <time>2026-08-17T12:16:33Z</time>
      </trkpt>
      <trkpt lat="39.909586119509925" lon="116.17393053505525">
        <ele>74.13531494140625</ele>
        <time>2026-08-17T12:16:57Z</time>
      </trkpt>
      <trkpt lat="39.90957331960504" lon="116.1740388378775">
        <ele>73.32763671875</ele>
        <time>2026-08-17T12:17:03Z</time>
      </trkpt>
      <trkpt lat="39.909597824473025" lon="116.17431359847455">
        <ele>73.16845703125</ele>
        <time>2026-08-17T12:17:18Z</time>
      </trkpt>
      <trkpt lat="39.90960227807333" lon="116.17456028293556">
        <ele>72.31939697265625</ele>
        <time>2026-08-17T12:17:30Z</time>
      </trkpt>
      <trkpt lat="39.90958864544467" lon="116.17475983835554">
        <ele>71.2808837890625</ele>
        <time>2026-08-17T12:17:39Z</time>
      </trkpt>
      <trkpt lat="39.909604000250376" lon="116.17495337304611">
        <ele>71.662353515625</ele>
        <time>2026-08-17T12:17:48Z</time>
      </trkpt>
      <trkpt lat="39.909581744411206" lon="116.1753584978874">
        <ele>67.839599609375</ele>
        <time>2026-08-17T12:18:06Z</time>
      </trkpt>
      <trkpt lat="39.90955301209223" lon="116.17550390379206">
        <ele>67.51171875</ele>
        <time>2026-08-17T12:18:15Z</time>
      </trkpt>
      <trkpt lat="39.90948524456584" lon="116.17562925893918">
        <ele>69.0994873046875</ele>
        <time>2026-08-17T12:18:30Z</time>
      </trkpt>
      <trkpt lat="39.90953190672203" lon="116.17599225588359">
        <ele>69.66693115234375</ele>
        <time>2026-08-17T12:18:54Z</time>
      </trkpt>
      <trkpt lat="39.9095865455301" lon="116.1763432171649">
        <ele>68.31768798828125</ele>
        <time>2026-08-17T12:19:09Z</time>
      </trkpt>
      <trkpt lat="39.90958720574528" lon="116.17670521416359">
        <ele>68.02069091796875</ele>
        <time>2026-08-17T12:19:24Z</time>
      </trkpt>
      <trkpt lat="39.90960485682899" lon="116.17706319642765">
        <ele>68.9541015625</ele>
        <time>2026-08-17T12:19:39Z</time>
      </trkpt>
      <trkpt lat="39.90960959475434" lon="116.17746931076375">
        <ele>68.83526611328125</ele>
        <time>2026-08-17T12:19:57Z</time>
      </trkpt>
      <trkpt lat="39.90960533521202" lon="116.17787742961737">
        <ele>68.575927734375</ele>
        <time>2026-08-17T12:20:15Z</time>
      </trkpt>
      <trkpt lat="39.90958598772388" lon="116.17823741666191">
        <ele>68.4849853515625</ele>
        <time>2026-08-17T12:20:30Z</time>
      </trkpt>
      <trkpt lat="39.909590368170065" lon="116.1784479912584">
        <ele>68.3231201171875</ele>
        <time>2026-08-17T12:20:39Z</time>
      </trkpt>
      <trkpt lat="39.909632422521504" lon="116.17847907081993">
        <ele>68.5435791015625</ele>
        <time>2026-08-17T12:20:42Z</time>
      </trkpt>
      <trkpt lat="39.909737448814305" lon="116.17849610413478">
        <ele>68.1337890625</ele>
        <time>2026-08-17T12:20:48Z</time>
      </trkpt>
      <trkpt lat="39.90978350479156" lon="116.17852818590887">
        <ele>68.44610595703125</ele>
        <time>2026-08-17T12:20:51Z</time>
      </trkpt>
      <trkpt lat="39.909855691775" lon="116.17863346405957">
        <ele>68.68853759765625</ele>
        <time>2026-08-17T12:20:57Z</time>
      </trkpt>
      <trkpt lat="39.91013169625876" lon="116.17864245395542">
        <ele>68.31597900390625</ele>
        <time>2026-08-17T12:21:12Z</time>
      </trkpt>
      <trkpt lat="39.9103798213503" lon="116.17871762780781">
        <ele>67.6829833984375</ele>
        <time>2026-08-17T12:21:33Z</time>
      </trkpt>
      <trkpt lat="39.91054384871421" lon="116.17873665911276">
        <ele>68.91015625</ele>
        <time>2026-08-17T12:21:51Z</time>
      </trkpt>
      <trkpt lat="39.910553502377056" lon="116.17909964645426">
        <ele>69.60809326171875</ele>
        <time>2026-08-17T12:22:21Z</time>
      </trkpt>
      <trkpt lat="39.910565203234405" lon="116.17948970516353">
        <ele>70.85736083984375</ele>
        <time>2026-08-17T12:22:42Z</time>
      </trkpt>
      <trkpt lat="39.91055192511879" lon="116.17989179737494">
        <ele>71.5611572265625</ele>
        <time>2026-08-17T12:23:00Z</time>
      </trkpt>
      <trkpt lat="39.91053965417379" lon="116.18029890056988">
        <ele>68.73516845703125</ele>
        <time>2026-08-17T12:23:18Z</time>
      </trkpt>
      <trkpt lat="39.91053977959262" lon="116.18036909023648">
        <ele>69.2169189453125</ele>
        <time>2026-08-17T12:23:21Z</time>
      </trkpt>
      <trkpt lat="39.91058982761097" lon="116.18039715979599">
        <ele>69.018798828125</ele>
        <time>2026-08-17T12:23:27Z</time>
      </trkpt>
      <trkpt lat="39.91086478543354" lon="116.18038007917677">
        <ele>69.4715576171875</ele>
        <time>2026-08-17T12:23:48Z</time>
      </trkpt>
      <trkpt lat="39.91120377278209" lon="116.18038103926746">
        <ele>68.16741943359375</ele>
        <time>2026-08-17T12:24:09Z</time>
      </trkpt>
      <trkpt lat="39.911316755433326" lon="116.18037400609914">
        <ele>67.6630859375</ele>
        <time>2026-08-17T12:24:21Z</time>
      </trkpt>
      <trkpt lat="39.9113989238519" lon="116.18047025577532">
        <ele>66.95355224609375</ele>
        <time>2026-08-17T12:24:30Z</time>
      </trkpt>
      <trkpt lat="39.91147834444201" lon="116.18070788706014">
        <ele>67.18109130859375</ele>
        <time>2026-08-17T12:24:39Z</time>
      </trkpt>
      <trkpt lat="39.91151844282102" lon="116.18076403341249">
        <ele>66.79827880859375</ele>
        <time>2026-08-17T12:24:42Z</time>
      </trkpt>
      <trkpt lat="39.91157147272815" lon="116.18078207539756">
        <ele>67.091796875</ele>
        <time>2026-08-17T12:24:45Z</time>
      </trkpt>
      <trkpt lat="39.91185943190056" lon="116.18076599595221">
        <ele>64.7447509765625</ele>
        <time>2026-08-17T12:25:00Z</time>
      </trkpt>
      <trkpt lat="39.91214944996196" lon="116.1807830054417">
        <ele>63.6983642578125</ele>
        <time>2026-08-17T12:25:15Z</time>
      </trkpt>
      <trkpt lat="39.91241845641769" lon="116.1807929986503">
        <ele>64.5740966796875</ele>
        <time>2026-08-17T12:25:30Z</time>
      </trkpt>
      <trkpt lat="39.91270451217697" lon="116.18083106537527">
        <ele>65.96380615234375</ele>
        <time>2026-08-17T12:25:45Z</time>
      </trkpt>
      <trkpt lat="39.91294956966649" lon="116.18086913723148">
        <ele>65.674560546875</ele>
        <time>2026-08-17T12:25:57Z</time>
      </trkpt>
      <trkpt lat="39.913048535120694" lon="116.18085207886438">
        <ele>64.168212890625</ele>
        <time>2026-08-17T12:26:03Z</time>
      </trkpt>
      <trkpt lat="39.91316356597071" lon="116.18087211843299">
        <ele>65.11285400390625</ele>
        <time>2026-08-17T12:26:09Z</time>
      </trkpt>
      <trkpt lat="39.91345652144486" lon="116.18085403297691">
        <ele>70.1748046875</ele>
        <time>2026-08-17T12:26:24Z</time>
      </trkpt>
      <trkpt lat="39.91374750380071" lon="116.18085098828999">
        <ele>68.00067138671875</ele>
        <time>2026-08-17T12:26:39Z</time>
      </trkpt>
      <trkpt lat="39.91387248066785" lon="116.18084094556015">
        <ele>66.5311279296875</ele>
        <time>2026-08-17T12:26:45Z</time>
      </trkpt>
      <trkpt lat="39.91390564888751" lon="116.18093619799392">
        <ele>65.9798583984375</ele>
        <time>2026-08-17T12:26:51Z</time>
      </trkpt>
      <trkpt lat="39.913905016357596" lon="116.1811427539955">
        <ele>65.29315185546875</ele>
        <time>2026-08-17T12:27:00Z</time>
      </trkpt>
      <trkpt lat="39.91387624919586" lon="116.18127310807904">
        <ele>65.4910888671875</ele>
        <time>2026-08-17T12:27:06Z</time>
      </trkpt>
      <trkpt lat="39.91391873493789" lon="116.18154784049996">
        <ele>66.49981689453125</ele>
        <time>2026-08-17T12:27:18Z</time>
      </trkpt>
      <trkpt lat="39.913899025369396" lon="116.18171128126873">
        <ele>65.7452392578125</ele>
        <time>2026-08-17T12:27:24Z</time>
      </trkpt>
      <trkpt lat="39.91391742381491" lon="116.18193688322044">
        <ele>65.426513671875</ele>
        <time>2026-08-17T12:27:33Z</time>
      </trkpt>
      <trkpt lat="39.91391413743363" lon="116.18234096376237">
        <ele>65.348876953125</ele>
        <time>2026-08-17T12:27:48Z</time>
      </trkpt>
      <trkpt lat="39.913943251091794" lon="116.18240613405342">
        <ele>65.6273193359375</ele>
        <time>2026-08-17T12:27:51Z</time>
      </trkpt>
      <trkpt lat="39.9139386750133" lon="116.18264677625852">
        <ele>65.38885498046875</ele>
        <time>2026-08-17T12:28:00Z</time>
      </trkpt>
      <trkpt lat="39.913959942094635" lon="116.18279917942246">
        <ele>63.4764404296875</ele>
        <time>2026-08-17T12:28:06Z</time>
      </trkpt>
      <trkpt lat="39.9139263660225" lon="116.18303982358931">
        <ele>64.89337158203125</ele>
        <time>2026-08-17T12:28:15Z</time>
      </trkpt>
      <trkpt lat="39.913885634939945" lon="116.18319223346629">
        <ele>67.893798828125</ele>
        <time>2026-08-17T12:28:24Z</time>
      </trkpt>
      <trkpt lat="39.91386240415201" lon="116.18363140035282">
        <ele>64.94134521484375</ele>
        <time>2026-08-17T12:28:54Z</time>
      </trkpt>
      <trkpt lat="39.91389183848659" lon="116.18388105676671">
        <ele>64.96331787109375</ele>
        <time>2026-08-17T12:29:12Z</time>
      </trkpt>
      <trkpt lat="39.91388511820882" lon="116.18404148115917">
        <ele>68.7000732421875</ele>
        <time>2026-08-17T12:29:24Z</time>
      </trkpt>
      <trkpt lat="39.9138927383593" lon="116.18439842083636">
        <ele>67.7017822265625</ele>
        <time>2026-08-17T12:29:54Z</time>
      </trkpt>
      <trkpt lat="39.913893922711964" lon="116.18450470028996">
        <ele>66.66973876953125</ele>
        <time>2026-08-17T12:30:03Z</time>
      </trkpt>
    </trkseg>
  </trk>
</gpx>