<?xml version="1.0" encoding="UTF-8"?>
<gpx xmlns="http://www.topografix.com/GPX/1/1" xmlns:gpxtpx="http://www.garmin.com/xmlschemas/TrackPointExtension/v1" xmlns:xsi="http://www.w3.org/2001/XMLSchema-instance" xsi:schemaLocation="http://www.topografix.com/GPX/1/1 http://www.topografix.com/GPX/1/1/gpx.xsd" version="1.1" creator="gpx.py -- https://github.com/tkrajina/gpxpy">
  <trk>
    <name>gpx from keep</name>
    <type>Run</type>
    <trkseg>
      <trkpt lat="39.91325126321595" lon="116.18643080894806">
        <ele>63.2518310546875</ele>
        <time>2026-08-09T11:19:42Z</time>
      </trkpt>
      <trkpt lat="39.91325339989902" lon="116.18651101640818">
        <ele>65.447509765625</ele>
        <time>2026-08-09T11:19:45Z</time>
      </trkpt>
      <trkpt lat="39.9130749910196" lon="116.18685392528684">
        <ele>61.7374267578125</ele>
        <time>2026-08-09T11:20:00Z</time>
      </trkpt>
      <trkpt lat="39.912893566831315" lon="116.18718881135385">
        <ele>59.7105712890625</ele>
        <time>2026-08-09T11:20:15Z</time>
      </trkpt>
      <trkpt lat="39.91271616268873" lon="116.18753672791371">
        <ele>60.27130126953125</ele>
        <time>2026-08-09T11:20:30Z</time>
      </trkpt>
      <trkpt lat="39.91259578453009" lon="116.18790268080512">
        <ele>60.37774658203125</ele>
        <time>2026-08-09T11:20:45Z</time>
      </trkpt>
      <trkpt lat="39.91258343487303" lon="116.18828967081487">
        <ele>62.8323974609375</ele>
        <time>2026-08-09T11:21:03Z</time>
      </trkpt>
      <trkpt lat="39.912576077472295" lon="116.18867364913083">
        <ele>63.982177734375</ele>
        <time>2026-08-09T11:21:24Z</time>
      </trkpt>
      <trkpt lat="39.91259879128941" lon="116.18910273446156">
        <ele>60.215576171875</ele>
        <time>2026-08-09T11:21:48Z</time>
      </trkpt>
      <trkpt lat="39.91259754605688" lon="116.18955788415313">
        <ele>58.66485595703125</ele>
        <time>2026-08-09T11:22:12Z</time>
      </trkpt>
      <trkpt lat="39.91259013231875" lon="116.18991277797232">
        <ele>60.2288818359375</ele>
        <time>2026-08-09T11:22:30Z</time>
      </trkpt>
      <trkpt lat="39.91260072050452" lon="116.19027067400154">
        <ele>60.121826171875</ele>
        <time>2026-08-09T11:22:48Z</time>
      </trkpt>
      <trkpt lat="39.91259732499267" lon="116.19063959613328">
        <ele>60.49041748046875</ele>
        <time>2026-08-09T11:23:03Z</time>
      </trkpt>
      <trkpt lat="39.91260294455252" lon="116.19101954113835">
        <ele>59.75811767578125</ele>
        <time>2026-08-09T11:23:18Z</time>
      </trkpt>
      <trkpt lat="39.9126075143476" lon="116.19137041067427">
        <ele>61.46673583984375</ele>
        <time>2026-08-09T11:23:30Z</time>
      </trkpt>
      <trkpt lat="39.91258815241957" lon="116.19176438635567">
        <ele>59.30523681640625</ele>
        <time>2026-08-09T11:23:45Z</time>
      </trkpt>
      <trkpt lat="39.912597841031086" lon="116.19219243803782">
        <ele>62.3544921875</ele>
        <time>2026-08-09T11:24:00Z</time>
      </trkpt>
      <trkpt lat="39.9125960967688" lon="116.19235182909226">
        <ele>60.81103515625</ele>
        <time>2026-08-09T11:24:06Z</time>
      </trkpt>
      <trkpt lat="39.91256431480078" lon="116.19248716438962">
        <ele>61.03350830078125</ele>
        <time>2026-08-09T11:24:12Z</time>
      </trkpt>
      <trkpt lat="39.91260398335548" lon="116.19290718462227">
        <ele>60.54107666015625</ele>
        <time>2026-08-09T11:24:27Z</time>
      </trkpt>
      <trkpt lat="39.912599601070006" lon="116.19329613029733">
        <ele>61.1883544921875</ele>
        <time>2026-08-09T11:24:42Z</time>
      </trkpt>
      <trkpt lat="39.91259825036779" lon="116.19370712470993">
        <ele>61.32904052734375</ele>
        <time>2026-08-09T11:24:57Z</time>
      </trkpt>
      <trkpt lat="39.91258687308732" lon="116.19410307960379">
        <ele>61.0296630859375</ele>
        <time>2026-08-09T11:25:12Z</time>
      </trkpt>
      <trkpt lat="39.91260049933153" lon="116.1945040389822">
        <ele>60.47711181640625</ele>
        <time>2026-08-09T11:25:27Z</time>
      </trkpt>
      <trkpt lat="39.91263209503225" lon="116.19488795101618">
        <ele>57.65960693359375</ele>
        <time>2026-08-09T11:25:42Z</time>
      </trkpt>
      <trkpt lat="39.912606473308905" lon="116.19513153321098">
        <ele>59.822265625</ele>
        <time>2026-08-09T11:25:51Z</time>
      </trkpt>
      <trkpt lat="39.91261761376509" lon="116.19522274820051">
        <ele>59.3466796875</ele>
        <time>2026-08-09T11:25:57Z</time>
      </trkpt>
      <trkpt lat="39.912608727066115" lon="116.19529592272293">
        <ele>57.448486328125</ele>
        <time>2026-08-09T11:26:00Z</time>
      </trkpt>
      <trkpt lat="39.91262307995666" lon="116.19552546390639">
        <ele>58.0316162109375</ele>
        <time>2026-08-09T11:26:09Z</time>
      </trkpt>
      <trkpt lat="39.912597708035044" lon="116.19593443069022">
        <ele>58.361572265625</ele>
        <time>2026-08-09T11:26:24Z</time>
      </trkpt>
      <trkpt lat="39.91259406920927" lon="116.19617098628734">
        <ele>58.82818603515625</ele>
        <time>2026-08-09T11:26:33Z</time>
      </trkpt>
      <trkpt lat="39.912614263648564" lon="116.19629928416221">
        <ele>56.5101318359375</ele>
        <time>2026-08-09T11:26:39Z</time>
      </trkpt>
      <trkpt lat="39.912595928442464" lon="116.19673730835977">
        <ele>59.7908935546875</ele>
        <time>2026-08-09T11:26:54Z</time>
      </trkpt>
      <trkpt lat="39.91259550842229" lon="116.19712220162523">
        <ele>59.7437744140625</ele>
        <time>2026-08-09T11:27:12Z</time>
      </trkpt>
      <trkpt lat="39.9125931091088" lon="116.19752312757755">
        <ele>59.4403076171875</ele>
        <time>2026-08-09T11:27:33Z</time>
      </trkpt>
      <trkpt lat="39.9126144891709" lon="116.19777871243802">
        <ele>59.04193115234375</ele>
        <time>2026-08-09T11:27:45Z</time>
      </trkpt>
      <trkpt lat="39.912592029862054" lon="116.19814254814284">
        <ele>58.39947509765625</ele>
        <time>2026-08-09T11:28:00Z</time>
      </trkpt>
      <trkpt lat="39.91261564953442" lon="116.19856350372342">
        <ele>56.809814453125</ele>
        <time>2026-08-09T11:28:15Z</time>
      </trkpt>
      <trkpt lat="39.912585257117144" lon="116.1989774446487">
        <ele>59.1868896484375</ele>
        <time>2026-08-09T11:28:30Z</time>
      </trkpt>
      <trkpt lat="39.912608798764296" lon="116.19935028113666">
        <ele>58.43243408203125</ele>
        <time>2026-08-09T11:28:45Z</time>
      </trkpt>
      <trkpt lat="39.91259936306611" lon="116.19974015534169">
        <ele>57.86602783203125</ele>
        <time>2026-08-09T11:29:00Z</time>
      </trkpt>
      <trkpt lat="39.91259598372543" lon="116.20017211730205">
        <ele>58.20404052734375</ele>
        <time>2026-08-09T11:29:15Z</time>
      </trkpt>
      <trkpt lat="39.91259909540794" lon="116.20025029027664">
        <ele>58.677978515625</ele>
        <time>2026-08-09T11:29:18Z</time>
      </trkpt>
      <trkpt lat="39.912618173353195" lon="116.20030541001456">
        <ele>59.38006591796875</ele>
        <time>2026-08-09T11:29:21Z</time>
      </trkpt>
      <trkpt lat="39.912674206750694" lon="116.20033045848619">
        <ele>59.20654296875</ele>
        <time>2026-08-09T11:29:30Z</time>
      </trkpt>
      <trkpt lat="39.91264528519373" lon="116.20038458186387">
        <ele>59.07818603515625</ele>
        <time>2026-08-09T11:29:42Z</time>
      </trkpt>
      <trkpt lat="39.912624622696256" lon="116.20062110671847">
        <ele>57.71368408203125</ele>
        <time>2026-08-09T11:29:54Z</time>
      </trkpt>
      <trkpt lat="39.91268566991507" lon="116.2006561763845">
        <ele>58.29962158203125</ele>
        <time>2026-08-09T11:30:00Z</time>
      </trkpt>
      <trkpt lat="39.91285062592893" lon="116.20063009834314">
        <ele>59.38507080078125</ele>
        <time>2026-08-09T11:30:18Z</time>
      </trkpt>
      <trkpt lat="39.91306161984061" lon="116.20063207638108">
        <ele>61.189208984375</ele>
        <time>2026-08-09T11:30:33Z</time>
      </trkpt>
      <trkpt lat="39.913120568942226" lon="116.20059799389401">
        <ele>62.47711181640625</ele>
        <time>2026-08-09T11:30:36Z</time>
      </trkpt>
      <trkpt lat="39.913413674654386" lon="116.20068114055428">
        <ele>59.6107177734375</ele>
        <time>2026-08-09T11:30:51Z</time>
      </trkpt>
      <trkpt lat="39.913733644067904" lon="116.20066907406117">
        <ele>61.53961181640625</ele>
        <time>2026-08-09T11:31:12Z</time>
      </trkpt>
      <trkpt lat="39.91407167956485" lon="116.20070410904084">
        <ele>60.3309326171875</ele>
        <time>2026-08-09T11:31:36Z</time>
      </trkpt>
      <trkpt lat="39.91421564790335" lon="116.20068605131996">
        <ele>60.65478515625</ele>
        <time>2026-08-09T11:31:45Z</time>
      </trkpt>
      <trkpt lat="39.91452969578636" lon="116.20072910692457">
        <ele>61.90716552734375</ele>
        <time>2026-08-09T11:32:00Z</time>
      </trkpt>
      <trkpt lat="39.914852686451674" lon="116.20073207315697">
        <ele>62.3060302734375</ele>
        <time>2026-08-09T11:32:15Z</time>
      </trkpt>
      <trkpt lat="39.9151786926304" lon="116.2007460632689">
        <ele>60.41925048828125</ele>
        <time>2026-08-09T11:32:30Z</time>
      </trkpt>
      <trkpt lat="39.9154376831703" lon="116.20074703309105">
        <ele>55.91717529296875</ele>
        <time>2026-08-09T11:32:42Z</time>
      </trkpt>
      <trkpt lat="39.91547076979585" lon="116.20080916560046">
        <ele>54.95013427734375</ele>
        <time>2026-08-09T11:32:45Z</time>
      </trkpt>
      <trkpt lat="39.915462332875144" lon="116.20120804077915">
        <ele>56.6817626953125</ele>
        <time>2026-08-09T11:33:03Z</time>
      </trkpt>
      <trkpt lat="39.91545790441487" lon="116.20161592971523">
        <ele>58.07861328125</ele>
        <time>2026-08-09T11:33:24Z</time>
      </trkpt>
      <trkpt lat="39.91545646609521" lon="116.20201980400992">
        <ele>58.014892578125</ele>
        <time>2026-08-09T11:33:45Z</time>
      </trkpt>
      <trkpt lat="39.91545899866212" lon="116.20240563357575">
        <ele>58.20892333984375</ele>
        <time>2026-08-09T11:34:03Z</time>
      </trkpt>
      <trkpt lat="39.91545856038912" lon="116.20281550964269">
        <ele>58.7581787109375</ele>
        <time>2026-08-09T11:34:21Z</time>
      </trkpt>
      <trkpt lat="39.91545807025798" lon="116.20319030565757">
        <ele>58.9075927734375</ele>
        <time>2026-08-09T11:34:36Z</time>
      </trkpt>
      <trkpt lat="39.91546562197216" lon="116.20359916743118">
        <ele>56.23486328125</ele>
        <time>2026-08-09T11:34:51Z</time>
      </trkpt>
      <trkpt lat="39.9154591284362" lon="116.20397696017866">
        <ele>59.59326171875</ele>
        <time>2026-08-09T11:35:06Z</time>
      </trkpt>
      <trkpt lat="39.91545160062824" lon="116.20433170013148">
        <ele>60.5987548828125</ele>
        <time>2026-08-09T11:35:24Z</time>
      </trkpt>
      <trkpt lat="39.9154561519915" lon="116.20474956432425">
        <ele>60.51025390625</ele>
        <time>2026-08-09T11:35:48Z</time>
      </trkpt>
      <trkpt lat="39.91545542276519" lon="116.20495598929364">
        <ele>62.92254638671875</ele>
        <time>2026-08-09T11:36:00Z</time>
      </trkpt>
      <trkpt lat="39.915481710841334" lon="116.20517744011255">
        <ele>61.05023193359375</ele>
        <time>2026-08-09T11:36:12Z</time>
      </trkpt>
      <trkpt lat="39.915481294283495" lon="116.20562735725981">
        <ele>60.84600830078125</ele>
        <time>2026-08-09T11:36:36Z</time>
      </trkpt>
      <trkpt lat="39.91546072170732" lon="116.20595903116181">
        <ele>59.8741455078125</ele>
        <time>2026-08-09T11:36:54Z</time>
      </trkpt>
      <trkpt lat="39.91553068922665" lon="116.20593597590637">
        <ele>59.8748779296875</ele>
        <time>2026-08-09T11:37:21Z</time>
      </trkpt>
      <trkpt lat="39.91567672804667" lon="116.20597102844883">
        <ele>59.65899658203125</ele>
        <time>2026-08-09T11:37:33Z</time>
      </trkpt>
      <trkpt lat="39.91572921296838" lon="116.20635278944945">
        <ele>60.7418212890625</ele>
        <time>2026-08-09T11:37:54Z</time>
      </trkpt>
      <trkpt lat="39.9157785004797" lon="116.20658124003437">
        <ele>59.76763916015625</ele>
        <time>2026-08-09T11:38:06Z</time>
      </trkpt>
      <trkpt lat="39.915890839331674" lon="116.20685376834479">
        <ele>58.94708251953125</ele>
        <time>2026-08-09T11:38:21Z</time>
      </trkpt>
      <trkpt lat="39.91601586304572" lon="116.20687679846652">
        <ele>59.006591796875</ele>
        <time>2026-08-09T11:38:30Z</time>
      </trkpt>
      <trkpt lat="39.91619328692094" lon="116.20722145792966">
        <ele>55.97711181640625</ele>
        <time>2026-08-09T11:38:51Z</time>
      </trkpt>
      <trkpt lat="39.91635065250464" lon="116.20752102709768">
        <ele>52.37713623046875</ele>
        <time>2026-08-09T11:39:09Z</time>
      </trkpt>
      <trkpt lat="39.91655297300072" lon="116.20778752281133">
        <ele>50.017822265625</ele>
        <time>2026-08-09T11:39:24Z</time>
      </trkpt>
      <trkpt lat="39.91668920595079" lon="116.20798188405752">
        <ele>47.75970458984375</ele>
        <time>2026-08-09T11:39:33Z</time>
      </trkpt>
      <trkpt lat="39.916814694223596" lon="116.2083866514588">
        <ele>48.58331298828125</ele>
        <time>2026-08-09T11:39:48Z</time>
      </trkpt>
      <trkpt lat="39.91689609769153" lon="116.20872328776386">
        <ele>50.955078125</ele>
        <time>2026-08-09T11:40:00Z</time>
      </trkpt>
      <trkpt lat="39.916952516873195" lon="116.20907495136748">
        <ele>51.93145751953125</ele>
        <time>2026-08-09T11:40:12Z</time>
      </trkpt>
      <trkpt lat="39.917032957535085" lon="116.20944864873636">
        <ele>51.32403564453125</ele>
        <time>2026-08-09T11:40:27Z</time>
      </trkpt>
      <trkpt lat="39.91706641837908" lon="116.20984138211307">
        <ele>49.02276611328125</ele>
        <time>2026-08-09T11:40:42Z</time>
      </trkpt>
      <trkpt lat="39.91709362680994" lon="116.21002071349085">
        <ele>50.77593994140625</ele>
        <time>2026-08-09T11:40:48Z</time>
      </trkpt>
      <trkpt lat="39.91710380941437" lon="116.21017800480269">
        <ele>49.28961181640625</ele>
        <time>2026-08-09T11:40:54Z</time>
      </trkpt>
      <trkpt lat="39.91716720408579" lon="116.21052163269135">
        <ele>49.7940673828125</ele>
        <time>2026-08-09T11:41:06Z</time>
      </trkpt>
      <trkpt lat="39.91723166715073" lon="116.21092837115204">
        <ele>49.2811279296875</ele>
        <time>2026-08-09T11:41:21Z</time>
      </trkpt>
      <trkpt lat="39.917331106868524" lon="116.2113200714088">
        <ele>49.75927734375</ele>
        <time>2026-08-09T11:41:36Z</time>
      </trkpt>
      <trkpt lat="39.917371546666025" lon="116.21171377644454">
        <ele>50.4383544921875</ele>
        <time>2026-08-09T11:41:51Z</time>
      </trkpt>
      <trkpt lat="39.91740000658169" lon="116.21212951590772">
        <ele>49.5145263671875</ele>
        <time>2026-08-09T11:42:09Z</time>
      </trkpt>
      <trkpt lat="39.917430430559804" lon="116.2125171986486">
        <ele>49.71826171875</ele>
        <time>2026-08-09T11:42:24Z</time>
      </trkpt>
      <trkpt lat="39.91747187648648" lon="116.21292991759499">
        <ele>49.96356201171875</ele>
        <time>2026-08-09T11:42:39Z</time>
      </trkpt>
      <trkpt lat="39.91749712949379" lon="116.21316632607">
        <ele>50.2889404296875</ele>
        <time>2026-08-09T11:42:48Z</time>
      </trkpt>
      <trkpt lat="39.91750351450836" lon="116.21352795044483">
        <ele>50.006591796875</ele>
        <time>2026-08-09T11:43:00Z</time>
      </trkpt>
      <trkpt lat="39.917559934309715" lon="116.21392862977177">
        <ele>48.2867431640625</ele>
        <time>2026-08-09T11:43:15Z</time>
      </trkpt>
      <trkpt lat="39.91763535762795" lon="116.21433831523662">
        <ele>49.80596923828125</ele>
        <time>2026-08-09T11:43:30Z</time>
      </trkpt>
      <trkpt lat="39.917675780200874" lon="116.2147510030336">
        <ele>50.173583984375</ele>
        <time>2026-08-09T11:43:45Z</time>
      </trkpt>
      <trkpt lat="39.91772220623098" lon="116.2151726977863">
        <ele>50.35772705078125</ele>
        <time>2026-08-09T11:44:00Z</time>
      </trkpt>
      <trkpt lat="39.9177475736367" lon="116.21554029914974">
        <ele>50.69384765625</ele>
        <time>2026-08-09T11:44:12Z</time>
      </trkpt>
      <trkpt lat="39.91781398035418" lon="116.21595396427459">
        <ele>50.06573486328125</ele>
        <time>2026-08-09T11:44:30Z</time>
      </trkpt>
      <trkpt lat="39.91790237580539" lon="116.21636261130257">
        <ele>48.49713134765625</ele>
        <time>2026-08-09T11:44:45Z</time>
      </trkpt>
      <trkpt lat="39.91796976770429" lon="116.2167722553395">
        <ele>49.260498046875</ele>
        <time>2026-08-09T11:45:00Z</time>
      </trkpt>
      <trkpt lat="39.91800802274605" lon="116.21704167572135">
        <ele>48.64984130859375</ele>
        <time>2026-08-09T11:45:09Z</time>
      </trkpt>
      <trkpt lat="39.918033391442556" lon="116.21743428646025">
        <ele>49.4976806640625</ele>
        <time>2026-08-09T11:45:24Z</time>
      </trkpt>
      <trkpt lat="39.91805971900335" lon="116.21778783024817">
        <ele>50.22503662109375</ele>
        <time>2026-08-09T11:45:39Z</time>
      </trkpt>
      <trkpt lat="39.918084104592786" lon="116.21820947250062">
        <ele>50.62890625</ele>
        <time>2026-08-09T11:45:57Z</time>
      </trkpt>
      <trkpt lat="39.918114447252144" lon="116.21859004444946">
        <ele>49.762451171875</ele>
        <time>2026-08-09T11:46:12Z</time>
      </trkpt>
      <trkpt lat="39.918143798445946" lon="116.21898563246184">
        <ele>50.455078125</ele>
        <time>2026-08-09T11:46:27Z</time>
      </trkpt>
      <trkpt lat="39.91817812852025" lon="116.21936318641349">
        <ele>49.79205322265625</ele>
        <time>2026-08-09T11:46:42Z</time>
      </trkpt>
      <trkpt lat="39.918199544526935" lon="116.21984588819191">
        <ele>50.05401611328125</ele>
        <time>2026-08-09T11:47:00Z</time>
      </trkpt>
      <trkpt lat="39.91823589317009" lon="116.22025847753426">
        <ele>48.46380615234375</ele>
        <time>2026-08-09T11:47:15Z</time>
      </trkpt>
      <trkpt lat="39.918264189935364" lon="116.2206149809944">
        <ele>47.3453369140625</ele>
        <time>2026-08-09T11:47:30Z</time>
      </trkpt>
      <trkpt lat="39.918309404580796" lon="116.22087734481755">
        <ele>49.93304443359375</ele>
        <time>2026-08-09T11:47:39Z</time>
      </trkpt>
      <trkpt lat="39.918484676415495" lon="116.22121980056652">
        <ele>50.6539306640625</ele>
        <time>2026-08-09T11:47:54Z</time>
      </trkpt>
      <trkpt lat="39.91870384153569" lon="116.22143607215853">
        <ele>50.15814208984375</ele>
        <time>2026-08-09T11:48:06Z</time>
      </trkpt>
      <trkpt lat="39.91893990784936" lon="116.22153117354155">
        <ele>49.56414794921875</ele>
        <time>2026-08-09T11:48:18Z</time>
      </trkpt>
      <trkpt lat="39.91924489598055" lon="116.22153213693487">
        <ele>49.23260498046875</ele>
        <time>2026-08-09T11:48:33Z</time>
      </trkpt>
      <trkpt lat="39.91955489270959" lon="116.22154411481948">
        <ele>49.373779296875</ele>
        <time>2026-08-09T11:48:48Z</time>
      </trkpt>
      <trkpt lat="39.91992587653034" lon="116.22154306724454">
        <ele>50.75848388671875</ele>
        <time>2026-08-09T11:49:06Z</time>
      </trkpt>
      <trkpt lat="39.92023884117491" lon="116.22151498977986">
        <ele>49.2275390625</ele>
        <time>2026-08-09T11:49:21Z</time>
      </trkpt>
      <trkpt lat="39.920633848824934" lon="116.22154498182188">
        <ele>50.2193603515625</ele>
        <time>2026-08-09T11:49:39Z</time>
      </trkpt>
      <trkpt lat="39.92094082014621" lon="116.22152491610439">
        <ele>49.535888671875</ele>
        <time>2026-08-09T11:49:54Z</time>
      </trkpt>
      <trkpt lat="39.92125680229818" lon="116.22151886850105">
        <ele>51.14569091796875</ele>
        <time>2026-08-09T11:50:09Z</time>
      </trkpt>
      <trkpt lat="39.92138378184959" lon="116.22149982655174">
        <ele>50.6510009765625</ele>
        <time>2026-08-09T11:50:15Z</time>
      </trkpt>
      <trkpt lat="39.921584645809254" lon="116.22134058218334">
        <ele>50.08172607421875</ele>
        <time>2026-08-09T11:50:27Z</time>
      </trkpt>
      <trkpt lat="39.92180937681145" lon="116.22102010923759">
        <ele>50.03521728515625</ele>
        <time>2026-08-09T11:50:42Z</time>
      </trkpt>
      <trkpt lat="39.921913194417144" lon="116.2208027919217">
        <ele>49.94464111328125</ele>
        <time>2026-08-09T11:50:51Z</time>
      </trkpt>
      <trkpt lat="39.92193812483931" lon="116.22071967182778">
        <ele>51.8226318359375</ele>
        <time>2026-08-09T11:50:54Z</time>
      </trkpt>
      <trkpt lat="39.92195676603003" lon="116.22029005985877">
        <ele>50.40966796875</ele>
        <time>2026-08-09T11:51:09Z</time>
      </trkpt>
      <trkpt lat="39.92193146608514" lon="116.219934552243">
        <ele>52.7236328125</ele>
        <time>2026-08-09T11:51:24Z</time>
      </trkpt>
      <trkpt lat="39.92194413780957" lon="116.21955299618458">
        <ele>50.7449951171875</ele>
        <time>2026-08-09T11:51:42Z</time>
      </trkpt>
      <trkpt lat="39.92194375149587" lon="116.21911034483298">
        <ele>52.111083984375</ele>
        <time>2026-08-09T11:52:03Z</time>
      </trkpt>
      <trkpt lat="39.92193341188409" lon="116.21872677462778">
        <ele>51.3460693359375</ele>
        <time>2026-08-09T11:52:21Z</time>
      </trkpt>
      <trkpt lat="39.921920216701515" lon="116.21850844807271">
        <ele>49.06182861328125</ele>
        <time>2026-08-09T11:52:30Z</time>
      </trkpt>
      <trkpt lat="39.921915848164424" lon="116.21810183177583">
        <ele>49.66796875</ele>
        <time>2026-08-09T11:52:45Z</time>
      </trkpt>
      <trkpt lat="39.921877479296825" lon="116.21769921863056">
        <ele>50.3399658203125</ele>
        <time>2026-08-09T11:53:00Z</time>
      </trkpt>
      <trkpt lat="39.9218521299837" lon="116.21732363896838">
        <ele>48.14898681640625</ele>
        <time>2026-08-09T11:53:15Z</time>
      </trkpt>
      <trkpt lat="39.92177579626335" lon="116.21696708950157">
        <ele>48.595703125</ele>
        <time>2026-08-09T11:53:27Z</time>
      </trkpt>
      <trkpt lat="39.9217193832947" lon="116.21653340921421">
        <ele>47.72308349609375</ele>
        <time>2026-08-09T11:53:42Z</time>
      </trkpt>
      <trkpt lat="39.92165402238767" lon="116.21615881715722">
        <ele>49.2584228515625</ele>
        <time>2026-08-09T11:53:54Z</time>
      </trkpt>
      <trkpt lat="39.921585673919175" lon="116.21580124712773">
        <ele>50.2950439453125</ele>
        <time>2026-08-09T11:54:06Z</time>
      </trkpt>
      <trkpt lat="39.92148233180769" lon="116.21545269077937">
        <ele>49.69403076171875</ele>
        <time>2026-08-09T11:54:18Z</time>
      </trkpt>
      <trkpt lat="39.921409975434734" lon="116.21509511046713">
        <ele>51.26141357421875</ele>
        <time>2026-08-09T11:54:30Z</time>
      </trkpt>
      <trkpt lat="39.921328619468476" lon="116.2147415325469">
        <ele>50.87030029296875</ele>
        <time>2026-08-09T11:54:45Z</time>
      </trkpt>
      <trkpt lat="39.92125125110904" lon="116.21437993534221">
        <ele>50.38671875</ele>
        <time>2026-08-09T11:55:00Z</time>
      </trkpt>
      <trkpt lat="39.92120593063556" lon="116.2140694154868">
        <ele>48.77911376953125</ele>
        <time>2026-08-09T11:55:12Z</time>
      </trkpt>
      <trkpt lat="39.92115575885413" lon="116.21390313868245">
        <ele>48.7554931640625</ele>
        <time>2026-08-09T11:55:18Z</time>
      </trkpt>
      <trkpt lat="39.92110738403939" lon="116.21354553205414">
        <ele>48.91790771484375</ele>
        <time>2026-08-09T11:55:30Z</time>
      </trkpt>
      <trkpt lat="39.92111899955494" lon="116.21318490741206">
        <ele>48.72796630859375</ele>
        <time>2026-08-09T11:55:42Z</time>
      </trkpt>
      <trkpt lat="39.92111853020209" lon="116.21274914726939">
        <ele>49.95843505859375</ele>
        <time>2026-08-09T11:55:57Z</time>
      </trkpt>
      <trkpt lat="39.921091059422544" lon="116.21231638800987">
        <ele>48.95892333984375</ele>
        <time>2026-08-09T11:56:12Z</time>
      </trkpt>
      <trkpt lat="39.92109462721507" lon="116.21192469066281">
        <ele>51.48272705078125</ele>
        <time>2026-08-09T11:56:27Z</time>
      </trkpt>
      <trkpt lat="39.921091156937216" lon="116.21150293375264">
        <ele>50.2398681640625</ele>
        <time>2026-08-09T11:56:45Z</time>
      </trkpt>
      <trkpt lat="39.92108875505383" lon="116.21114628803039">
        <ele>50.71075439453125</ele>
        <time>2026-08-09T11:57:00Z</time>
      </trkpt>
      <trkpt lat="39.92108849674881" lon="116.21091887346294">
        <ele>49.5421142578125</ele>
        <time>2026-08-09T11:57:09Z</time>
      </trkpt>
      <trkpt lat="39.92114424491682" lon="116.21070046639521">
        <ele>49.293212890625</ele>
        <time>2026-08-09T11:57:18Z</time>
      </trkpt>
      <trkpt lat="39.921304957306965" lon="116.21045599625097">
        <ele>50.18133544921875</ele>
        <time>2026-08-09T11:57:30Z</time>
      </trkpt>
      <trkpt lat="39.92154464373995" lon="116.21019348040018">
        <ele>50.978271484375</ele>
        <time>2026-08-09T11:57:45Z</time>
      </trkpt>
      <trkpt lat="39.92181033292373" lon="116.20993596792336">
        <ele>50.3751220703125</ele>
        <time>2026-08-09T11:58:00Z</time>
      </trkpt>
      <trkpt lat="39.92190318841401" lon="116.20981573163148">
        <ele>48.976806640625</ele>
        <time>2026-08-09T11:58:06Z</time>
      </trkpt>
      <trkpt lat="39.92203876652229" lon="116.20946205041331">
        <ele>50.399169921875</ele>
        <time>2026-08-09T11:58:21Z</time>
      </trkpt>
      <trkpt lat="39.92209843363315" lon="116.20918351636054">
        <ele>50.88726806640625</ele>
        <time>2026-08-09T11:58:33Z</time>
      </trkpt>
      <trkpt lat="39.92209308314804" lon="116.2088899587376">
        <ele>51.4561767578125</ele>
        <time>2026-08-09T11:58:45Z</time>
      </trkpt>
      <trkpt lat="39.92204285404777" lon="116.20869759735223">
        <ele>52.29443359375</ele>
        <time>2026-08-09T11:58:54Z</time>
      </trkpt>
      <trkpt lat="39.9218994309397" lon="116.20834293364607">
        <ele>51.8592529296875</ele>
        <time>2026-08-09T11:59:12Z</time>
      </trkpt>
      <trkpt lat="39.921709052771334" lon="116.2080263448873">
        <ele>51.509521484375</ele>
        <time>2026-08-09T11:59:30Z</time>
      </trkpt>
      <trkpt lat="39.92148978644766" lon="116.20780193574674">
        <ele>50.450439453125</ele>
        <time>2026-08-09T11:59:45Z</time>
      </trkpt>
      <trkpt lat="39.92119667144007" lon="116.20769877098228">
        <ele>47.52410888671875</ele>
        <time>2026-08-09T12:00:00Z</time>
      </trkpt>
      <trkpt lat="39.921013643155305" lon="116.20766973706843">
        <ele>44.94000244140625</ele>
        <time>2026-08-09T12:00:09Z</time>
      </trkpt>
      <trkpt lat="39.920681724816625" lon="116.20772488614786">
        <ele>46.775634765625</ele>
        <time>2026-08-09T12:00:24Z</time>
      </trkpt>
      <trkpt lat="39.920349818734266" lon="116.20779005464512">
        <ele>46.76727294921875</ele>
        <time>2026-08-09T12:00:39Z</time>
      </trkpt>
      <trkpt lat="39.92015787473543" lon="116.2078291547662">
        <ele>46.1842041015625</ele>
        <time>2026-08-09T12:00:48Z</time>
      </trkpt>
      <trkpt lat="39.9199468477405" lon="116.20780012449129">
        <ele>48.32891845703125</ele>
        <time>2026-08-09T12:00:57Z</time>
      </trkpt>
      <trkpt lat="39.91961084933598" lon="116.20779014690973">
        <ele>49.91021728515625</ele>
        <time>2026-08-09T12:01:12Z</time>
      </trkpt>
      <trkpt lat="39.91954784331769" lon="116.2077831411013">
        <ele>49.92645263671875</ele>
        <time>2026-08-09T12:01:15Z</time>
      </trkpt>
      <trkpt lat="39.91942178932682" lon="116.20773506301806">
        <ele>47.61614990234375</ele>
        <time>2026-08-09T12:01:21Z</time>
      </trkpt>
      <trkpt lat="39.919086746418586" lon="116.20768901485488">
        <ele>49.60888671875</ele>
        <time>2026-08-09T12:01:36Z</time>
      </trkpt>
      <trkpt lat="39.918818690783034" lon="116.20763494257419">
        <ele>51.6322021484375</ele>
        <time>2026-08-09T12:01:48Z</time>
      </trkpt>
      <trkpt lat="39.91861168577641" lon="116.20762394686453">
        <ele>51.609375</ele>
        <time>2026-08-09T12:01:57Z</time>
      </trkpt>
      <trkpt lat="39.91834358667292" lon="116.20753480576985">
        <ele>51.0771484375</ele>
        <time>2026-08-09T12:02:09Z</time>
      </trkpt>
      <trkpt lat="39.918142533002154" lon="116.2074847326685">
        <ele>53.208251953125</ele>
        <time>2026-08-09T12:02:18Z</time>
      </trkpt>
      <trkpt lat="39.918022429885106" lon="116.20739757656334">
        <ele>53.4920654296875</ele>
        <time>2026-08-09T12:02:24Z</time>
      </trkpt>
      <trkpt lat="39.91782411625963" lon="116.20713909223588">
        <ele>55.5892333984375</ele>
        <time>2026-08-09T12:02:36Z</time>
      </trkpt>
      <trkpt lat="39.91770800460975" lon="116.20704592260815">
        <ele>54.13909912109375</ele>
        <time>2026-08-09T12:02:42Z</time>
      </trkpt>
      <trkpt lat="39.91758394203236" lon="116.20699183103775">
        <ele>51.57879638671875</ele>
        <time>2026-08-09T12:02:48Z</time>
      </trkpt>
      <trkpt lat="39.91740082147443" lon="116.2068896513768">
        <ele>50.21783447265625</ele>
        <time>2026-08-09T12:02:57Z</time>
      </trkpt>
      <trkpt lat="39.91712878625756" lon="116.20685261178276">
        <ele>49.769287109375</ele>
        <time>2026-08-09T12:03:09Z</time>
      </trkpt>
      <trkpt lat="39.916859748365944" lon="116.2068135677826">
        <ele>50.39007568359375</ele>
        <time>2026-08-09T12:03:21Z</time>
      </trkpt>
      <trkpt lat="39.916711760856245" lon="116.20681859621216">
        <ele>51.3953857421875</ele>
        <time>2026-08-09T12:03:27Z</time>
      </trkpt>
      <trkpt lat="39.91651889732799" lon="116.20692082309012">
        <ele>50.11981201171875</ele>
        <time>2026-08-09T12:03:36Z</time>
      </trkpt>
      <trkpt lat="39.91646896727727" lon="116.2069749365285">
        <ele>49.97100830078125</ele>
        <time>2026-08-09T12:03:40Z</time>
      </trkpt>
      <trkpt lat="39.916414175159474" lon="116.20713926827825">
        <ele>49.49224853515625</ele>
        <time>2026-08-09T12:03:45Z</time>
      </trkpt>
      <trkpt lat="39.916402299394896" lon="116.20723846540291">
        <ele>49.5390625</ele>
        <time>2026-08-09T12:03:48Z</time>
      </trkpt>
      <trkpt lat="39.91651167552689" lon="116.20754505411061">
        <ele>50.00897216796875</ele>
        <time>2026-08-09T12:04:00Z</time>
      </trkpt>
      <trkpt lat="39.91654976065031" lon="116.20761518665138">
        <ele>50.81597900390625</ele>
        <time>2026-08-09T12:04:03Z</time>
      </trkpt>
      <trkpt lat="39.91656785141439" lon="116.20768932933079">
        <ele>50.75030517578125</ele>
        <time>2026-08-09T12:04:06Z</time>
      </trkpt>
      <trkpt lat="39.91650981552235" lon="116.2076582758842">
        <ele>50.47601318359375</ele>
        <time>2026-08-09T12:04:15Z</time>
      </trkpt>
      <trkpt lat="39.916307446755646" lon="116.20735370403995">
        <ele>53.24285888671875</ele>
        <time>2026-08-09T12:04:45Z</time>
      </trkpt>
      <trkpt lat="39.91613506032803" lon="116.20703810315143">
        <ele>57.94952392578125</ele>
        <time>2026-08-09T12:05:15Z</time>
      </trkpt>
      <trkpt lat="39.916063888716025" lon="116.20689883619526">
        <ele>60.17626953125</ele>
        <time>2026-08-09T12:05:27Z</time>
      </trkpt>
      <trkpt lat="39.916011809067825" lon="116.20683371345731">
        <ele>60.20880126953125</ele>
        <time>2026-08-09T12:05:33Z</time>
      </trkpt>
      <trkpt lat="39.91595276617033" lon="116.20679764918177">
        <ele>59.706787109375</ele>
        <time>2026-08-09T12:05:39Z</time>
      </trkpt>
      <trkpt lat="39.91588782182536" lon="116.2068397408749">
        <ele>62.0230712890625</ele>
        <time>2026-08-09T12:05:45Z</time>
      </trkpt>
      <trkpt lat="39.91575434545261" lon="116.20645799689275">
        <ele>60.948974609375</ele>
        <time>2026-08-09T12:06:03Z</time>
      </trkpt>
      <trkpt lat="39.91571500054342" lon="116.2061854554531">
        <ele>61.09698486328125</ele>
        <time>2026-08-09T12:06:15Z</time>
      </trkpt>
      <trkpt lat="39.91571870188787" lon="116.20595198478905">
        <ele>60.650146484375</ele>
        <time>2026-08-09T12:06:33Z</time>
      </trkpt>
      <trkpt lat="39.91568222503554" lon="116.20558023651247">
        <ele>61.7677001953125</ele>
        <time>2026-08-09T12:06:51Z</time>
      </trkpt>
      <trkpt lat="39.91568072859142" lon="116.20519745626191">
        <ele>62.9256591796875</ele>
        <time>2026-08-09T12:07:06Z</time>
      </trkpt>
      <trkpt lat="39.91568322669588" lon="116.20481366812488">
        <ele>62.42266845703125</ele>
        <time>2026-08-09T12:07:21Z</time>
      </trkpt>
      <trkpt lat="39.915676812620234" lon="116.2044990190682">
        <ele>61.61065673828125</ele>
        <time>2026-08-09T12:07:33Z</time>
      </trkpt>
      <trkpt lat="39.91571255911662" lon="116.20430861965133">
        <ele>61.4173583984375</ele>
        <time>2026-08-09T12:07:42Z</time>
      </trkpt>
      <trkpt lat="39.91571399991788" lon="116.20388874393107">
        <ele>59.71600341796875</ele>
        <time>2026-08-09T12:07:57Z</time>
      </trkpt>
      <trkpt lat="39.91572443974319" lon="116.2034718671776">
        <ele>60.1812744140625</ele>
        <time>2026-08-09T12:08:12Z</time>
      </trkpt>
      <trkpt lat="39.91573593351526" lon="116.2030980755917">
        <ele>60.547607421875</ele>
        <time>2026-08-09T12:08:28Z</time>
      </trkpt>
      <trkpt lat="39.91574544018809" lon="116.20273630503635">
        <ele>57.83392333984375</ele>
        <time>2026-08-09T12:08:43Z</time>
      </trkpt>
      <trkpt lat="39.9157109177439" lon="116.2023544924495">
        <ele>63.3724365234375</ele>
        <time>2026-08-09T12:08:58Z</time>
      </trkpt>
      <trkpt lat="39.915711416506255" lon="116.20199171158808">
        <ele>61.67218017578125</ele>
        <time>2026-08-09T12:09:13Z</time>
      </trkpt>
      <trkpt lat="39.91570688976765" lon="116.20161289206182">
        <ele>60.57952880859375</ele>
        <time>2026-08-09T12:09:28Z</time>
      </trkpt>
      <trkpt lat="39.91571134073733" lon="116.20122103810994">
        <ele>60.1153564453125</ele>
        <time>2026-08-09T12:09:43Z</time>
      </trkpt>
      <trkpt lat="39.91570279268368" lon="116.20083218724861">
        <ele>61.13720703125</ele>
        <time>2026-08-09T12:09:58Z</time>
      </trkpt>
      <trkpt lat="39.91564668859889" lon="116.20075702900627">
        <ele>61.28387451171875</ele>
        <time>2026-08-09T12:10:04Z</time>
      </trkpt>
      <trkpt lat="39.91543573862727" lon="116.20078611930408">
        <ele>60.84552001953125</ele>
        <time>2026-08-09T12:10:19Z</time>
      </trkpt>
      <trkpt lat="39.91522069796671" lon="116.20075106904153">
        <ele>61.92193603515625</ele>
        <time>2026-08-09T12:10:28Z</time>
      </trkpt>
      <trkpt lat="39.91493170017468" lon="116.20074408974111">
        <ele>63.46441650390625</ele>
        <time>2026-08-09T12:10:40Z</time>
      </trkpt>
      <trkpt lat="39.91468568495528" lon="116.20072608080409">
        <ele>64.2972412109375</ele>
        <time>2026-08-09T12:10:52Z</time>
      </trkpt>
      <trkpt lat="39.91436571264026" lon="116.20073614286568">
        <ele>60.9134521484375</ele>
        <time>2026-08-09T12:11:10Z</time>
      </trkpt>
      <trkpt lat="39.914047814076554" lon="116.20079831927869">
        <ele>59.70233154296875</ele>
        <time>2026-08-09T12:11:28Z</time>
      </trkpt>
      <trkpt lat="39.91387477027543" lon="116.20076226157474">
        <ele>60.16400146484375</ele>
        <time>2026-08-09T12:11:37Z</time>
      </trkpt>
      <trkpt lat="39.91366266981926" lon="116.20068511825143">
        <ele>64.1744384765625</ele>
        <time>2026-08-09T12:11:46Z</time>
      </trkpt>
      <trkpt lat="39.913357667068" lon="116.20067413210595">
        <ele>64.550537109375</ele>
        <time>2026-08-09T12:12:01Z</time>
      </trkpt>
      <trkpt lat="39.91323868632091" lon="116.20068416905364">
        <ele>64.6015625</ele>
        <time>2026-08-09T12:12:07Z</time>
      </trkpt>
      <trkpt lat="39.912947661660525" lon="116.20065814804506">
        <ele>63.4244384765625</ele>
        <time>2026-08-09T12:12:22Z</time>
      </trkpt>
      <trkpt lat="39.91266961651835" lon="116.20061809446568">
        <ele>64.65716552734375</ele>
        <time>2026-08-09T12:12:40Z</time>
      </trkpt>
      <trkpt lat="39.91261162324738" lon="116.20062110834371">
        <ele>63.1824951171875</ele>
        <time>2026-08-09T12:12:52Z</time>
      </trkpt>
      <trkpt lat="39.912576697293545" lon="116.20067222533142">
        <ele>62.2008056640625</ele>
        <time>2026-08-09T12:12:58Z</time>
      </trkpt>
      <trkpt lat="39.91260760348669" lon="116.20060707791556">
        <ele>63.12542724609375</ele>
        <time>2026-08-09T12:13:25Z</time>
      </trkpt>
      <trkpt lat="39.9125975013358" lon="116.20053492000369">
        <ele>63.33038330078125</ele>
        <time>2026-08-09T12:13:46Z</time>
      </trkpt>
      <trkpt lat="39.91262339039423" lon="116.20045774634818">
        <ele>63.30816650390625</ele>
        <time>2026-08-09T12:13:52Z</time>
      </trkpt>
      <trkpt lat="39.912626261698826" lon="116.2003675465501">
        <ele>63.24090576171875</ele>
        <time>2026-08-09T12:13:58Z</time>
      </trkpt>
      <trkpt lat="39.91261114502188" lon="116.20028536649637">
        <ele>63.2978515625</ele>
        <time>2026-08-09T12:14:04Z</time>
      </trkpt>
      <trkpt lat="39.91260470317061" lon="116.19997668192923">
        <ele>63.38568115234375</ele>
        <time>2026-08-09T12:14:22Z</time>
      </trkpt>
      <trkpt lat="39.91261335813785" lon="116.19973714687751">
        <ele>63.23712158203125</ele>
        <time>2026-08-09T12:14:34Z</time>
      </trkpt>
      <trkpt lat="39.912603203814335" lon="116.1996299084875">
        <ele>61.35760498046875</ele>
        <time>2026-08-09T12:14:40Z</time>
      </trkpt>
      <trkpt lat="39.91261862948938" lon="116.19923401862509">
        <ele>64.1761474609375</ele>
        <time>2026-08-09T12:14:58Z</time>
      </trkpt>
      <trkpt lat="39.91262905605337" lon="116.19884113117627">
        <ele>65.21807861328125</ele>
        <time>2026-08-09T12:15:16Z</time>
      </trkpt>
      <trkpt lat="39.912634763537824" lon="116.19864167873418">
        <ele>66.36834716796875</ele>
        <time>2026-08-09T12:15:28Z</time>
      </trkpt>
      <trkpt lat="39.9126291719987" lon="116.1982397653644">
        <ele>61.868896484375</ele>
        <time>2026-08-09T12:15:46Z</time>
      </trkpt>
      <trkpt lat="39.912661595960884" lon="116.19785187437046">
        <ele>60.0814208984375</ele>
        <time>2026-08-09T12:16:01Z</time>
      </trkpt>
      <trkpt lat="39.91266301778785" lon="116.1974639826051">
        <ele>61.109130859375</ele>
        <time>2026-08-09T12:16:16Z</time>
      </trkpt>
      <trkpt lat="39.912643464212664" lon="116.19709413064544">
        <ele>61.0849609375</ele>
        <time>2026-08-09T12:16:31Z</time>
      </trkpt>
      <trkpt lat="39.912611865648465" lon="116.1966962107326">
        <ele>63.16156005859375</ele>
        <time>2026-08-09T12:16:46Z</time>
      </trkpt>
      <trkpt lat="39.912602382982996" lon="116.19637746846763">
        <ele>65.9730224609375</ele>
        <time>2026-08-09T12:16:58Z</time>
      </trkpt>
      <trkpt lat="39.912611753399716" lon="116.19596449959238">
        <ele>64.73974609375</ele>
        <time>2026-08-09T12:17:13Z</time>
      </trkpt>
      <trkpt lat="39.91260912215272" lon="116.1955525295726">
        <ele>65.5850830078125</ele>
        <time>2026-08-09T12:17:28Z</time>
      </trkpt>
      <trkpt lat="39.91262453141421" lon="116.19516962133748">
        <ele>64.97674560546875</ele>
        <time>2026-08-09T12:17:43Z</time>
      </trkpt>
      <trkpt lat="39.91263795787874" lon="116.19479974018984">
        <ele>65.2105712890625</ele>
        <time>2026-08-09T12:17:58Z</time>
      </trkpt>
      <trkpt lat="39.9126222981874" lon="116.19437572919607">
        <ele>65.22747802734375</ele>
        <time>2026-08-09T12:18:16Z</time>
      </trkpt>
      <trkpt lat="39.91261479017293" lon="116.19405095083626">
        <ele>64.034423828125</ele>
        <time>2026-08-09T12:18:28Z</time>
      </trkpt>
      <trkpt lat="39.91262466862683" lon="116.19397376396228">
        <ele>63.46685791015625</ele>
        <time>2026-08-09T12:18:31Z</time>
      </trkpt>
      <trkpt lat="39.91261041556993" lon="116.19381237706361">
        <ele>63.453125</ele>
        <time>2026-08-09T12:18:37Z</time>
      </trkpt>
      <trkpt lat="39.91260775146195" lon="116.19339136006097">
        <ele>62.18682861328125</ele>
        <time>2026-08-09T12:18:52Z</time>
      </trkpt>
      <trkpt lat="39.912625111626134" lon="116.19298837962013">
        <ele>64.306396484375</ele>
        <time>2026-08-09T12:19:07Z</time>
      </trkpt>
      <trkpt lat="39.91257850330441" lon="116.19260545180836">
        <ele>63.931640625</ele>
        <time>2026-08-09T12:19:31Z</time>
      </trkpt>
      <trkpt lat="39.91256720397299" lon="116.19241799474926">
        <ele>64.4071044921875</ele>
        <time>2026-08-09T12:19:43Z</time>
      </trkpt>
      <trkpt lat="39.91261782086884" lon="116.19218040601014">
        <ele>65.9954833984375</ele>
        <time>2026-08-09T12:20:01Z</time>
      </trkpt>
      <trkpt lat="39.91262557079852" lon="116.19202502334402">
        <ele>67.10400390625</ele>
        <time>2026-08-09T12:20:13Z</time>
      </trkpt>
      <trkpt lat="39.91261345514456" lon="116.19195284734397">
        <ele>66.72607421875</ele>
        <time>2026-08-09T12:20:19Z</time>
      </trkpt>
      <trkpt lat="39.9126138646878" lon="116.19158694529172">
        <ele>66.3187255859375</ele>
        <time>2026-08-09T12:20:43Z</time>
      </trkpt>
      <trkpt lat="39.91261723085796" lon="116.1911959772792">
        <ele>65.45147705078125</ele>
        <time>2026-08-09T12:21:01Z</time>
      </trkpt>
      <trkpt lat="39.91261564834831" lon="116.19083808835308">
        <ele>65.04095458984375</ele>
        <time>2026-08-09T12:21:16Z</time>
      </trkpt>
      <trkpt lat="39.91263897044728" lon="116.19042405282514">
        <ele>64.953857421875</ele>
        <time>2026-08-09T12:21:34Z</time>
      </trkpt>
      <trkpt lat="39.91260541555837" lon="116.19008520878714">
        <ele>63.85870361328125</ele>
        <time>2026-08-09T12:21:49Z</time>
      </trkpt>
      <trkpt lat="39.912608800758235" lon="116.18971227154778">
        <ele>64.544189453125</ele>
        <time>2026-08-09T12:22:04Z</time>
      </trkpt>
      <trkpt lat="39.9126131834499" lon="116.18933933082779">
        <ele>65.0179443359375</ele>
        <time>2026-08-09T12:22:19Z</time>
      </trkpt>
      <trkpt lat="39.912599596174324" lon="116.18898543731939">
        <ele>64.82379150390625</ele>
        <time>2026-08-09T12:22:34Z</time>
      </trkpt>
      <trkpt lat="39.912619127525126" lon="116.18870472269249">
        <ele>66.22308349609375</ele>
        <time>2026-08-09T12:22:46Z</time>
      </trkpt>
      <trkpt lat="39.91257577090684" lon="116.18849018258807">
        <ele>67.872802734375</ele>
        <time>2026-08-09T12:22:58Z</time>
      </trkpt>
      <trkpt lat="39.91257577090684" lon="116.18849018258807">
        <ele>67.872802734375</ele>
        <time>2026-08-09T12:23:00Z</time>
      </trkpt>
    </trkseg>
  </trk>
</gpx>