<?xml version="1.0" encoding="UTF-8"?>
<gpx xmlns="http://www.topografix.com/GPX/1/1" xmlns:gpxtpx="http://www.garmin.com/xmlschemas/TrackPointExtension/v1" xmlns:xsi="http://www.w3.org/2001/XMLSchema-instance" xsi:schemaLocation="http://www.topografix.com/GPX/1/1 http://www.topografix.com/GPX/1/1/gpx.xsd" version="1.1" creator="gpx.py -- https://github.com/tkrajina/gpxpy">
  <trk>
    <name>gpx from keep</name>
    <type>Run</type>
    <trkseg>
      <trkpt lat="38.868944818073444" lon="115.47667265962234">
        <ele>12.54827880859375</ele>
        <time>2026-07-31T22:24:19Z</time>
      </trkpt>
      <trkpt lat="38.868968041083356" lon="115.47675496968094">
        <ele>12.82427978515625</ele>
        <time>2026-07-31T22:24:25Z</time>
      </trkpt>
      <trkpt lat="38.86892660292666" lon="115.47694268883514">
        <ele>11.893035888671875</ele>
        <time>2026-07-31T22:24:37Z</time>
      </trkpt>
      <trkpt lat="38.86893186225853" lon="115.47703403591528">
        <ele>11.754364013671875</ele>
        <time>2026-07-31T22:24:43Z</time>
      </trkpt>
      <trkpt lat="38.86898335828951" lon="115.47721672551098">
        <ele>12.45550537109375</ele>
        <time>2026-07-31T22:24:55Z</time>
      </trkpt>
      <trkpt lat="38.86900850806454" lon="115.47762126556864">
        <ele>13.29632568359375</ele>
        <time>2026-07-31T22:25:19Z</time>
      </trkpt>
      <trkpt lat="38.86904160630654" lon="115.4780087423266">
        <ele>10.778839111328125</ele>
        <time>2026-07-31T22:25:43Z</time>
      </trkpt>
      <trkpt lat="38.869031739270326" lon="115.47839923854852">
        <ele>13.3846435546875</ele>
        <time>2026-07-31T22:26:07Z</time>
      </trkpt>
      <trkpt lat="38.86901533467843" lon="115.47860201793293">
        <ele>12.09375</ele>
        <time>2026-07-31T22:26:19Z</time>
      </trkpt>
      <trkpt lat="38.86903962016812" lon="115.47870541160643">
        <ele>11.5450439453125</ele>
        <time>2026-07-31T22:26:25Z</time>
      </trkpt>
      <trkpt lat="38.86908682610614" lon="115.47878571402028">
        <ele>11.943359375</ele>
        <time>2026-07-31T22:26:31Z</time>
      </trkpt>
      <trkpt lat="38.869343926039306" lon="115.47887000621229">
        <ele>15.73590087890625</ele>
        <time>2026-07-31T22:26:49Z</time>
      </trkpt>
      <trkpt lat="38.869492868655556" lon="115.47887902263295">
        <ele>17.68072509765625</ele>
        <time>2026-07-31T22:27:01Z</time>
      </trkpt>
      <trkpt lat="38.86974798136613" lon="115.47896733062859">
        <ele>14.336669921875</ele>
        <time>2026-07-31T22:27:19Z</time>
      </trkpt>
      <trkpt lat="38.870070033287924" lon="115.47904759968262">
        <ele>16.59735107421875</ele>
        <time>2026-07-31T22:27:40Z</time>
      </trkpt>
      <trkpt lat="38.87023066683657" lon="115.47895221357007">
        <ele>13.8087158203125</ele>
        <time>2026-07-31T22:27:52Z</time>
      </trkpt>
      <trkpt lat="38.870297338705235" lon="115.47885181986304">
        <ele>13.45166015625</ele>
        <time>2026-07-31T22:27:58Z</time>
      </trkpt>
      <trkpt lat="38.87033055610352" lon="115.47858780266027">
        <ele>12.7110595703125</ele>
        <time>2026-07-31T22:28:13Z</time>
      </trkpt>
      <trkpt lat="38.87031745248795" lon="115.47820333101046">
        <ele>16.099609375</ele>
        <time>2026-07-31T22:28:34Z</time>
      </trkpt>
      <trkpt lat="38.870400256393715" lon="115.47780479646143">
        <ele>14.267578125</ele>
        <time>2026-07-31T22:28:58Z</time>
      </trkpt>
      <trkpt lat="38.87043071006964" lon="115.47762109099727">
        <ele>12.82550048828125</ele>
        <time>2026-07-31T22:29:10Z</time>
      </trkpt>
      <trkpt lat="38.87046949752984" lon="115.47755483330346">
        <ele>12.3389892578125</ele>
        <time>2026-07-31T22:29:16Z</time>
      </trkpt>
      <trkpt lat="38.87048923796688" lon="115.47746850142062">
        <ele>12.413330078125</ele>
        <time>2026-07-31T22:29:22Z</time>
      </trkpt>
      <trkpt lat="38.87049076642923" lon="115.47730487716484">
        <ele>11.958953857421875</ele>
        <time>2026-07-31T22:29:34Z</time>
      </trkpt>
      <trkpt lat="38.87053784870734" lon="115.47699468968766">
        <ele>13.96307373046875</ele>
        <time>2026-07-31T22:30:21Z</time>
      </trkpt>
      <trkpt lat="38.870596816268744" lon="115.47664635757096">
        <ele>10.857208251953125</ele>
        <time>2026-07-31T22:30:42Z</time>
      </trkpt>
      <trkpt lat="38.870601497203246" lon="115.47653593748637">
        <ele>11.52630615234375</ele>
        <time>2026-07-31T22:30:48Z</time>
      </trkpt>
      <trkpt lat="38.87056419039294" lon="115.47642150754979">
        <ele>11.62646484375</ele>
        <time>2026-07-31T22:30:54Z</time>
      </trkpt>
      <trkpt lat="38.87048205546643" lon="115.476358277617">
        <ele>11.74468994140625</ele>
        <time>2026-07-31T22:31:00Z</time>
      </trkpt>
      <trkpt lat="38.870287018456146" lon="115.47630710732591">
        <ele>12.5577392578125</ele>
        <time>2026-07-31T22:31:12Z</time>
      </trkpt>
      <trkpt lat="38.87005040126448" lon="115.47639446777521">
        <ele>14.6595458984375</ele>
        <time>2026-07-31T22:31:27Z</time>
      </trkpt>
      <trkpt lat="38.86980008804768" lon="115.47658522274641">
        <ele>13.29254150390625</ele>
        <time>2026-07-31T22:31:45Z</time>
      </trkpt>
      <trkpt lat="38.86946638459187" lon="115.4766234086543">
        <ele>13.19366455078125</ele>
        <time>2026-07-31T22:32:06Z</time>
      </trkpt>
      <trkpt lat="38.8691325027984" lon="115.47659935811721">
        <ele>15.63055419921875</ele>
        <time>2026-07-31T22:32:24Z</time>
      </trkpt>
      <trkpt lat="38.868950981555926" lon="115.4767308801789">
        <ele>13.93939208984375</ele>
        <time>2026-07-31T22:32:36Z</time>
      </trkpt>
      <trkpt lat="38.868908155273154" lon="115.4767830839109">
        <ele>14.09063720703125</ele>
        <time>2026-07-31T22:32:39Z</time>
      </trkpt>
      <trkpt lat="38.86889034668439" lon="115.47684632662457">
        <ele>12.18377685546875</ele>
        <time>2026-07-31T22:32:42Z</time>
      </trkpt>
      <trkpt lat="38.86895033064264" lon="115.47720066836123">
        <ele>16.57171630859375</ele>
        <time>2026-07-31T22:32:54Z</time>
      </trkpt>
      <trkpt lat="38.86898567734252" lon="115.47732814996262">
        <ele>15.2850341796875</ele>
        <time>2026-07-31T22:33:00Z</time>
      </trkpt>
      <trkpt lat="38.868953755602455" lon="115.47769655980274">
        <ele>18.142578125</ele>
        <time>2026-07-31T22:33:15Z</time>
      </trkpt>
      <trkpt lat="38.86897917236458" lon="115.47784612817874">
        <ele>16.01812744140625</ele>
        <time>2026-07-31T22:33:21Z</time>
      </trkpt>
      <trkpt lat="38.86896936887165" lon="115.47791238265523">
        <ele>15.52294921875</ele>
        <time>2026-07-31T22:33:24Z</time>
      </trkpt>
      <trkpt lat="38.86900372600885" lon="115.47804287753817">
        <ele>14.01666259765625</ele>
        <time>2026-07-31T22:33:30Z</time>
      </trkpt>
      <trkpt lat="38.8690133233207" lon="115.47825167554296">
        <ele>12.699951171875</ele>
        <time>2026-07-31T22:33:39Z</time>
      </trkpt>
      <trkpt lat="38.86897308261009" lon="115.47850665743374">
        <ele>9.87701416015625</ele>
        <time>2026-07-31T22:33:51Z</time>
      </trkpt>
      <trkpt lat="38.86900153115823" lon="115.47866726992031">
        <ele>11.262542724609375</ele>
        <time>2026-07-31T22:33:57Z</time>
      </trkpt>
      <trkpt lat="38.869040738639214" lon="115.47874656941075">
        <ele>11.688812255859375</ele>
        <time>2026-07-31T22:34:00Z</time>
      </trkpt>
      <trkpt lat="38.86910185254836" lon="115.47879775841702">
        <ele>12.571533203125</ele>
        <time>2026-07-31T22:34:03Z</time>
      </trkpt>
      <trkpt lat="38.86929289652961" lon="115.47884993538229">
        <ele>15.84906005859375</ele>
        <time>2026-07-31T22:34:12Z</time>
      </trkpt>
      <trkpt lat="38.86941769866367" lon="115.47880575049639">
        <ele>16.04229736328125</ele>
        <time>2026-07-31T22:34:27Z</time>
      </trkpt>
      <trkpt lat="38.86969591463035" lon="115.47893420976587">
        <ele>14.3658447265625</ele>
        <time>2026-07-31T22:34:51Z</time>
      </trkpt>
      <trkpt lat="38.86981001053373" lon="115.47898940786273">
        <ele>14.7291259765625</ele>
        <time>2026-07-31T22:35:03Z</time>
      </trkpt>
      <trkpt lat="38.87003005863453" lon="115.47904860844417">
        <ele>17.8572998046875</ele>
        <time>2026-07-31T22:35:42Z</time>
      </trkpt>
      <trkpt lat="38.87020569829989" lon="115.47895823977021">
        <ele>14.76007080078125</ele>
        <time>2026-07-31T22:35:54Z</time>
      </trkpt>
      <trkpt lat="38.87026237577346" lon="115.47885784727937">
        <ele>13.995849609375</ele>
        <time>2026-07-31T22:36:00Z</time>
      </trkpt>
      <trkpt lat="38.87033143078961" lon="115.47854463702122">
        <ele>12.53656005859375</ele>
        <time>2026-07-31T22:36:18Z</time>
      </trkpt>
      <trkpt lat="38.870318677904706" lon="115.47828163068948">
        <ele>12.7767333984375</ele>
        <time>2026-07-31T22:36:36Z</time>
      </trkpt>
      <trkpt lat="38.870390502046355" lon="115.47788811612685">
        <ele>13.59521484375</ele>
        <time>2026-07-31T22:37:06Z</time>
      </trkpt>
      <trkpt lat="38.870407026967236" lon="115.47772649646">
        <ele>14.6170654296875</ele>
        <time>2026-07-31T22:37:18Z</time>
      </trkpt>
      <trkpt lat="38.87047439941948" lon="115.47752170626522">
        <ele>15.34442138671875</ele>
        <time>2026-07-31T22:37:39Z</time>
      </trkpt>
      <trkpt lat="38.87050232711371" lon="115.47715430188398">
        <ele>14.4493408203125</ele>
        <time>2026-07-31T22:38:12Z</time>
      </trkpt>
      <trkpt lat="38.87056921459788" lon="115.47677986849543">
        <ele>13.3004150390625</ele>
        <time>2026-07-31T22:38:48Z</time>
      </trkpt>
      <trkpt lat="38.870576462375055" lon="115.47651887574834">
        <ele>14.09442138671875</ele>
        <time>2026-07-31T22:39:15Z</time>
      </trkpt>
      <trkpt lat="38.87055524715541" lon="115.47643957723955">
        <ele>14.29443359375</ele>
        <time>2026-07-31T22:39:24Z</time>
      </trkpt>
      <trkpt lat="38.870518167378556" lon="115.4764044484271">
        <ele>14.0262451171875</ele>
        <time>2026-07-31T22:39:30Z</time>
      </trkpt>
      <trkpt lat="38.870459206237676" lon="115.4764064632887">
        <ele>13.05584716796875</ele>
        <time>2026-07-31T22:39:39Z</time>
      </trkpt>
      <trkpt lat="38.87031813027321" lon="115.4763522748948">
        <ele>11.987030029296875</ele>
        <time>2026-07-31T22:41:57Z</time>
      </trkpt>
      <trkpt lat="38.870128314422516" lon="115.47637940105994">
        <ele>12.18743896484375</ele>
        <time>2026-07-31T22:42:27Z</time>
      </trkpt>
      <trkpt lat="38.87001060468716" lon="115.47645771272535">
        <ele>10.512298583984375</ele>
        <time>2026-07-31T22:42:42Z</time>
      </trkpt>
      <trkpt lat="38.86997775250712" lon="115.4765028882802">
        <ele>10.22998046875</ele>
        <time>2026-07-31T22:42:48Z</time>
      </trkpt>
      <trkpt lat="38.869838055235675" lon="115.47658120282982">
        <ele>10.3919677734375</ele>
        <time>2026-07-31T22:43:03Z</time>
      </trkpt>
      <trkpt lat="38.86974917990276" lon="115.47660731290111">
        <ele>9.167999267578125</ele>
        <time>2026-07-31T22:43:09Z</time>
      </trkpt>
      <trkpt lat="38.869612181973665" lon="115.47658123056743">
        <ele>10.6561279296875</ele>
        <time>2026-07-31T22:43:15Z</time>
      </trkpt>
      <trkpt lat="38.86950330634037" lon="115.47660332783856">
        <ele>11.47137451171875</ele>
        <time>2026-07-31T22:43:21Z</time>
      </trkpt>
      <trkpt lat="38.86944348375844" lon="115.4766535259035">
        <ele>17.75335693359375</ele>
        <time>2026-07-31T22:43:27Z</time>
      </trkpt>
      <trkpt lat="38.86938852897121" lon="115.47665855172623">
        <ele>16.27020263671875</ele>
        <time>2026-07-31T22:43:30Z</time>
      </trkpt>
      <trkpt lat="38.86928343541912" lon="115.47660536246622">
        <ele>16.65338134765625</ele>
        <time>2026-07-31T22:43:36Z</time>
      </trkpt>
      <trkpt lat="38.86919645255435" lon="115.47659433119556">
        <ele>17.125732421875</ele>
        <time>2026-07-31T22:43:39Z</time>
      </trkpt>
      <trkpt lat="38.86910358518358" lon="115.47662244939073">
        <ele>14.1275634765625</ele>
        <time>2026-07-31T22:43:42Z</time>
      </trkpt>
      <trkpt lat="38.86894800337642" lon="115.47673790725918">
        <ele>13.12799072265625</ele>
        <time>2026-07-31T22:43:51Z</time>
      </trkpt>
      <trkpt lat="38.8689183396325" lon="115.47684933464306">
        <ele>11.5009765625</ele>
        <time>2026-07-31T22:43:57Z</time>
      </trkpt>
      <trkpt lat="38.868939097524176" lon="115.47711735231923">
        <ele>13.50543212890625</ele>
        <time>2026-07-31T22:44:06Z</time>
      </trkpt>
      <trkpt lat="38.86898347941669" lon="115.47725888618028">
        <ele>13.7987060546875</ele>
        <time>2026-07-31T22:44:12Z</time>
      </trkpt>
      <trkpt lat="38.8689696310442" lon="115.47765640450086">
        <ele>15.96514892578125</ele>
        <time>2026-07-31T22:44:27Z</time>
      </trkpt>
      <trkpt lat="38.86898151838404" lon="115.47796658844577">
        <ele>17.03802490234375</ele>
        <time>2026-07-31T22:44:39Z</time>
      </trkpt>
      <trkpt lat="38.86901088999491" lon="115.47810109943113">
        <ele>14.604248046875</ele>
        <time>2026-07-31T22:44:45Z</time>
      </trkpt>
      <trkpt lat="38.86899306224064" lon="115.47815731676569">
        <ele>12.821044921875</ele>
        <time>2026-07-31T22:44:48Z</time>
      </trkpt>
      <trkpt lat="38.86900227154164" lon="115.47823160002153">
        <ele>12.2088623046875</ele>
        <time>2026-07-31T22:44:51Z</time>
      </trkpt>
      <trkpt lat="38.868970654597106" lon="115.47835808834691">
        <ele>10.606597900390625</ele>
        <time>2026-07-31T22:44:57Z</time>
      </trkpt>
      <trkpt lat="38.868986272587684" lon="115.47857491755177">
        <ele>9.244049072265625</ele>
        <time>2026-07-31T22:45:06Z</time>
      </trkpt>
      <trkpt lat="38.86901351572673" lon="115.47866425689632">
        <ele>10.370330810546875</ele>
        <time>2026-07-31T22:45:09Z</time>
      </trkpt>
      <trkpt lat="38.86905771459579" lon="115.47874154806537">
        <ele>11.14215087890625</ele>
        <time>2026-07-31T22:45:12Z</time>
      </trkpt>
      <trkpt lat="38.86915087445923" lon="115.47881481791411">
        <ele>12.4017333984375</ele>
        <time>2026-07-31T22:45:18Z</time>
      </trkpt>
      <trkpt lat="38.86934688368923" lon="115.4788559518855">
        <ele>15.54058837890625</ele>
        <time>2026-07-31T22:45:36Z</time>
      </trkpt>
      <trkpt lat="38.869469800212656" lon="115.47885091753395">
        <ele>17.83642578125</ele>
        <time>2026-07-31T22:45:48Z</time>
      </trkpt>
      <trkpt lat="38.86977501272438" lon="115.47898338901614">
        <ele>12.94598388671875</ele>
        <time>2026-07-31T22:46:30Z</time>
      </trkpt>
      <trkpt lat="38.86999008688733" lon="115.47905062106312">
        <ele>13.3946533203125</ele>
        <time>2026-07-31T22:46:54Z</time>
      </trkpt>
      <trkpt lat="38.87010797999182" lon="115.4790365525938">
        <ele>11.980743408203125</ele>
        <time>2026-07-31T22:47:06Z</time>
      </trkpt>
      <trkpt lat="38.870217697378976" lon="115.47896024601063">
        <ele>12.09906005859375</ele>
        <time>2026-07-31T22:47:18Z</time>
      </trkpt>
      <trkpt lat="38.87028125764199" lon="115.47882070235673">
        <ele>13.0777587890625</ele>
        <time>2026-07-31T22:47:30Z</time>
      </trkpt>
      <trkpt lat="38.87031805526761" lon="115.47841213071808">
        <ele>11.830230712890625</ele>
        <time>2026-07-31T22:48:06Z</time>
      </trkpt>
      <trkpt lat="38.87035002856373" lon="115.47806278912597">
        <ele>11.131591796875</ele>
        <time>2026-07-31T22:48:36Z</time>
      </trkpt>
      <trkpt lat="38.87043481473054" lon="115.47765823232359">
        <ele>11.21038818359375</ele>
        <time>2026-07-31T22:49:18Z</time>
      </trkpt>
      <trkpt lat="38.87051468949465" lon="115.47728279003533">
        <ele>10.27130126953125</ele>
        <time>2026-07-31T22:49:54Z</time>
      </trkpt>
      <trkpt lat="38.87056606060712" lon="115.4770739881707">
        <ele>11.380706787109375</ele>
        <time>2026-07-31T22:50:06Z</time>
      </trkpt>
      <trkpt lat="38.870606879680004" lon="115.47667044789543">
        <ele>11.69989013671875</ele>
        <time>2026-07-31T22:50:24Z</time>
      </trkpt>
      <trkpt lat="38.870604498393575" lon="115.47653694093047">
        <ele>12.20843505859375</ele>
        <time>2026-07-31T22:50:30Z</time>
      </trkpt>
      <trkpt lat="38.87056220300643" lon="115.47642552303586">
        <ele>12.06402587890625</ele>
        <time>2026-07-31T22:50:36Z</time>
      </trkpt>
      <trkpt lat="38.87049005097638" lon="115.47635827663501">
        <ele>11.541748046875</ele>
        <time>2026-07-31T22:50:42Z</time>
      </trkpt>
      <trkpt lat="38.87025915476509" lon="115.47634927071074">
        <ele>10.0592041015625</ele>
        <time>2026-07-31T22:50:57Z</time>
      </trkpt>
      <trkpt lat="38.87007446248543" lon="115.47642056388439">
        <ele>9.733123779296875</ele>
        <time>2026-07-31T22:51:15Z</time>
      </trkpt>
      <trkpt lat="38.86982807809412" lon="115.47658722693635">
        <ele>11.810760498046875</ele>
        <time>2026-07-31T22:51:39Z</time>
      </trkpt>
    </trkseg>
  </trk>
</gpx>