<?xml version="1.0" encoding="UTF-8"?>
<gpx xmlns="http://www.topografix.com/GPX/1/1" xmlns:gpxtpx="http://www.garmin.com/xmlschemas/TrackPointExtension/v1" xmlns:xsi="http://www.w3.org/2001/XMLSchema-instance" xsi:schemaLocation="http://www.topografix.com/GPX/1/1 http://www.topografix.com/GPX/1/1/gpx.xsd" version="1.1" creator="gpx.py -- https://github.com/tkrajina/gpxpy">
  <trk>
    <name>gpx from keep</name>
    <type>Run</type>
    <trkseg>
      <trkpt lat="39.90391733511943" lon="116.23285457447604">
        <ele>55.09478759765625</ele>
        <time>2026-10-07T00:41:11Z</time>
      </trkpt>
      <trkpt lat="39.90395938824933" lon="116.23299468566341">
        <ele>53.89642333984375</ele>
        <time>2026-10-07T00:41:17Z</time>
      </trkpt>
      <trkpt lat="39.90393447884298" lon="116.23322687954392">
        <ele>50.80908203125</ele>
        <time>2026-10-07T00:41:26Z</time>
      </trkpt>
      <trkpt lat="39.903901537093006" lon="116.23337700557512">
        <ele>48.8021240234375</ele>
        <time>2026-10-07T00:41:32Z</time>
      </trkpt>
      <trkpt lat="39.90392168613575" lon="116.23378432832371">
        <ele>48.48602294921875</ele>
        <time>2026-10-07T00:41:50Z</time>
      </trkpt>
      <trkpt lat="39.903972800590196" lon="116.23411357889796">
        <ele>46.43280029296875</ele>
        <time>2026-10-07T00:42:02Z</time>
      </trkpt>
      <trkpt lat="39.90413790029975" lon="116.23442579707553">
        <ele>46.464599609375</ele>
        <time>2026-10-07T00:42:17Z</time>
      </trkpt>
      <trkpt lat="39.90433698512329" lon="116.23470798392289">
        <ele>46.56878662109375</ele>
        <time>2026-10-07T00:42:32Z</time>
      </trkpt>
      <trkpt lat="39.90439100422351" lon="116.23477402616022">
        <ele>53.00836181640625</ele>
        <time>2026-10-07T00:42:35Z</time>
      </trkpt>
      <trkpt lat="39.90445805678192" lon="116.23494714510893">
        <ele>53.66705322265625</ele>
        <time>2026-10-07T00:42:41Z</time>
      </trkpt>
      <trkpt lat="39.90452707589856" lon="116.23501718761055">
        <ele>54.37091064453125</ele>
        <time>2026-10-07T00:42:44Z</time>
      </trkpt>
      <trkpt lat="39.90456309658868" lon="116.23508823469344">
        <ele>54.24688720703125</ele>
        <time>2026-10-07T00:42:47Z</time>
      </trkpt>
      <trkpt lat="39.90459122322001" lon="116.23550853106299">
        <ele>50.491455078125</ele>
        <time>2026-10-07T00:43:02Z</time>
      </trkpt>
      <trkpt lat="39.904633242933336" lon="116.23558157706488">
        <ele>51.3193359375</ele>
        <time>2026-10-07T00:43:05Z</time>
      </trkpt>
      <trkpt lat="39.90469225616662" lon="116.23563560745228">
        <ele>52.346923828125</ele>
        <time>2026-10-07T00:43:08Z</time>
      </trkpt>
      <trkpt lat="39.90475726206321" lon="116.2356656202677">
        <ele>52.20184326171875</ele>
        <time>2026-10-07T00:43:11Z</time>
      </trkpt>
      <trkpt lat="39.90507624114268" lon="116.23564156392088">
        <ele>51.99334716796875</ele>
        <time>2026-10-07T00:43:29Z</time>
      </trkpt>
      <trkpt lat="39.9052222403053" lon="116.23566055901075">
        <ele>52.1822509765625</ele>
        <time>2026-10-07T00:43:41Z</time>
      </trkpt>
      <trkpt lat="39.9052542591797" lon="116.23573060362551">
        <ele>51.48382568359375</ele>
        <time>2026-10-07T00:43:47Z</time>
      </trkpt>
      <trkpt lat="39.905256282604434" lon="116.23581265998712">
        <ele>50.5101318359375</ele>
        <time>2026-10-07T00:43:53Z</time>
      </trkpt>
      <trkpt lat="39.90524229317408" lon="116.23584768578743">
        <ele>51.3653564453125</ele>
        <time>2026-10-07T00:43:59Z</time>
      </trkpt>
      <trkpt lat="39.90575430891145" lon="116.24466672335136">
        <ele>51.8292236328125</ele>
        <time>2026-10-07T01:05:02Z</time>
      </trkpt>
      <trkpt lat="39.905753316923644" lon="116.24449268044313">
        <ele>50.984619140625</ele>
        <time>2026-10-07T01:05:14Z</time>
      </trkpt>
      <trkpt lat="39.90573232131333" lon="116.24440766147362">
        <ele>51.71044921875</ele>
        <time>2026-10-07T01:05:17Z</time>
      </trkpt>
      <trkpt lat="39.90550233133305" lon="116.24440769004123">
        <ele>51.68463134765625</ele>
        <time>2026-10-07T01:05:29Z</time>
      </trkpt>
      <trkpt lat="39.905386338118845" lon="116.24436269287776">
        <ele>50.30548095703125</ele>
        <time>2026-10-07T01:05:35Z</time>
      </trkpt>
      <trkpt lat="39.905346341765345" lon="116.24431068434716">
        <ele>50.01239013671875</ele>
        <time>2026-10-07T01:05:38Z</time>
      </trkpt>
      <trkpt lat="39.90533634660015" lon="116.24417765044166">
        <ele>49.7298583984375</ele>
        <time>2026-10-07T01:05:44Z</time>
      </trkpt>
      <trkpt lat="39.9054203447586" lon="116.24411562331822">
        <ele>49.696533203125</ele>
        <time>2026-10-07T01:05:50Z</time>
      </trkpt>
      <trkpt lat="39.90542734605119" lon="116.24405660638584">
        <ele>49.89166259765625</ele>
        <time>2026-10-07T01:05:53Z</time>
      </trkpt>
      <trkpt lat="39.90546634588781" lon="116.2439945844725">
        <ele>49.50543212890625</ele>
        <time>2026-10-07T01:05:59Z</time>
      </trkpt>
      <trkpt lat="39.90563333844454" lon="116.24400156566672">
        <ele>50.17333984375</ele>
        <time>2026-10-07T01:06:11Z</time>
      </trkpt>
      <trkpt lat="39.90564934291964" lon="116.24372348485275">
        <ele>50.34136962890625</ele>
        <time>2026-10-07T01:06:29Z</time>
      </trkpt>
      <trkpt lat="39.90563134539441" lon="116.24355743815697">
        <ele>51.84326171875</ele>
        <time>2026-10-07T01:06:41Z</time>
      </trkpt>
      <trkpt lat="39.905653345048144" lon="116.24332536470492">
        <ele>54.3919677734375</ele>
        <time>2026-10-07T01:06:56Z</time>
      </trkpt>
      <trkpt lat="39.905674343908395" lon="116.24325333959605">
        <ele>54.763427734375</ele>
        <time>2026-10-07T01:07:44Z</time>
      </trkpt>
      <trkpt lat="39.90563634447336" lon="116.24310429692063">
        <ele>55.30609130859375</ele>
        <time>2026-10-07T01:07:56Z</time>
      </trkpt>
      <trkpt lat="39.90565133695603" lon="116.24271316535011">
        <ele>54.8883056640625</ele>
        <time>2026-10-07T01:08:17Z</time>
      </trkpt>
      <trkpt lat="39.90558332657608" lon="116.24230503021536">
        <ele>50.7437744140625</ele>
        <time>2026-10-07T01:08:38Z</time>
      </trkpt>
      <trkpt lat="39.90553732241066" lon="116.24216198361552">
        <ele>50.29071044921875</ele>
        <time>2026-10-07T01:08:50Z</time>
      </trkpt>
      <trkpt lat="39.90543732053843" lon="116.2420329479589">
        <ele>52.422607421875</ele>
        <time>2026-10-07T01:09:02Z</time>
      </trkpt>
      <trkpt lat="39.90540631754759" lon="116.24194992043135">
        <ele>54.0205078125</ele>
        <time>2026-10-07T01:09:08Z</time>
      </trkpt>
      <trkpt lat="39.90544131249522" lon="116.24188589165111">
        <ele>55.603759765625</ele>
        <time>2026-10-07T01:09:14Z</time>
      </trkpt>
      <trkpt lat="39.905503307220314" lon="116.24184086664665">
        <ele>55.86663818359375</ele>
        <time>2026-10-07T01:09:20Z</time>
      </trkpt>
      <trkpt lat="39.905616288150014" lon="116.24161376376696">
        <ele>55.8802490234375</ele>
        <time>2026-10-07T01:09:38Z</time>
      </trkpt>
      <trkpt lat="39.90574025972774" lon="116.24129661994404">
        <ele>56.060302734375</ele>
        <time>2026-10-07T01:10:02Z</time>
      </trkpt>
      <trkpt lat="39.90574622187086" lon="116.24086343559267">
        <ele>53.7984619140625</ele>
        <time>2026-10-07T01:10:32Z</time>
      </trkpt>
      <trkpt lat="39.90573118115642" lon="116.2404602580748">
        <ele>52.12359619140625</ele>
        <time>2026-10-07T01:11:02Z</time>
      </trkpt>
      <trkpt lat="39.90572216237176" lon="116.24029118153176">
        <ele>50.5550537109375</ele>
        <time>2026-10-07T01:11:14Z</time>
      </trkpt>
      <trkpt lat="39.9056991547558" lon="116.24021815039785">
        <ele>49.6787109375</ele>
        <time>2026-10-07T01:11:20Z</time>
      </trkpt>
      <trkpt lat="39.90547515885954" lon="116.24017115619732">
        <ele>51.697021484375</ele>
        <time>2026-10-07T01:11:38Z</time>
      </trkpt>
      <trkpt lat="39.90547111817872" lon="116.23985000328094">
        <ele>51.96990966796875</ele>
        <time>2026-10-07T01:12:02Z</time>
      </trkpt>
      <trkpt lat="39.90543110927025" lon="116.23977096969824">
        <ele>51.83575439453125</ele>
        <time>2026-10-07T01:12:08Z</time>
      </trkpt>
      <trkpt lat="39.90534906071854" lon="116.23940679819505">
        <ele>50.29217529296875</ele>
        <time>2026-10-07T01:12:32Z</time>
      </trkpt>
      <trkpt lat="39.90534304254387" lon="116.23928573706678">
        <ele>49.98779296875</ele>
        <time>2026-10-07T01:12:38Z</time>
      </trkpt>
      <trkpt lat="39.905375998961404" lon="116.2390215954136">
        <ele>49.61822509765625</ele>
        <time>2026-10-07T01:13:05Z</time>
      </trkpt>
      <trkpt lat="39.90534598764956" lon="116.23894555889198">
        <ele>50.05517578125</ele>
        <time>2026-10-07T01:13:11Z</time>
      </trkpt>
      <trkpt lat="39.90523697871347" lon="116.23886452921698">
        <ele>49.65472412109375</ele>
        <time>2026-10-07T01:13:23Z</time>
      </trkpt>
      <trkpt lat="39.9051839856167" lon="116.23889155024318">
        <ele>49.28778076171875</ele>
        <time>2026-10-07T01:13:41Z</time>
      </trkpt>
      <trkpt lat="39.905107960272595" lon="116.23872547031324">
        <ele>50.637939453125</ele>
        <time>2026-10-07T01:13:53Z</time>
      </trkpt>
      <trkpt lat="39.90506890040499" lon="116.23838728890522">
        <ele>52.20184326171875</ele>
        <time>2026-10-07T01:14:17Z</time>
      </trkpt>
    </trkseg>
  </trk>
</gpx>