<?xml version="1.0" encoding="UTF-8"?>
<gpx xmlns="http://www.topografix.com/GPX/1/1" xmlns:gpxtpx="http://www.garmin.com/xmlschemas/TrackPointExtension/v1" xmlns:xsi="http://www.w3.org/2001/XMLSchema-instance" xsi:schemaLocation="http://www.topografix.com/GPX/1/1 http://www.topografix.com/GPX/1/1/gpx.xsd" version="1.1" creator="gpx.py -- https://github.com/tkrajina/gpxpy">
  <trk>
    <name>gpx from keep</name>
    <type>Run</type>
    <trkseg>
      <trkpt lat="39.91284567282124" lon="116.18549241943691">
        <ele>0.0</ele>
        <time>2026-07-29T10:11:40Z</time>
      </trkpt>
      <trkpt lat="39.913059665488454" lon="116.18549339518894">
        <ele>0.0</ele>
        <time>2026-07-29T10:11:49Z</time>
      </trkpt>
      <trkpt lat="39.91302453586682" lon="116.18541720065018">
        <ele>52.79473876953125</ele>
        <time>2026-07-29T10:11:52Z</time>
      </trkpt>
      <trkpt lat="39.91321012754182" lon="116.18553801242433">
        <ele>44.33502197265625</ele>
        <time>2026-07-29T10:12:00Z</time>
      </trkpt>
      <trkpt lat="39.9132673075065" lon="116.18571560447894">
        <ele>2.81396484375</ele>
        <time>2026-07-29T10:12:03Z</time>
      </trkpt>
      <trkpt lat="39.913188135456735" lon="116.18577010056471">
        <ele>38.947509765625</ele>
        <time>2026-07-29T10:12:06Z</time>
      </trkpt>
      <trkpt lat="39.91308439601604" lon="116.18591950244009">
        <ele>70.76580810546875</ele>
        <time>2026-07-29T10:12:15Z</time>
      </trkpt>
      <trkpt lat="39.913091660121424" lon="116.18607390294342">
        <ele>73.160400390625</ele>
        <time>2026-07-29T10:12:30Z</time>
      </trkpt>
      <trkpt lat="39.91312474106219" lon="116.18612202380596">
        <ele>72.12762451171875</ele>
        <time>2026-07-29T10:12:51Z</time>
      </trkpt>
      <trkpt lat="39.913378692589575" lon="116.18609993463727">
        <ele>71.895263671875</ele>
        <time>2026-07-29T10:13:15Z</time>
      </trkpt>
      <trkpt lat="39.91349457787643" lon="116.18603575336344">
        <ele>70.65167236328125</ele>
        <time>2026-07-29T10:13:27Z</time>
      </trkpt>
      <trkpt lat="39.91362155878154" lon="116.18602771657714">
        <ele>70.92291259765625</ele>
        <time>2026-07-29T10:13:39Z</time>
      </trkpt>
      <trkpt lat="39.91389756429575" lon="116.18603770798988">
        <ele>68.66009521484375</ele>
        <time>2026-07-29T10:14:00Z</time>
      </trkpt>
      <trkpt lat="39.9139705062881" lon="116.18600561543845">
        <ele>70.4454345703125</ele>
        <time>2026-07-29T10:14:06Z</time>
      </trkpt>
      <trkpt lat="39.914023347765074" lon="116.18591437153289">
        <ele>67.37225341796875</ele>
        <time>2026-07-29T10:14:12Z</time>
      </trkpt>
      <trkpt lat="39.914033708830196" lon="116.18554240111192">
        <ele>72.44976806640625</ele>
        <time>2026-07-29T10:14:27Z</time>
      </trkpt>
      <trkpt lat="39.91402100135718" lon="116.18513132843198">
        <ele>70.25604248046875</ele>
        <time>2026-07-29T10:14:45Z</time>
      </trkpt>
      <trkpt lat="39.91400933650334" lon="116.18474632067775">
        <ele>74.3057861328125</ele>
        <time>2026-07-29T10:14:57Z</time>
      </trkpt>
      <trkpt lat="39.913986560291484" lon="116.18429814507711">
        <ele>71.106689453125</ele>
        <time>2026-07-29T10:15:15Z</time>
      </trkpt>
      <trkpt lat="39.91396981422532" lon="116.18386901518667">
        <ele>74.03082275390625</ele>
        <time>2026-07-29T10:15:30Z</time>
      </trkpt>
      <trkpt lat="39.91395812630646" lon="116.18377037887568">
        <ele>73.774658203125</ele>
        <time>2026-07-29T10:15:33Z</time>
      </trkpt>
      <trkpt lat="39.913962170445984" lon="116.18350004006571">
        <ele>70.28826904296875</ele>
        <time>2026-07-29T10:15:45Z</time>
      </trkpt>
      <trkpt lat="39.91398103990789" lon="116.18342584111231">
        <ele>73.4979248046875</ele>
        <time>2026-07-29T10:15:48Z</time>
      </trkpt>
      <trkpt lat="39.91397488227377" lon="116.18333560266169">
        <ele>74.02008056640625</ele>
        <time>2026-07-29T10:15:51Z</time>
      </trkpt>
      <trkpt lat="39.914021290280836" lon="116.18312504035188">
        <ele>74.0869140625</ele>
        <time>2026-07-29T10:16:00Z</time>
      </trkpt>
      <trkpt lat="39.9140160031657" lon="116.18296584092624">
        <ele>73.1077880859375</ele>
        <time>2026-07-29T10:16:06Z</time>
      </trkpt>
      <trkpt lat="39.9139958779257" lon="116.18285734590806">
        <ele>73.74041748046875</ele>
        <time>2026-07-29T10:16:09Z</time>
      </trkpt>
      <trkpt lat="39.91399951893088" lon="116.18255953614003">
        <ele>74.315673828125</ele>
        <time>2026-07-29T10:16:18Z</time>
      </trkpt>
      <trkpt lat="39.91403020324427" lon="116.18238105623185">
        <ele>78.004638671875</ele>
        <time>2026-07-29T10:16:24Z</time>
      </trkpt>
      <trkpt lat="39.914038450621774" lon="116.18195491631371">
        <ele>82.5010986328125</ele>
        <time>2026-07-29T10:16:39Z</time>
      </trkpt>
      <trkpt lat="39.914010052647406" lon="116.18172931568678">
        <ele>80.3427734375</ele>
        <time>2026-07-29T10:16:48Z</time>
      </trkpt>
      <trkpt lat="39.914017942211714" lon="116.18166714805443">
        <ele>81.960205078125</ele>
        <time>2026-07-29T10:16:51Z</time>
      </trkpt>
      <trkpt lat="39.913999361845896" lon="116.18128215314393">
        <ele>78.50482177734375</ele>
        <time>2026-07-29T10:17:06Z</time>
      </trkpt>
      <trkpt lat="39.91402095977057" lon="116.18111366120111">
        <ele>80.0025634765625</ele>
        <time>2026-07-29T10:17:12Z</time>
      </trkpt>
      <trkpt lat="39.913991848655954" lon="116.18105049488905">
        <ele>79.32830810546875</ele>
        <time>2026-07-29T10:17:15Z</time>
      </trkpt>
      <trkpt lat="39.91402086312414" lon="116.18092196384309">
        <ele>69.94293212890625</ele>
        <time>2026-07-29T10:17:21Z</time>
      </trkpt>
      <trkpt lat="39.91401748156445" lon="116.18084282715708">
        <ele>69.22222900390625</ele>
        <time>2026-07-29T10:17:24Z</time>
      </trkpt>
      <trkpt lat="39.91396639275148" lon="116.18079380674827">
        <ele>69.954345703125</ele>
        <time>2026-07-29T10:17:30Z</time>
      </trkpt>
      <trkpt lat="39.91365936639911" lon="116.18077178588713">
        <ele>72.28155517578125</ele>
        <time>2026-07-29T10:17:45Z</time>
      </trkpt>
      <trkpt lat="39.91335039731691" lon="116.18078185175978">
        <ele>70.33953857421875</ele>
        <time>2026-07-29T10:18:03Z</time>
      </trkpt>
      <trkpt lat="39.91331630225965" lon="116.18072771007257">
        <ele>72.54351806640625</ele>
        <time>2026-07-29T10:18:12Z</time>
      </trkpt>
      <trkpt lat="39.91326803786283" lon="116.18057831312042">
        <ele>72.5999755859375</ele>
        <time>2026-07-29T10:18:45Z</time>
      </trkpt>
      <trkpt lat="39.91324351244018" lon="116.1802835199549">
        <ele>72.93621826171875</ele>
        <time>2026-07-29T10:19:00Z</time>
      </trkpt>
      <trkpt lat="39.913266384189896" lon="116.18021232458504">
        <ele>72.7158203125</ele>
        <time>2026-07-29T10:19:03Z</time>
      </trkpt>
      <trkpt lat="39.91328370127777" lon="116.17983129083885">
        <ele>73.21844482421875</ele>
        <time>2026-07-29T10:19:18Z</time>
      </trkpt>
      <trkpt lat="39.91326205987778" lon="116.17947332243848">
        <ele>75.716064453125</ele>
        <time>2026-07-29T10:19:30Z</time>
      </trkpt>
      <trkpt lat="39.91325075221369" lon="116.17930185803161">
        <ele>75.18218994140625</ele>
        <time>2026-07-29T10:19:36Z</time>
      </trkpt>
      <trkpt lat="39.913269033069966" lon="116.1789027698754">
        <ele>75.70306396484375</ele>
        <time>2026-07-29T10:19:51Z</time>
      </trkpt>
      <trkpt lat="39.913273347317734" lon="116.17852273321736">
        <ele>76.33447265625</ele>
        <time>2026-07-29T10:20:03Z</time>
      </trkpt>
      <trkpt lat="39.91330560637017" lon="116.17837174756228">
        <ele>78.31103515625</ele>
        <time>2026-07-29T10:20:09Z</time>
      </trkpt>
      <trkpt lat="39.91331043006806" lon="116.17801634489128">
        <ele>79.021240234375</ele>
        <time>2026-07-29T10:20:21Z</time>
      </trkpt>
      <trkpt lat="39.91332015901929" lon="116.17786693476171">
        <ele>78.8359375</ele>
        <time>2026-07-29T10:20:27Z</time>
      </trkpt>
      <trkpt lat="39.91329782728507" lon="116.17768343495794">
        <ele>80.866455078125</ele>
        <time>2026-07-29T10:20:33Z</time>
      </trkpt>
      <trkpt lat="39.913316242213355" lon="116.177361549955">
        <ele>77.47979736328125</ele>
        <time>2026-07-29T10:20:45Z</time>
      </trkpt>
      <trkpt lat="39.91330902110575" lon="116.176989094287">
        <ele>76.05072021484375</ele>
        <time>2026-07-29T10:21:00Z</time>
      </trkpt>
      <trkpt lat="39.91330689580931" lon="116.17662151685923">
        <ele>70.60369873046875</ele>
        <time>2026-07-29T10:21:18Z</time>
      </trkpt>
      <trkpt lat="39.91330713458539" lon="116.176204367233">
        <ele>71.1202392578125</ele>
        <time>2026-07-29T10:21:36Z</time>
      </trkpt>
      <trkpt lat="39.91330145843706" lon="116.17583434655258">
        <ele>67.98675537109375</ele>
        <time>2026-07-29T10:21:51Z</time>
      </trkpt>
      <trkpt lat="39.91331474367254" lon="116.17544426647014">
        <ele>68.94708251953125</ele>
        <time>2026-07-29T10:22:06Z</time>
      </trkpt>
      <trkpt lat="39.91334204005756" lon="116.17506120243152">
        <ele>71.35968017578125</ele>
        <time>2026-07-29T10:22:21Z</time>
      </trkpt>
      <trkpt lat="39.913338609373746" lon="116.17482655241827">
        <ele>69.29412841796875</ele>
        <time>2026-07-29T10:22:33Z</time>
      </trkpt>
      <trkpt lat="39.91336144628707" lon="116.17473830478433">
        <ele>68.0306396484375</ele>
        <time>2026-07-29T10:22:39Z</time>
      </trkpt>
      <trkpt lat="39.913341200171274" lon="116.17460393448475">
        <ele>67.7249755859375</ele>
        <time>2026-07-29T10:22:42Z</time>
      </trkpt>
      <trkpt lat="39.9133415009707" lon="116.17422387892927">
        <ele>66.49237060546875</ele>
        <time>2026-07-29T10:22:54Z</time>
      </trkpt>
      <trkpt lat="39.91334376561409" lon="116.1738247687228">
        <ele>66.71124267578125</ele>
        <time>2026-07-29T10:23:09Z</time>
      </trkpt>
      <trkpt lat="39.91334912352684" lon="116.17347679915669">
        <ele>72.7904052734375</ele>
        <time>2026-07-29T10:23:21Z</time>
      </trkpt>
      <trkpt lat="39.91337269077524" lon="116.17331508302418">
        <ele>74.4105224609375</ele>
        <time>2026-07-29T10:23:27Z</time>
      </trkpt>
      <trkpt lat="39.91336093252933" lon="116.17315656407003">
        <ele>74.33319091796875</ele>
        <time>2026-07-29T10:23:33Z</time>
      </trkpt>
      <trkpt lat="39.913356187817435" lon="116.17297038630808">
        <ele>79.9852294921875</ele>
        <time>2026-07-29T10:23:39Z</time>
      </trkpt>
      <trkpt lat="39.91332919045677" lon="116.17287981396854">
        <ele>80.65740966796875</ele>
        <time>2026-07-29T10:23:45Z</time>
      </trkpt>
      <trkpt lat="39.913339880705166" lon="116.1728039237612">
        <ele>80.91815185546875</ele>
        <time>2026-07-29T10:23:51Z</time>
      </trkpt>
      <trkpt lat="39.91331723039904" lon="116.17271216071572">
        <ele>80.37872314453125</ele>
        <time>2026-07-29T10:23:54Z</time>
      </trkpt>
      <trkpt lat="39.913315515886445" lon="116.17263101434779">
        <ele>79.960205078125</ele>
        <time>2026-07-29T10:23:57Z</time>
      </trkpt>
      <trkpt lat="39.91333726883678" lon="116.17256243836833">
        <ele>79.8067626953125</ele>
        <time>2026-07-29T10:24:00Z</time>
      </trkpt>
      <trkpt lat="39.913354487109075" lon="116.17222796942308">
        <ele>78.17718505859375</ele>
        <time>2026-07-29T10:24:12Z</time>
      </trkpt>
      <trkpt lat="39.91337018683201" lon="116.17181814459906">
        <ele>80.645263671875</ele>
        <time>2026-07-29T10:24:30Z</time>
      </trkpt>
      <trkpt lat="39.91338235361349" lon="116.1714411067283">
        <ele>74.580810546875</ele>
        <time>2026-07-29T10:24:45Z</time>
      </trkpt>
      <trkpt lat="39.91336775087994" lon="116.17111619786294">
        <ele>72.6561279296875</ele>
        <time>2026-07-29T10:24:57Z</time>
      </trkpt>
      <trkpt lat="39.913390138683525" lon="116.17078727239277">
        <ele>71.164306640625</ele>
        <time>2026-07-29T10:25:18Z</time>
      </trkpt>
      <trkpt lat="39.91334204563405" lon="116.17073613493676">
        <ele>72.2349853515625</ele>
        <time>2026-07-29T10:25:24Z</time>
      </trkpt>
      <trkpt lat="39.9131460576456" lon="116.17073816528155">
        <ele>69.12298583984375</ele>
        <time>2026-07-29T10:25:39Z</time>
      </trkpt>
      <trkpt lat="39.91309195738344" lon="116.17068301730993">
        <ele>69.44342041015625</ele>
        <time>2026-07-29T10:25:45Z</time>
      </trkpt>
      <trkpt lat="39.91306886325813" lon="116.17063187666953">
        <ele>72.889404296875</ele>
        <time>2026-07-29T10:26:06Z</time>
      </trkpt>
      <trkpt lat="39.91306854805906" lon="116.17046240090315">
        <ele>71.6575927734375</ele>
        <time>2026-07-29T10:26:18Z</time>
      </trkpt>
      <trkpt lat="39.91303339656378" lon="116.17038017441146">
        <ele>70.67376708984375</ele>
        <time>2026-07-29T10:26:24Z</time>
      </trkpt>
      <trkpt lat="39.912714324235374" lon="116.17033408509407">
        <ele>80.57958984375</ele>
        <time>2026-07-29T10:26:42Z</time>
      </trkpt>
      <trkpt lat="39.91244330772544" lon="116.17031907702533">
        <ele>80.1715087890625</ele>
        <time>2026-07-29T10:26:57Z</time>
      </trkpt>
      <trkpt lat="39.912139316882836" lon="116.17031710973188">
        <ele>81.83624267578125</ele>
        <time>2026-07-29T10:27:12Z</time>
      </trkpt>
      <trkpt lat="39.91184731434871" lon="116.17030912402556">
        <ele>82.62005615234375</ele>
        <time>2026-07-29T10:27:27Z</time>
      </trkpt>
      <trkpt lat="39.91173129501787" lon="116.17029610203964">
        <ele>82.7398681640625</ele>
        <time>2026-07-29T10:27:33Z</time>
      </trkpt>
      <trkpt lat="39.91170923258297" lon="116.17017326043937">
        <ele>82.3681640625</ele>
        <time>2026-07-29T10:27:39Z</time>
      </trkpt>
      <trkpt lat="39.911723940709614" lon="116.17010556766856">
        <ele>80.6068115234375</ele>
        <time>2026-07-29T10:27:42Z</time>
      </trkpt>
      <trkpt lat="39.91172151883919" lon="116.16987893099247">
        <ele>75.25054931640625</ele>
        <time>2026-07-29T10:27:51Z</time>
      </trkpt>
      <trkpt lat="39.911737952137955" lon="116.16957507449288">
        <ele>72.213623046875</ele>
        <time>2026-07-29T10:28:03Z</time>
      </trkpt>
      <trkpt lat="39.91171369155382" lon="116.1694346826132">
        <ele>73.18109130859375</ele>
        <time>2026-07-29T10:28:09Z</time>
      </trkpt>
      <trkpt lat="39.911751402109424" lon="116.16928024331247">
        <ele>74.97119140625</ele>
        <time>2026-07-29T10:28:15Z</time>
      </trkpt>
      <trkpt lat="39.91174902455077" lon="116.16907767345985">
        <ele>77.6353759765625</ele>
        <time>2026-07-29T10:28:24Z</time>
      </trkpt>
      <trkpt lat="39.91178237974606" lon="116.1687326978839">
        <ele>78.482177734375</ele>
        <time>2026-07-29T10:28:42Z</time>
      </trkpt>
      <trkpt lat="39.91177917595784" lon="116.16862339039677">
        <ele>78.458740234375</ele>
        <time>2026-07-29T10:28:48Z</time>
      </trkpt>
      <trkpt lat="39.91173892693442" lon="116.16848901690229">
        <ele>79.2938232421875</ele>
        <time>2026-07-29T10:29:03Z</time>
      </trkpt>
      <trkpt lat="39.911731762556784" lon="116.16840076915315">
        <ele>78.64483642578125</ele>
        <time>2026-07-29T10:29:12Z</time>
      </trkpt>
      <trkpt lat="39.911447755912995" lon="116.16839077673546">
        <ele>79.6632080078125</ele>
        <time>2026-07-29T10:29:30Z</time>
      </trkpt>
      <trkpt lat="39.91117075646903" lon="116.1683847947362">
        <ele>79.85614013671875</ele>
        <time>2026-07-29T10:29:45Z</time>
      </trkpt>
      <trkpt lat="39.910873793446" lon="116.16839786894563">
        <ele>81.11322021484375</ele>
        <time>2026-07-29T10:30:00Z</time>
      </trkpt>
      <trkpt lat="39.91082179191912" lon="116.16839586985624">
        <ele>80.7431640625</ele>
        <time>2026-07-29T10:30:03Z</time>
      </trkpt>
      <trkpt lat="39.91077885363596" lon="116.1684279656968">
        <ele>80.9324951171875</ele>
        <time>2026-07-29T10:30:06Z</time>
      </trkpt>
      <trkpt lat="39.91077098122342" lon="116.1684961588243">
        <ele>79.8265380859375</ele>
        <time>2026-07-29T10:30:09Z</time>
      </trkpt>
      <trkpt lat="39.910740128491604" lon="116.16857438308446">
        <ele>79.38360595703125</ele>
        <time>2026-07-29T10:30:15Z</time>
      </trkpt>
      <trkpt lat="39.910520091097865" lon="116.16854934022167">
        <ele>79.1668701171875</ele>
        <time>2026-07-29T10:30:27Z</time>
      </trkpt>
      <trkpt lat="39.91043590007794" lon="116.16844505700841">
        <ele>79.2838134765625</ele>
        <time>2026-07-29T10:30:33Z</time>
      </trkpt>
      <trkpt lat="39.91025472440673" lon="116.16834680294856">
        <ele>80.0443115234375</ele>
        <time>2026-07-29T10:30:45Z</time>
      </trkpt>
      <trkpt lat="39.91018152726077" lon="116.16823950979158">
        <ele>78.58819580078125</ele>
        <time>2026-07-29T10:30:51Z</time>
      </trkpt>
      <trkpt lat="39.91020895322499" lon="116.16793264131725">
        <ele>74.83111572265625</ele>
        <time>2026-07-29T10:31:03Z</time>
      </trkpt>
      <trkpt lat="39.910122426969274" lon="116.167648851967">
        <ele>74.10357666015625</ele>
        <time>2026-07-29T10:31:15Z</time>
      </trkpt>
      <trkpt lat="39.910007383430965" lon="116.16743656151257">
        <ele>72.70159912109375</ele>
        <time>2026-07-29T10:31:24Z</time>
      </trkpt>
      <trkpt lat="39.90988642058454" lon="116.16726477065725">
        <ele>71.48858642578125</ele>
        <time>2026-07-29T10:31:33Z</time>
      </trkpt>
      <trkpt lat="39.909834819743295" lon="116.16719919398027">
        <ele>74.31951904296875</ele>
        <time>2026-07-29T10:31:36Z</time>
      </trkpt>
      <trkpt lat="39.909750255024896" lon="116.16695089794159">
        <ele>77.31689453125</ele>
        <time>2026-07-29T10:31:45Z</time>
      </trkpt>
      <trkpt lat="39.909751389284075" lon="116.16679190306593">
        <ele>75.4134521484375</ele>
        <time>2026-07-29T10:31:51Z</time>
      </trkpt>
      <trkpt lat="39.909782197106175" lon="116.16671037387444">
        <ele>73.8480224609375</ele>
        <time>2026-07-29T10:31:54Z</time>
      </trkpt>
      <trkpt lat="39.90981740723433" lon="116.16656082027592">
        <ele>73.05780029296875</ele>
        <time>2026-07-29T10:32:00Z</time>
      </trkpt>
      <trkpt lat="39.91006799546053" lon="116.16634618278097">
        <ele>72.4310302734375</ele>
        <time>2026-07-29T10:32:15Z</time>
      </trkpt>
      <trkpt lat="39.91011289046186" lon="116.1662910213886">
        <ele>72.5020751953125</ele>
        <time>2026-07-29T10:32:18Z</time>
      </trkpt>
      <trkpt lat="39.91017361797819" lon="116.16614660598476">
        <ele>72.279296875</ele>
        <time>2026-07-29T10:32:24Z</time>
      </trkpt>
      <trkpt lat="39.91019119176311" lon="116.16591896095447">
        <ele>73.348876953125</ele>
        <time>2026-07-29T10:32:33Z</time>
      </trkpt>
      <trkpt lat="39.91016237030326" lon="116.16576320652575">
        <ele>76.70062255859375</ele>
        <time>2026-07-29T10:32:39Z</time>
      </trkpt>
      <trkpt lat="39.91003026897088" lon="116.16542157651725">
        <ele>76.3765869140625</ele>
        <time>2026-07-29T10:32:54Z</time>
      </trkpt>
      <trkpt lat="39.90999101949324" lon="116.16528720192706">
        <ele>77.0240478515625</ele>
        <time>2026-07-29T10:33:00Z</time>
      </trkpt>
      <trkpt lat="39.90999436525389" lon="116.16493721293725">
        <ele>75.7623291015625</ele>
        <time>2026-07-29T10:33:15Z</time>
      </trkpt>
      <trkpt lat="39.90993897781996" lon="116.16472863074318">
        <ele>74.97894287109375</ele>
        <time>2026-07-29T10:33:24Z</time>
      </trkpt>
      <trkpt lat="39.909813673983514" lon="116.1645631791857">
        <ele>74.1260986328125</ele>
        <time>2026-07-29T10:33:33Z</time>
      </trkpt>
      <trkpt lat="39.90964452382138" lon="116.16447896261485">
        <ele>73.90411376953125</ele>
        <time>2026-07-29T10:33:42Z</time>
      </trkpt>
      <trkpt lat="39.90952551767314" lon="116.1644729606544">
        <ele>74.51409912109375</ele>
        <time>2026-07-29T10:33:48Z</time>
      </trkpt>
      <trkpt lat="39.909415646048245" lon="116.16453916148825">
        <ele>74.65966796875</ele>
        <time>2026-07-29T10:33:54Z</time>
      </trkpt>
      <trkpt lat="39.909286945762155" lon="116.16469662247025">
        <ele>73.576904296875</ele>
        <time>2026-07-29T10:34:03Z</time>
      </trkpt>
      <trkpt lat="39.9091873098446" lon="116.16488917892076">
        <ele>72.727294921875</ele>
        <time>2026-07-29T10:34:12Z</time>
      </trkpt>
      <trkpt lat="39.90916073829018" lon="116.16511782810545">
        <ele>72.35693359375</ele>
        <time>2026-07-29T10:34:21Z</time>
      </trkpt>
      <trkpt lat="39.90917161499005" lon="116.1655871522969">
        <ele>72.6949462890625</ele>
        <time>2026-07-29T10:34:42Z</time>
      </trkpt>
      <trkpt lat="39.90915794545979" lon="116.1657636524809">
        <ele>72.83660888671875</ele>
        <time>2026-07-29T10:34:51Z</time>
      </trkpt>
      <trkpt lat="39.909185349139385" lon="116.16598026071745">
        <ele>73.1162109375</ele>
        <time>2026-07-29T10:35:03Z</time>
      </trkpt>
      <trkpt lat="39.909158965027196" lon="116.16630919280269">
        <ele>72.12109375</ele>
        <time>2026-07-29T10:35:21Z</time>
      </trkpt>
      <trkpt lat="39.90921460170861" lon="116.16665115115481">
        <ele>72.97918701171875</ele>
        <time>2026-07-29T10:35:39Z</time>
      </trkpt>
      <trkpt lat="39.90918592525146" lon="116.16682364162489">
        <ele>73.64154052734375</ele>
        <time>2026-07-29T10:35:48Z</time>
      </trkpt>
      <trkpt lat="39.9091082864677" lon="116.16701519197997">
        <ele>74.11553955078125</ele>
        <time>2026-07-29T10:36:00Z</time>
      </trkpt>
      <trkpt lat="39.90905843849517" lon="116.16709542465718">
        <ele>74.1656494140625</ele>
        <time>2026-07-29T10:36:06Z</time>
      </trkpt>
      <trkpt lat="39.90899754789935" lon="116.1671525936329">
        <ele>73.79046630859375</ele>
        <time>2026-07-29T10:36:12Z</time>
      </trkpt>
      <trkpt lat="39.908757726804744" lon="116.16724287855531">
        <ele>74.3857421875</ele>
        <time>2026-07-29T10:36:30Z</time>
      </trkpt>
      <trkpt lat="39.90867374539896" lon="116.16725091179036">
        <ele>74.66412353515625</ele>
        <time>2026-07-29T10:36:36Z</time>
      </trkpt>
      <trkpt lat="39.908439710494875" lon="116.16722687342728">
        <ele>73.51092529296875</ele>
        <time>2026-07-29T10:36:51Z</time>
      </trkpt>
      <trkpt lat="39.90812876508676" lon="116.16724897492074">
        <ele>71.99560546875</ele>
        <time>2026-07-29T10:37:12Z</time>
      </trkpt>
      <trkpt lat="39.908029720642126" lon="116.16722291385997">
        <ele>70.5689697265625</ele>
        <time>2026-07-29T10:37:18Z</time>
      </trkpt>
      <trkpt lat="39.90779241049195" lon="116.16705145995937">
        <ele>68.1558837890625</ele>
        <time>2026-07-29T10:37:33Z</time>
      </trkpt>
      <trkpt lat="39.907630335039016" lon="116.16700735590591">
        <ele>67.240966796875</ele>
        <time>2026-07-29T10:37:42Z</time>
      </trkpt>
      <trkpt lat="39.90741440056503" lon="116.16703746805742">
        <ele>67.58428955078125</ele>
        <time>2026-07-29T10:37:54Z</time>
      </trkpt>
      <trkpt lat="39.90721067166086" lon="116.16717788991807">
        <ele>67.47943115234375</ele>
        <time>2026-07-29T10:38:06Z</time>
      </trkpt>
      <trkpt lat="39.90703425063971" lon="116.16748377503829">
        <ele>61.49114990234375</ele>
        <time>2026-07-29T10:38:21Z</time>
      </trkpt>
      <trkpt lat="39.90698383715289" lon="116.16779666378257">
        <ele>63.7718505859375</ele>
        <time>2026-07-29T10:38:33Z</time>
      </trkpt>
      <trkpt lat="39.90702059570366" lon="116.16820380690739">
        <ele>68.9217529296875</ele>
        <time>2026-07-29T10:38:51Z</time>
      </trkpt>
      <trkpt lat="39.907107979364596" lon="116.1684113808498">
        <ele>71.23907470703125</ele>
        <time>2026-07-29T10:39:03Z</time>
      </trkpt>
      <trkpt lat="39.907133659321644" lon="116.16877640585146">
        <ele>69.87225341796875</ele>
        <time>2026-07-29T10:39:21Z</time>
      </trkpt>
      <trkpt lat="39.90703631249122" lon="116.1691243978388">
        <ele>62.4385986328125</ele>
        <time>2026-07-29T10:39:36Z</time>
      </trkpt>
      <trkpt lat="39.90703659104315" lon="116.1692738183206">
        <ele>59.81768798828125</ele>
        <time>2026-07-29T10:39:42Z</time>
      </trkpt>
      <trkpt lat="39.90708083399153" lon="116.16940518237118">
        <ele>57.66790771484375</ele>
        <time>2026-07-29T10:39:48Z</time>
      </trkpt>
      <trkpt lat="39.90725120784038" lon="116.16960973632759">
        <ele>56.768798828125</ele>
        <time>2026-07-29T10:40:00Z</time>
      </trkpt>
      <trkpt lat="39.90730826516247" lon="116.16964181937878">
        <ele>58.14642333984375</ele>
        <time>2026-07-29T10:40:03Z</time>
      </trkpt>
      <trkpt lat="39.907592301477436" lon="116.16966785687798">
        <ele>59.32037353515625</ele>
        <time>2026-07-29T10:40:18Z</time>
      </trkpt>
      <trkpt lat="39.90778932287243" lon="116.1696838771491">
        <ele>60.966552734375</ele>
        <time>2026-07-29T10:40:27Z</time>
      </trkpt>
      <trkpt lat="39.907977092450935" lon="116.16956451785545">
        <ele>64.2257080078125</ele>
        <time>2026-07-29T10:40:36Z</time>
      </trkpt>
      <trkpt lat="39.908029966845696" lon="116.1694983250185">
        <ele>64.6265869140625</ele>
        <time>2026-07-29T10:40:39Z</time>
      </trkpt>
      <trkpt lat="39.90814750947336" lon="116.16925562739574">
        <ele>67.292236328125</ele>
        <time>2026-07-29T10:40:48Z</time>
      </trkpt>
      <trkpt lat="39.90823728874057" lon="116.16913928868213">
        <ele>67.2332763671875</ele>
        <time>2026-07-29T10:40:54Z</time>
      </trkpt>
      <trkpt lat="39.90835614526092" lon="116.16906506480511">
        <ele>68.3900146484375</ele>
        <time>2026-07-29T10:41:00Z</time>
      </trkpt>
      <trkpt lat="39.9084751177058" lon="116.16905301592126">
        <ele>67.932861328125</ele>
        <time>2026-07-29T10:41:06Z</time>
      </trkpt>
      <trkpt lat="39.90866022942141" lon="116.16911717323084">
        <ele>66.658447265625</ele>
        <time>2026-07-29T10:41:15Z</time>
      </trkpt>
      <trkpt lat="39.90871322153566" lon="116.16911415807776">
        <ele>67.34698486328125</ele>
        <time>2026-07-29T10:41:18Z</time>
      </trkpt>
      <trkpt lat="39.90873333285402" lon="116.16917432489538">
        <ele>67.2762451171875</ele>
        <time>2026-07-29T10:41:21Z</time>
      </trkpt>
      <trkpt lat="39.90868009957977" lon="116.16958448559579">
        <ele>68.21710205078125</ele>
        <time>2026-07-29T10:41:36Z</time>
      </trkpt>
      <trkpt lat="39.90875086420563" lon="116.16999663546147">
        <ele>67.4686279296875</ele>
        <time>2026-07-29T10:41:51Z</time>
      </trkpt>
      <trkpt lat="39.9086994935739" lon="116.17033358859933">
        <ele>67.88873291015625</ele>
        <time>2026-07-29T10:42:03Z</time>
      </trkpt>
      <trkpt lat="39.9086445668375" lon="116.17037170254825">
        <ele>67.86181640625</ele>
        <time>2026-07-29T10:42:06Z</time>
      </trkpt>
      <trkpt lat="39.908320606886456" lon="116.1703857828264">
        <ele>68.052490234375</ele>
        <time>2026-07-29T10:42:24Z</time>
      </trkpt>
      <trkpt lat="39.90804459824247" lon="116.17037478665202">
        <ele>69.0579833984375</ele>
        <time>2026-07-29T10:42:39Z</time>
      </trkpt>
      <trkpt lat="39.90801376561302" lon="116.17046404116154">
        <ele>68.308837890625</ele>
        <time>2026-07-29T10:42:45Z</time>
      </trkpt>
      <trkpt lat="39.908009129510404" lon="116.17065959069762">
        <ele>67.737548828125</ele>
        <time>2026-07-29T10:42:57Z</time>
      </trkpt>
      <trkpt lat="39.90796426382995" lon="116.17073079617222">
        <ele>67.876953125</ele>
        <time>2026-07-29T10:43:03Z</time>
      </trkpt>
      <trkpt lat="39.90783337760207" lon="116.17078897588272">
        <ele>67.0908203125</ele>
        <time>2026-07-29T10:43:15Z</time>
      </trkpt>
      <trkpt lat="39.90782513450234" lon="116.17119611878485">
        <ele>70.414794921875</ele>
        <time>2026-07-29T10:43:39Z</time>
      </trkpt>
      <trkpt lat="39.90780586512049" lon="116.17158922267048">
        <ele>75.77777099609375</ele>
        <time>2026-07-29T10:44:00Z</time>
      </trkpt>
      <trkpt lat="39.90780557934341" lon="116.17197430064242">
        <ele>78.81195068359375</ele>
        <time>2026-07-29T10:44:24Z</time>
      </trkpt>
      <trkpt lat="39.90781737403134" lon="116.17240349932014">
        <ele>76.2520751953125</ele>
        <time>2026-07-29T10:44:48Z</time>
      </trkpt>
      <trkpt lat="39.907827153014196" lon="116.17282467442838">
        <ele>74.9664306640625</ele>
        <time>2026-07-29T10:45:12Z</time>
      </trkpt>
      <trkpt lat="39.90782871648077" lon="116.17312952477592">
        <ele>74.9993896484375</ele>
        <time>2026-07-29T10:45:27Z</time>
      </trkpt>
      <trkpt lat="39.90780781928033" lon="116.17318468120655">
        <ele>74.794677734375</ele>
        <time>2026-07-29T10:46:06Z</time>
      </trkpt>
      <trkpt lat="39.9078632354171" lon="116.17341130592023">
        <ele>76.70245361328125</ele>
        <time>2026-07-29T10:46:18Z</time>
      </trkpt>
      <trkpt lat="39.907861962527875" lon="116.17380540347968">
        <ele>69.97003173828125</ele>
        <time>2026-07-29T10:46:36Z</time>
      </trkpt>
      <trkpt lat="39.907895670542814" lon="116.17419047012798">
        <ele>71.52569580078125</ele>
        <time>2026-07-29T10:46:54Z</time>
      </trkpt>
      <trkpt lat="39.907896379008925" lon="116.17457553951766">
        <ele>73.50469970703125</ele>
        <time>2026-07-29T10:47:12Z</time>
      </trkpt>
      <trkpt lat="39.907871043396085" lon="116.17493654400882">
        <ele>72.8250732421875</ele>
        <time>2026-07-29T10:47:27Z</time>
      </trkpt>
      <trkpt lat="39.907844782272235" lon="116.17533866107321">
        <ele>71.58050537109375</ele>
        <time>2026-07-29T10:47:42Z</time>
      </trkpt>
      <trkpt lat="39.907833579858575" lon="116.17577386594964">
        <ele>70.76397705078125</ele>
        <time>2026-07-29T10:47:57Z</time>
      </trkpt>
      <trkpt lat="39.90784936931988" lon="116.17620605702814">
        <ele>69.393310546875</ele>
        <time>2026-07-29T10:48:12Z</time>
      </trkpt>
      <trkpt lat="39.90783384042764" lon="116.1764637693734">
        <ele>69.45001220703125</ele>
        <time>2026-07-29T10:48:21Z</time>
      </trkpt>
      <trkpt lat="39.90787058820699" lon="116.17687489643059">
        <ele>66.4393310546875</ele>
        <time>2026-07-29T10:48:39Z</time>
      </trkpt>
      <trkpt lat="39.90789127144154" lon="116.17725092710198">
        <ele>62.9722900390625</ele>
        <time>2026-07-29T10:48:54Z</time>
      </trkpt>
      <trkpt lat="39.90789243721865" lon="116.17734217743093">
        <ele>62.95697021484375</ele>
        <time>2026-07-29T10:49:00Z</time>
      </trkpt>
      <trkpt lat="39.90786553674606" lon="116.17739632939974">
        <ele>65.03350830078125</ele>
        <time>2026-07-29T10:49:03Z</time>
      </trkpt>
      <trkpt lat="39.90784329643026" lon="116.17781447833268">
        <ele>71.103271484375</ele>
        <time>2026-07-29T10:49:33Z</time>
      </trkpt>
      <trkpt lat="39.90784575405226" lon="116.1780671695462">
        <ele>70.82147216796875</ele>
        <time>2026-07-29T10:49:51Z</time>
      </trkpt>
      <trkpt lat="39.90787903023018" lon="116.17822058479894">
        <ele>67.7342529296875</ele>
        <time>2026-07-29T10:50:00Z</time>
      </trkpt>
      <trkpt lat="39.907885450477224" lon="116.17845321939608">
        <ele>69.29827880859375</ele>
        <time>2026-07-29T10:50:09Z</time>
      </trkpt>
      <trkpt lat="39.90791068841814" lon="116.17858557741467">
        <ele>68.5634765625</ele>
        <time>2026-07-29T10:50:18Z</time>
      </trkpt>
      <trkpt lat="39.90821162476711" lon="116.17855746296756">
        <ele>63.8446044921875</ele>
        <time>2026-07-29T10:50:36Z</time>
      </trkpt>
      <trkpt lat="39.90834925935423" lon="116.178537068189">
        <ele>66.216552734375</ele>
        <time>2026-07-29T10:50:42Z</time>
      </trkpt>
      <trkpt lat="39.9086177955284" lon="116.1786616963293">
        <ele>70.27593994140625</ele>
        <time>2026-07-29T10:50:57Z</time>
      </trkpt>
      <trkpt lat="39.90889381985651" lon="116.17868171629674">
        <ele>68.8302001953125</ele>
        <time>2026-07-29T10:51:27Z</time>
      </trkpt>
      <trkpt lat="39.909194828648744" lon="116.17869371124509">
        <ele>68.15716552734375</ele>
        <time>2026-07-29T10:51:48Z</time>
      </trkpt>
      <trkpt lat="39.90941887331176" lon="116.17872376507728">
        <ele>68.268798828125</ele>
        <time>2026-07-29T10:52:00Z</time>
      </trkpt>
      <trkpt lat="39.909717815284694" lon="116.1786986591342">
        <ele>70.045166015625</ele>
        <time>2026-07-29T10:52:24Z</time>
      </trkpt>
      <trkpt lat="39.910056827916" lon="116.17871365749986">
        <ele>70.92529296875</ele>
        <time>2026-07-29T10:52:54Z</time>
      </trkpt>
      <trkpt lat="39.91035783495098" lon="116.17872464970847">
        <ele>70.05218505859375</ele>
        <time>2026-07-29T10:53:18Z</time>
      </trkpt>
      <trkpt lat="39.910535809264275" lon="116.17871459998614">
        <ele>68.2476806640625</ele>
        <time>2026-07-29T10:53:30Z</time>
      </trkpt>
      <trkpt lat="39.91064089702013" lon="116.17876572616804">
        <ele>69.9287109375</ele>
        <time>2026-07-29T10:53:36Z</time>
      </trkpt>
      <trkpt lat="39.9107617037422" lon="116.1786614266663">
        <ele>69.83197021484375</ele>
        <time>2026-07-29T10:53:48Z</time>
      </trkpt>
      <trkpt lat="39.910962729549674" lon="116.17868045333182">
        <ele>61.00201416015625</ele>
        <time>2026-07-29T10:54:00Z</time>
      </trkpt>
      <trkpt lat="39.91110069110442" lon="116.17866238676024">
        <ele>61.360595703125</ele>
        <time>2026-07-29T10:54:06Z</time>
      </trkpt>
      <trkpt lat="39.91136483723931" lon="116.17874959137782">
        <ele>65.4571533203125</ele>
        <time>2026-07-29T10:54:21Z</time>
      </trkpt>
      <trkpt lat="39.91154484224158" lon="116.17875658786781">
        <ele>69.17352294921875</ele>
        <time>2026-07-29T10:54:30Z</time>
      </trkpt>
      <trkpt lat="39.9115898764939" lon="116.17877663686308">
        <ele>68.1514892578125</ele>
        <time>2026-07-29T10:54:33Z</time>
      </trkpt>
      <trkpt lat="39.911614973058384" lon="116.17883078126019">
        <ele>67.0792236328125</ele>
        <time>2026-07-29T10:54:36Z</time>
      </trkpt>
      <trkpt lat="39.91160636907157" lon="116.17905038033078">
        <ele>68.462646484375</ele>
        <time>2026-07-29T10:54:45Z</time>
      </trkpt>
      <trkpt lat="39.911562450370766" lon="116.1790945059156">
        <ele>68.37579345703125</ele>
        <time>2026-07-29T10:54:48Z</time>
      </trkpt>
      <trkpt lat="39.91150748339258" lon="116.1791115592087">
        <ele>69.03631591796875</ele>
        <time>2026-07-29T10:54:51Z</time>
      </trkpt>
      <trkpt lat="39.91137344035983" lon="116.17908450240414">
        <ele>70.39111328125</ele>
        <time>2026-07-29T10:54:57Z</time>
      </trkpt>
      <trkpt lat="39.911245492735766" lon="116.17911058943197">
        <ele>66.6199951171875</ele>
        <time>2026-07-29T10:55:06Z</time>
      </trkpt>
      <trkpt lat="39.91097240688866" lon="116.17905647644075">
        <ele>67.60565185546875</ele>
        <time>2026-07-29T10:55:18Z</time>
      </trkpt>
      <trkpt lat="39.91067434556538" lon="116.17901540203353">
        <ele>66.3260498046875</ele>
        <time>2026-07-29T10:55:36Z</time>
      </trkpt>
      <trkpt lat="39.91062325202064" lon="116.17896226377931">
        <ele>67.09033203125</ele>
        <time>2026-07-29T10:55:39Z</time>
      </trkpt>
      <trkpt lat="39.91063098423344" lon="116.17881385858162">
        <ele>68.82269287109375</ele>
        <time>2026-07-29T10:55:45Z</time>
      </trkpt>
      <trkpt lat="39.910595907981424" lon="116.17877074549156">
        <ele>68.6278076171875</ele>
        <time>2026-07-29T10:55:51Z</time>
      </trkpt>
      <trkpt lat="39.910570010336926" lon="116.17882690176961">
        <ele>68.71630859375</ele>
        <time>2026-07-29T10:55:54Z</time>
      </trkpt>
      <trkpt lat="39.91058470855123" lon="116.17921495618036">
        <ele>66.52825927734375</ele>
        <time>2026-07-29T10:56:12Z</time>
      </trkpt>
      <trkpt lat="39.910587220303675" lon="116.17949972961952">
        <ele>68.7530517578125</ele>
        <time>2026-07-29T10:56:30Z</time>
      </trkpt>
    </trkseg>
  </trk>
</gpx>