<?xml version="1.0" encoding="UTF-8"?>
<gpx xmlns="http://www.topografix.com/GPX/1/1" xmlns:gpxtpx="http://www.garmin.com/xmlschemas/TrackPointExtension/v1" xmlns:xsi="http://www.w3.org/2001/XMLSchema-instance" xsi:schemaLocation="http://www.topografix.com/GPX/1/1 http://www.topografix.com/GPX/1/1/gpx.xsd" version="1.1" creator="gpx.py -- https://github.com/tkrajina/gpxpy">
  <trk>
    <name>gpx from keep</name>
    <type>Run</type>
    <trkseg>
      <trkpt lat="39.913131433539384" lon="116.18594255651875">
        <ele>76.7567138671875</ele>
        <time>2026-08-04T10:39:43Z</time>
      </trkpt>
      <trkpt lat="39.913114569910526" lon="116.18602176458042">
        <ele>67.59564208984375</ele>
        <time>2026-08-04T10:39:46Z</time>
      </trkpt>
      <trkpt lat="39.913166727280505" lon="116.18611500030755">
        <ele>70.08148193359375</ele>
        <time>2026-08-04T10:39:52Z</time>
      </trkpt>
      <trkpt lat="39.913443681266045" lon="116.18609491345728">
        <ele>68.83599853515625</ele>
        <time>2026-08-04T10:40:07Z</time>
      </trkpt>
      <trkpt lat="39.91350263245215" lon="116.18606783572699">
        <ele>68.400390625</ele>
        <time>2026-08-04T10:40:10Z</time>
      </trkpt>
      <trkpt lat="39.91356451827346" lon="116.18600265858159">
        <ele>63.97344970703125</ele>
        <time>2026-08-04T10:40:16Z</time>
      </trkpt>
      <trkpt lat="39.91384356142522" lon="116.18603470695129">
        <ele>65.59869384765625</ele>
        <time>2026-08-04T10:40:31Z</time>
      </trkpt>
      <trkpt lat="39.9138975454159" lon="116.18602667932758">
        <ele>66.5762939453125</ele>
        <time>2026-08-04T10:40:34Z</time>
      </trkpt>
      <trkpt lat="39.913934432254564" lon="116.18596150526334">
        <ele>63.82501220703125</ele>
        <time>2026-08-04T10:40:40Z</time>
      </trkpt>
      <trkpt lat="39.91391232495454" lon="116.18589834373373">
        <ele>62.23138427734375</ele>
        <time>2026-08-04T10:40:43Z</time>
      </trkpt>
      <trkpt lat="39.913899681728246" lon="116.18552336823063">
        <ele>58.28839111328125</ele>
        <time>2026-08-04T10:40:58Z</time>
      </trkpt>
      <trkpt lat="39.91393210368564" lon="116.18518848914816">
        <ele>60.76861572265625</ele>
        <time>2026-08-04T10:41:10Z</time>
      </trkpt>
      <trkpt lat="39.913909993929785" lon="116.18512432399932">
        <ele>60.001708984375</ele>
        <time>2026-08-04T10:41:13Z</time>
      </trkpt>
      <trkpt lat="39.91391230761971" lon="116.18472728285077">
        <ele>60.64849853515625</ele>
        <time>2026-08-04T10:41:28Z</time>
      </trkpt>
      <trkpt lat="39.913899030280675" lon="116.18456686308784">
        <ele>62.00115966796875</ele>
        <time>2026-08-04T10:41:34Z</time>
      </trkpt>
      <trkpt lat="39.91391443091589" lon="116.18422195338458">
        <ele>61.5093994140625</ele>
        <time>2026-08-04T10:41:46Z</time>
      </trkpt>
      <trkpt lat="39.91391689509275" lon="116.18391414101619">
        <ele>61.52532958984375</ele>
        <time>2026-08-04T10:41:58Z</time>
      </trkpt>
      <trkpt lat="39.913926614964076" lon="116.1837537158611">
        <ele>61.7445068359375</ele>
        <time>2026-08-04T10:42:04Z</time>
      </trkpt>
      <trkpt lat="39.91391839128384" lon="116.18362537739927">
        <ele>60.1998291015625</ele>
        <time>2026-08-04T10:42:10Z</time>
      </trkpt>
      <trkpt lat="39.91393926954614" lon="116.18355619164026">
        <ele>60.2115478515625</ele>
        <time>2026-08-04T10:42:13Z</time>
      </trkpt>
      <trkpt lat="39.91395582691129" lon="116.18330351996204">
        <ele>67.1607666015625</ele>
        <time>2026-08-04T10:42:22Z</time>
      </trkpt>
      <trkpt lat="39.91391757736539" lon="116.18316014427576">
        <ele>63.491455078125</ele>
        <time>2026-08-04T10:42:28Z</time>
      </trkpt>
      <trkpt lat="39.91388690640753" lon="116.18277712988537">
        <ele>60.70501708984375</ele>
        <time>2026-08-04T10:42:43Z</time>
      </trkpt>
      <trkpt lat="39.91391131427844" lon="116.18244123170106">
        <ele>61.93182373046875</ele>
        <time>2026-08-04T10:42:55Z</time>
      </trkpt>
      <trkpt lat="39.91389191728589" lon="116.18221563182864">
        <ele>63.1702880859375</ele>
        <time>2026-08-04T10:43:04Z</time>
      </trkpt>
      <trkpt lat="39.91392267076066" lon="116.18214499470555">
        <ele>62.7667236328125</ele>
        <time>2026-08-04T10:43:07Z</time>
      </trkpt>
      <trkpt lat="39.91393704507321" lon="116.18172330873927">
        <ele>61.25604248046875</ele>
        <time>2026-08-04T10:43:22Z</time>
      </trkpt>
      <trkpt lat="39.91394186725387" lon="116.1816230393159">
        <ele>62.86669921875</ele>
        <time>2026-08-04T10:43:25Z</time>
      </trkpt>
      <trkpt lat="39.91388157468696" lon="116.18145660028654">
        <ele>61.917724609375</ele>
        <time>2026-08-04T10:43:31Z</time>
      </trkpt>
      <trkpt lat="39.91388986900876" lon="116.18105953199483">
        <ele>62.4578857421875</ele>
        <time>2026-08-04T10:43:43Z</time>
      </trkpt>
      <trkpt lat="39.91388455337532" lon="116.18088205480494">
        <ele>61.32879638671875</ele>
        <time>2026-08-04T10:43:49Z</time>
      </trkpt>
      <trkpt lat="39.91386642555138" lon="116.18080986255615">
        <ele>61.766357421875</ele>
        <time>2026-08-04T10:43:52Z</time>
      </trkpt>
      <trkpt lat="39.91381141000822" lon="116.18079984244847">
        <ele>62.35894775390625</ele>
        <time>2026-08-04T10:43:55Z</time>
      </trkpt>
      <trkpt lat="39.91374845196484" lon="116.18082190981501">
        <ele>62.94384765625</ele>
        <time>2026-08-04T10:43:58Z</time>
      </trkpt>
      <trkpt lat="39.91343444736103" lon="116.18081192226937">
        <ele>61.57891845703125</ele>
        <time>2026-08-04T10:44:13Z</time>
      </trkpt>
      <trkpt lat="39.9133834638056" lon="116.1808199502969">
        <ele>60.9217529296875</ele>
        <time>2026-08-04T10:44:16Z</time>
      </trkpt>
      <trkpt lat="39.91334529924682" lon="116.18072670372337">
        <ele>62.1307373046875</ele>
        <time>2026-08-04T10:44:22Z</time>
      </trkpt>
      <trkpt lat="39.91326963677147" lon="116.18035370637614">
        <ele>64.7537841796875</ele>
        <time>2026-08-04T10:44:34Z</time>
      </trkpt>
      <trkpt lat="39.9132535102252" lon="116.18028251598716">
        <ele>64.74334716796875</ele>
        <time>2026-08-04T10:44:37Z</time>
      </trkpt>
      <trkpt lat="39.91327976613934" lon="116.17986738915576">
        <ele>60.362548828125</ele>
        <time>2026-08-04T10:44:52Z</time>
      </trkpt>
      <trkpt lat="39.91330549719441" lon="116.17971798091818">
        <ele>58.3289794921875</ele>
        <time>2026-08-04T10:44:58Z</time>
      </trkpt>
      <trkpt lat="39.91329477018429" lon="116.17931288247374">
        <ele>62.24847412109375</ele>
        <time>2026-08-04T10:45:13Z</time>
      </trkpt>
      <trkpt lat="39.913306112806936" lon="116.17894788809805">
        <ele>63.1812744140625</ele>
        <time>2026-08-04T10:45:28Z</time>
      </trkpt>
      <trkpt lat="39.91333443888279" lon="116.17857486780912">
        <ele>60.33270263671875</ele>
        <time>2026-08-04T10:45:43Z</time>
      </trkpt>
      <trkpt lat="39.91334266466084" lon="116.17814669735625">
        <ele>60.47076416015625</ele>
        <time>2026-08-04T10:45:58Z</time>
      </trkpt>
      <trkpt lat="39.913333929413724" lon="116.17774058701393">
        <ele>61.42242431640625</ele>
        <time>2026-08-04T10:46:13Z</time>
      </trkpt>
      <trkpt lat="39.913335226837326" lon="116.17735352555046">
        <ele>63.89990234375</ele>
        <time>2026-08-04T10:46:28Z</time>
      </trkpt>
      <trkpt lat="39.91333256689181" lon="116.17699052884947">
        <ele>65.49029541015625</ele>
        <time>2026-08-04T10:46:43Z</time>
      </trkpt>
      <trkpt lat="39.913321847643765" lon="116.17659544318745">
        <ele>65.9365234375</ele>
        <time>2026-08-04T10:46:58Z</time>
      </trkpt>
      <trkpt lat="39.913303533821455" lon="116.17642297037358">
        <ele>65.218994140625</ele>
        <time>2026-08-04T10:47:04Z</time>
      </trkpt>
      <trkpt lat="39.9133197712463" lon="116.17600581776941">
        <ele>64.1478271484375</ele>
        <time>2026-08-04T10:47:19Z</time>
      </trkpt>
      <trkpt lat="39.91333901451147" lon="116.17559267390516">
        <ele>65.70245361328125</ele>
        <time>2026-08-04T10:47:34Z</time>
      </trkpt>
      <trkpt lat="39.91336132440287" lon="116.17521663053886">
        <ele>64.81646728515625</ele>
        <time>2026-08-04T10:47:49Z</time>
      </trkpt>
      <trkpt lat="39.9133628919288" lon="116.1749809774947">
        <ele>65.75982666015625</ele>
        <time>2026-08-04T10:47:58Z</time>
      </trkpt>
      <trkpt lat="39.91333966458545" lon="116.17485663570737">
        <ele>63.99755859375</ele>
        <time>2026-08-04T10:48:04Z</time>
      </trkpt>
      <trkpt lat="39.913350374888054" lon="116.17469919768155">
        <ele>61.3458251953125</ele>
        <time>2026-08-04T10:48:10Z</time>
      </trkpt>
      <trkpt lat="39.91332806244203" lon="116.17452872737648">
        <ele>60.58685302734375</ele>
        <time>2026-08-04T10:48:16Z</time>
      </trkpt>
      <trkpt lat="39.91333140723783" lon="116.17417273805867">
        <ele>62.22247314453125</ele>
        <time>2026-08-04T10:48:28Z</time>
      </trkpt>
      <trkpt lat="39.91332909889049" lon="116.17400527272991">
        <ele>62.186767578125</ele>
        <time>2026-08-04T10:48:34Z</time>
      </trkpt>
      <trkpt lat="39.91331599412531" lon="116.17394811539654">
        <ele>62.32830810546875</ele>
        <time>2026-08-04T10:48:37Z</time>
      </trkpt>
      <trkpt lat="39.91335664674246" lon="116.17376058848193">
        <ele>61.0872802734375</ele>
        <time>2026-08-04T10:48:49Z</time>
      </trkpt>
      <trkpt lat="39.913348303061206" lon="116.17357407021238">
        <ele>61.72528076171875</ele>
        <time>2026-08-04T10:48:55Z</time>
      </trkpt>
      <trkpt lat="39.913398619648035" lon="116.1732050354887">
        <ele>62.60382080078125</ele>
        <time>2026-08-04T10:49:04Z</time>
      </trkpt>
      <trkpt lat="39.913420283351066" lon="116.17302352651905">
        <ele>64.050537109375</ele>
        <time>2026-08-04T10:49:10Z</time>
      </trkpt>
      <trkpt lat="39.91345019867618" lon="116.1729783968452">
        <ele>62.6099853515625</ele>
        <time>2026-08-04T10:49:13Z</time>
      </trkpt>
      <trkpt lat="39.913424819619074" lon="116.172772826268">
        <ele>63.49835205078125</ele>
        <time>2026-08-04T10:49:22Z</time>
      </trkpt>
      <trkpt lat="39.91342664701649" lon="116.17267956562557">
        <ele>64.263916015625</ele>
        <time>2026-08-04T10:49:25Z</time>
      </trkpt>
      <trkpt lat="39.913514140320814" lon="116.17240779536597">
        <ele>71.11053466796875</ele>
        <time>2026-08-04T10:49:34Z</time>
      </trkpt>
      <trkpt lat="39.91349744436256" lon="116.17203174592956">
        <ele>71.3592529296875</ele>
        <time>2026-08-04T10:49:49Z</time>
      </trkpt>
      <trkpt lat="39.91348392616388" lon="116.17175196460559">
        <ele>68.89813232421875</ele>
        <time>2026-08-04T10:49:58Z</time>
      </trkpt>
      <trkpt lat="39.913484297184716" lon="116.17141301519956">
        <ele>67.6435546875</ele>
        <time>2026-08-04T10:50:07Z</time>
      </trkpt>
      <trkpt lat="39.91343878699925" lon="116.17113724795398">
        <ele>67.97381591796875</ele>
        <time>2026-08-04T10:50:16Z</time>
      </trkpt>
      <trkpt lat="39.91342219884694" lon="116.17082036120773">
        <ele>64.4002685546875</ele>
        <time>2026-08-04T10:50:34Z</time>
      </trkpt>
      <trkpt lat="39.91344707662118" lon="116.17075517516167">
        <ele>65.08087158203125</ele>
        <time>2026-08-04T10:50:40Z</time>
      </trkpt>
      <trkpt lat="39.913443295277" lon="116.17033499596855">
        <ele>66.06585693359375</ele>
        <time>2026-08-04T10:51:13Z</time>
      </trkpt>
      <trkpt lat="39.91346159826141" lon="116.16996094265109">
        <ele>67.1527099609375</ele>
        <time>2026-08-04T10:51:28Z</time>
      </trkpt>
      <trkpt lat="39.91344491720733" lon="116.16959491556689">
        <ele>65.3155517578125</ele>
        <time>2026-08-04T10:51:43Z</time>
      </trkpt>
      <trkpt lat="39.91347135543602" lon="116.16929406582362">
        <ele>60.58636474609375</ele>
        <time>2026-08-04T10:51:55Z</time>
      </trkpt>
      <trkpt lat="39.91346418001412" lon="116.16919980143324">
        <ele>61.9808349609375</ele>
        <time>2026-08-04T10:51:58Z</time>
      </trkpt>
      <trkpt lat="39.913479749290815" lon="116.16896915017183">
        <ele>62.4403076171875</ele>
        <time>2026-08-04T10:52:07Z</time>
      </trkpt>
      <trkpt lat="39.913440027035" lon="116.16858106215908">
        <ele>66.8524169921875</ele>
        <time>2026-08-04T10:52:19Z</time>
      </trkpt>
      <trkpt lat="39.91339933068902" lon="116.16820701325018">
        <ele>68.182373046875</ele>
        <time>2026-08-04T10:52:34Z</time>
      </trkpt>
      <trkpt lat="39.91341464481206" lon="116.16783997656968">
        <ele>68.0235595703125</ele>
        <time>2026-08-04T10:52:49Z</time>
      </trkpt>
      <trkpt lat="39.91342735026683" lon="116.1676825309643">
        <ele>67.0501708984375</ele>
        <time>2026-08-04T10:52:55Z</time>
      </trkpt>
      <trkpt lat="39.913397888885946" lon="116.16743483600857">
        <ele>66.44476318359375</ele>
        <time>2026-08-04T10:53:04Z</time>
      </trkpt>
      <trkpt lat="39.91343607608132" lon="116.16700060598352">
        <ele>67.871826171875</ele>
        <time>2026-08-04T10:53:19Z</time>
      </trkpt>
      <trkpt lat="39.91346562887321" lon="116.16676192862137">
        <ele>69.0733642578125</ele>
        <time>2026-08-04T10:53:28Z</time>
      </trkpt>
      <trkpt lat="39.91348192167669" lon="116.16638385927172">
        <ele>69.2860107421875</ele>
        <time>2026-08-04T10:53:46Z</time>
      </trkpt>
      <trkpt lat="39.91349966416457" lon="116.1662464691187">
        <ele>70.10107421875</ele>
        <time>2026-08-04T10:53:58Z</time>
      </trkpt>
      <trkpt lat="39.913521560157754" lon="116.16619131061368">
        <ele>70.052490234375</ele>
        <time>2026-08-04T10:54:04Z</time>
      </trkpt>
      <trkpt lat="39.91351144812972" lon="116.16613114198762">
        <ele>71.51922607421875</ele>
        <time>2026-08-04T10:54:13Z</time>
      </trkpt>
      <trkpt lat="39.9134417632021" lon="116.16576311144256">
        <ele>69.1995849609375</ele>
        <time>2026-08-04T10:54:55Z</time>
      </trkpt>
      <trkpt lat="39.91341138212132" lon="116.16555853748483">
        <ele>68.39849853515625</ele>
        <time>2026-08-04T10:55:04Z</time>
      </trkpt>
      <trkpt lat="39.91342427286624" lon="116.16550037157437">
        <ele>66.89788818359375</ele>
        <time>2026-08-04T10:55:07Z</time>
      </trkpt>
      <trkpt lat="39.91338797076218" lon="116.1653379172894">
        <ele>68.3583984375</ele>
        <time>2026-08-04T10:55:22Z</time>
      </trkpt>
      <trkpt lat="39.91333732629538" lon="116.16499194641213">
        <ele>69.36529541015625</ele>
        <time>2026-08-04T10:55:40Z</time>
      </trkpt>
      <trkpt lat="39.91327695590367" lon="116.16479239031763">
        <ele>69.4395751953125</ele>
        <time>2026-08-04T10:55:52Z</time>
      </trkpt>
      <trkpt lat="39.91324751302775" lon="116.16455472266695">
        <ele>68.2288818359375</ele>
        <time>2026-08-04T10:56:04Z</time>
      </trkpt>
      <trkpt lat="39.913256254079485" lon="116.16441633064076">
        <ele>65.43487548828125</ele>
        <time>2026-08-04T10:56:10Z</time>
      </trkpt>
      <trkpt lat="39.9131845714102" lon="116.16404930294198">
        <ele>64.78948974609375</ele>
        <time>2026-08-04T10:56:25Z</time>
      </trkpt>
      <trkpt lat="39.913169146863794" lon="116.16382166191758">
        <ele>61.95672607421875</ele>
        <time>2026-08-04T10:56:34Z</time>
      </trkpt>
      <trkpt lat="39.913182030198676" lon="116.1637594846829">
        <ele>61.379150390625</ele>
        <time>2026-08-04T10:56:37Z</time>
      </trkpt>
      <trkpt lat="39.91309740832734" lon="116.16342454944078">
        <ele>65.2542724609375</ele>
        <time>2026-08-04T10:56:49Z</time>
      </trkpt>
      <trkpt lat="39.913095243662084" lon="116.1633363005082">
        <ele>67.1881103515625</ele>
        <time>2026-08-04T10:56:52Z</time>
      </trkpt>
      <trkpt lat="39.91304270865381" lon="116.16304849447657">
        <ele>67.8697509765625</ele>
        <time>2026-08-04T10:57:01Z</time>
      </trkpt>
      <trkpt lat="39.913043585096304" lon="116.16298230749834">
        <ele>67.18914794921875</ele>
        <time>2026-08-04T10:57:04Z</time>
      </trkpt>
      <trkpt lat="39.9129964130551" lon="116.16288905016188">
        <ele>66.79217529296875</ele>
        <time>2026-08-04T10:57:10Z</time>
      </trkpt>
      <trkpt lat="39.912926630285135" lon="116.16246787010135">
        <ele>68.3831787109375</ele>
        <time>2026-08-04T10:57:25Z</time>
      </trkpt>
      <trkpt lat="39.912912279329845" lon="116.16227933987597">
        <ele>69.42755126953125</ele>
        <time>2026-08-04T10:57:31Z</time>
      </trkpt>
      <trkpt lat="39.912855805018296" lon="116.16202362550936">
        <ele>69.07745361328125</ele>
        <time>2026-08-04T10:57:49Z</time>
      </trkpt>
      <trkpt lat="39.91281210991726" lon="116.16164957598055">
        <ele>69.00482177734375</ele>
        <time>2026-08-04T10:58:19Z</time>
      </trkpt>
      <trkpt lat="39.91282485910505" lon="116.16151519544414">
        <ele>68.13568115234375</ele>
        <time>2026-08-04T10:58:31Z</time>
      </trkpt>
      <trkpt lat="39.91274419230743" lon="116.16115519076695">
        <ele>69.9041748046875</ele>
        <time>2026-08-04T10:59:28Z</time>
      </trkpt>
      <trkpt lat="39.91264752851284" lon="116.16079619140982">
        <ele>67.5338134765625</ele>
        <time>2026-08-04T10:59:43Z</time>
      </trkpt>
      <trkpt lat="39.912556168793714" lon="116.16060065217842">
        <ele>60.59503173828125</ele>
        <time>2026-08-04T10:59:55Z</time>
      </trkpt>
      <trkpt lat="39.912615089871466" lon="116.1605595289374">
        <ele>58.11810302734375</ele>
        <time>2026-08-04T10:59:58Z</time>
      </trkpt>
      <trkpt lat="39.91255936931048" lon="116.1601704406124">
        <ele>58.0416259765625</ele>
        <time>2026-08-04T11:00:10Z</time>
      </trkpt>
      <trkpt lat="39.912437713600134" lon="116.15981445440772">
        <ele>65.73480224609375</ele>
        <time>2026-08-04T11:00:22Z</time>
      </trkpt>
      <trkpt lat="39.91240644702053" lon="116.15967005226021">
        <ele>65.53387451171875</ele>
        <time>2026-08-04T11:00:28Z</time>
      </trkpt>
      <trkpt lat="39.91239205525431" lon="116.15945845922064">
        <ele>67.56268310546875</ele>
        <time>2026-08-04T11:00:34Z</time>
      </trkpt>
      <trkpt lat="39.91229735131739" lon="116.15907639768821">
        <ele>70.67913818359375</ele>
        <time>2026-08-04T11:00:49Z</time>
      </trkpt>
      <trkpt lat="39.912232680257254" lon="116.15871238385297">
        <ele>72.32647705078125</ele>
        <time>2026-08-04T11:01:10Z</time>
      </trkpt>
      <trkpt lat="39.91216521207043" lon="116.15845767773979">
        <ele>72.7952880859375</ele>
        <time>2026-08-04T11:01:22Z</time>
      </trkpt>
      <trkpt lat="39.91215601043011" lon="116.15834837234846">
        <ele>74.1641845703125</ele>
        <time>2026-08-04T11:01:28Z</time>
      </trkpt>
      <trkpt lat="39.912112884403484" lon="116.15827918378967">
        <ele>75.3438720703125</ele>
        <time>2026-08-04T11:01:31Z</time>
      </trkpt>
      <trkpt lat="39.91209059453524" lon="116.1581217452669">
        <ele>75.28692626953125</ele>
        <time>2026-08-04T11:01:37Z</time>
      </trkpt>
      <trkpt lat="39.91210318303857" lon="116.15789911989094">
        <ele>74.11688232421875</ele>
        <time>2026-08-04T11:01:46Z</time>
      </trkpt>
      <trkpt lat="39.912011639442674" lon="116.15760230031037">
        <ele>73.8826904296875</ele>
        <time>2026-08-04T11:01:58Z</time>
      </trkpt>
      <trkpt lat="39.912020369236174" lon="116.15745588946858">
        <ele>67.83184814453125</ele>
        <time>2026-08-04T11:02:04Z</time>
      </trkpt>
      <trkpt lat="39.91197396671028" lon="116.1572362810386">
        <ele>65.327880859375</ele>
        <time>2026-08-04T11:02:13Z</time>
      </trkpt>
      <trkpt lat="39.91188748135076" lon="116.1569705491459">
        <ele>66.36627197265625</ele>
        <time>2026-08-04T11:02:25Z</time>
      </trkpt>
      <trkpt lat="39.91177594226146" lon="116.15667473698865">
        <ele>72.657958984375</ele>
        <time>2026-08-04T11:02:46Z</time>
      </trkpt>
      <trkpt lat="39.91175979189129" lon="116.15659250948158">
        <ele>72.85443115234375</ele>
        <time>2026-08-04T11:02:52Z</time>
      </trkpt>
      <trkpt lat="39.911694135760825" lon="116.15623351626789">
        <ele>73.4688720703125</ele>
        <time>2026-08-04T11:03:25Z</time>
      </trkpt>
      <trkpt lat="39.91159533509498" lon="116.15579430496861">
        <ele>75.274658203125</ele>
        <time>2026-08-04T11:03:46Z</time>
      </trkpt>
      <trkpt lat="39.911520652190326" lon="116.15541927082225">
        <ele>75.0703125</ele>
        <time>2026-08-04T11:04:04Z</time>
      </trkpt>
      <trkpt lat="39.91145119899218" lon="116.15516958554937">
        <ele>74.897705078125</ele>
        <time>2026-08-04T11:04:16Z</time>
      </trkpt>
      <trkpt lat="39.91145644880213" lon="116.1547584433598">
        <ele>78.139892578125</ele>
        <time>2026-08-04T11:04:46Z</time>
      </trkpt>
      <trkpt lat="39.91142899702813" lon="116.15450975718309">
        <ele>80.14923095703125</ele>
        <time>2026-08-04T11:05:04Z</time>
      </trkpt>
      <trkpt lat="39.91142335349301" lon="116.15415577736285">
        <ele>79.11077880859375</ele>
        <time>2026-08-04T11:05:28Z</time>
      </trkpt>
      <trkpt lat="39.911411042563266" lon="116.15398430441441">
        <ele>78.75018310546875</ele>
        <time>2026-08-04T11:05:40Z</time>
      </trkpt>
      <trkpt lat="39.91134377971656" lon="116.15383790805896">
        <ele>79.95355224609375</ele>
        <time>2026-08-04T11:05:52Z</time>
      </trkpt>
      <trkpt lat="39.9113150903089" lon="116.1534568590137">
        <ele>79.39605712890625</ele>
        <time>2026-08-04T11:06:16Z</time>
      </trkpt>
      <trkpt lat="39.91129886956306" lon="116.15333452345385">
        <ele>79.07049560546875</ele>
        <time>2026-08-04T11:06:22Z</time>
      </trkpt>
      <trkpt lat="39.91121673518573" lon="116.15325832363698">
        <ele>79.43310546875</ele>
        <time>2026-08-04T11:06:28Z</time>
      </trkpt>
      <trkpt lat="39.910929689368125" lon="116.15322627153459">
        <ele>76.7010498046875</ele>
        <time>2026-08-04T11:06:46Z</time>
      </trkpt>
      <trkpt lat="39.91091058864624" lon="116.15317011911459">
        <ele>76.3629150390625</ele>
        <time>2026-08-04T11:06:49Z</time>
      </trkpt>
      <trkpt lat="39.910894879439624" lon="116.15277703826048">
        <ele>75.807861328125</ele>
        <time>2026-08-04T11:07:07Z</time>
      </trkpt>
      <trkpt lat="39.910859210546334" lon="116.15240501967415">
        <ele>77.20733642578125</ele>
        <time>2026-08-04T11:07:25Z</time>
      </trkpt>
      <trkpt lat="39.9108385532565" lon="116.15203901742068">
        <ele>78.20050048828125</ele>
        <time>2026-08-04T11:07:43Z</time>
      </trkpt>
      <trkpt lat="39.91085134383703" lon="116.15192269680027">
        <ele>76.90338134765625</ele>
        <time>2026-08-04T11:07:49Z</time>
      </trkpt>
      <trkpt lat="39.910813269867475" lon="116.15188058617372">
        <ele>75.47930908203125</ele>
        <time>2026-08-04T11:07:52Z</time>
      </trkpt>
      <trkpt lat="39.91050328307926" lon="116.15188062549355">
        <ele>74.9517822265625</ele>
        <time>2026-08-04T11:08:07Z</time>
      </trkpt>
      <trkpt lat="39.91017426832663" lon="116.15186462324962">
        <ele>76.369873046875</ele>
        <time>2026-08-04T11:08:22Z</time>
      </trkpt>
      <trkpt lat="39.90986536610625" lon="116.15191179162167">
        <ele>75.31585693359375</ele>
        <time>2026-08-04T11:08:37Z</time>
      </trkpt>
      <trkpt lat="39.909541401561626" lon="116.15192386570173">
        <ele>75.965576171875</ele>
        <time>2026-08-04T11:08:52Z</time>
      </trkpt>
      <trkpt lat="39.90924135141489" lon="116.15188880754532">
        <ele>75.7420654296875</ele>
        <time>2026-08-04T11:09:07Z</time>
      </trkpt>
      <trkpt lat="39.90891727353932" lon="116.15183770848255">
        <ele>74.99188232421875</ele>
        <time>2026-08-04T11:09:25Z</time>
      </trkpt>
      <trkpt lat="39.908873226857054" lon="116.15181063987704">
        <ele>75.77783203125</ele>
        <time>2026-08-04T11:09:31Z</time>
      </trkpt>
      <trkpt lat="39.90889707477268" lon="116.15172640609359">
        <ele>74.53411865234375</ele>
        <time>2026-08-04T11:10:01Z</time>
      </trkpt>
      <trkpt lat="39.90889937971825" lon="116.15133834388159">
        <ele>76.2208251953125</ele>
        <time>2026-08-04T11:10:16Z</time>
      </trkpt>
      <trkpt lat="39.908758089991686" lon="116.15117290966793">
        <ele>77.2294921875</ele>
        <time>2026-08-04T11:10:25Z</time>
      </trkpt>
      <trkpt lat="39.90857011418821" lon="116.15118195816679">
        <ele>75.947509765625</ele>
        <time>2026-08-04T11:10:34Z</time>
      </trkpt>
      <trkpt lat="39.90853004424531" lon="116.15114185369295">
        <ele>75.32269287109375</ele>
        <time>2026-08-04T11:10:37Z</time>
      </trkpt>
      <trkpt lat="39.90848980782253" lon="116.15100849468014">
        <ele>71.89825439453125</ele>
        <time>2026-08-04T11:10:43Z</time>
      </trkpt>
      <trkpt lat="39.90844084751549" lon="116.15102955836724">
        <ele>69.9158935546875</ele>
        <time>2026-08-04T11:10:49Z</time>
      </trkpt>
      <trkpt lat="39.90843296244356" lon="116.15109373456974">
        <ele>65.4071044921875</ele>
        <time>2026-08-04T11:11:07Z</time>
      </trkpt>
      <trkpt lat="39.9084658303317" lon="116.1510205305646">
        <ele>61.55859375</ele>
        <time>2026-08-04T11:12:34Z</time>
      </trkpt>
      <trkpt lat="39.9083935614926" lon="116.15086812387709">
        <ele>70.11962890625</ele>
        <time>2026-08-04T11:12:46Z</time>
      </trkpt>
      <trkpt lat="39.90837742452701" lon="116.150790915385">
        <ele>73.33221435546875</ele>
        <time>2026-08-04T11:12:49Z</time>
      </trkpt>
      <trkpt lat="39.90819616435212" lon="116.15064052848368">
        <ele>76.181884765625</ele>
        <time>2026-08-04T11:13:04Z</time>
      </trkpt>
      <trkpt lat="39.90814301847631" lon="116.15055730855518">
        <ele>77.511474609375</ele>
        <time>2026-08-04T11:13:10Z</time>
      </trkpt>
      <trkpt lat="39.90814284365103" lon="116.15045904106927">
        <ele>77.9197998046875</ele>
        <time>2026-08-04T11:13:16Z</time>
      </trkpt>
      <trkpt lat="39.90816068242389" lon="116.15036879325808">
        <ele>79.4866943359375</ele>
        <time>2026-08-04T11:13:22Z</time>
      </trkpt>
      <trkpt lat="39.908133574889135" lon="116.15030763033833">
        <ele>80.41192626953125</ele>
        <time>2026-08-04T11:13:28Z</time>
      </trkpt>
      <trkpt lat="39.90798832293246" lon="116.15016225354569">
        <ele>79.3682861328125</ele>
        <time>2026-08-04T11:13:46Z</time>
      </trkpt>
      <trkpt lat="39.907826235595785" lon="116.15010912973065">
        <ele>79.3880615234375</ele>
        <time>2026-08-04T11:13:58Z</time>
      </trkpt>
      <trkpt lat="39.90778716967715" lon="116.15007103119387">
        <ele>79.3780517578125</ele>
        <time>2026-08-04T11:14:01Z</time>
      </trkpt>
      <trkpt lat="39.907753028887186" lon="116.14999081771464">
        <ele>78.70953369140625</ele>
        <time>2026-08-04T11:14:07Z</time>
      </trkpt>
      <trkpt lat="39.90764996933625" lon="116.14995473280912">
        <ele>79.070068359375</ele>
        <time>2026-08-04T11:14:31Z</time>
      </trkpt>
      <trkpt lat="39.90764963543227" lon="116.14976622147651">
        <ele>79.859619140625</ele>
        <time>2026-08-04T11:14:40Z</time>
      </trkpt>
      <trkpt lat="39.9077000659036" lon="116.14944534589279">
        <ele>79.02606201171875</ele>
        <time>2026-08-04T11:14:52Z</time>
      </trkpt>
      <trkpt lat="39.907692929884554" lon="116.14936813788782">
        <ele>78.39556884765625</ele>
        <time>2026-08-04T11:14:55Z</time>
      </trkpt>
      <trkpt lat="39.90764984502738" lon="116.14931901046147">
        <ele>78.1353759765625</ele>
        <time>2026-08-04T11:14:58Z</time>
      </trkpt>
      <trkpt lat="39.907577803902605" lon="116.1492939518164">
        <ele>78.5343017578125</ele>
        <time>2026-08-04T11:15:01Z</time>
      </trkpt>
      <trkpt lat="39.90730379449336" lon="116.14928195406002">
        <ele>78.95904541015625</ele>
        <time>2026-08-04T11:15:13Z</time>
      </trkpt>
      <trkpt lat="39.90706862251978" lon="116.14917870474396">
        <ele>78.87164306640625</ele>
        <time>2026-08-04T11:15:25Z</time>
      </trkpt>
      <trkpt lat="39.90701553998499" lon="116.14913058144266">
        <ele>78.84002685546875</ele>
        <time>2026-08-04T11:15:28Z</time>
      </trkpt>
      <trkpt lat="39.906910231991475" lon="116.14895311560845">
        <ele>77.5028076171875</ele>
        <time>2026-08-04T11:15:37Z</time>
      </trkpt>
      <trkpt lat="39.906785136836604" lon="116.14889597727556">
        <ele>76.6337890625</ele>
        <time>2026-08-04T11:15:43Z</time>
      </trkpt>
      <trkpt lat="39.90665514598654" lon="116.14889799918616">
        <ele>75.419921875</ele>
        <time>2026-08-04T11:15:49Z</time>
      </trkpt>
      <trkpt lat="39.90659911137174" lon="116.14887694949672">
        <ele>75.22418212890625</ele>
        <time>2026-08-04T11:15:52Z</time>
      </trkpt>
      <trkpt lat="39.906441543950706" lon="116.1485500886309">
        <ele>74.0625</ele>
        <time>2026-08-04T11:16:13Z</time>
      </trkpt>
      <trkpt lat="39.906619122851616" lon="116.14888396588984">
        <ele>76.4840087890625</ele>
        <time>2026-08-04T11:16:37Z</time>
      </trkpt>
      <trkpt lat="39.90668217480565" lon="116.14891504174325">
        <ele>76.66943359375</ele>
        <time>2026-08-04T11:16:43Z</time>
      </trkpt>
      <trkpt lat="39.90682315459635" lon="116.14890700220583">
        <ele>77.38177490234375</ele>
        <time>2026-08-04T11:16:55Z</time>
      </trkpt>
      <trkpt lat="39.90695203615501" lon="116.14884281274654">
        <ele>77.8475341796875</ele>
        <time>2026-08-04T11:17:07Z</time>
      </trkpt>
      <trkpt lat="39.90700594215812" lon="116.14879066530902">
        <ele>78.172119140625</ele>
        <time>2026-08-04T11:17:13Z</time>
      </trkpt>
      <trkpt lat="39.907063914980164" lon="116.14877662010487">
        <ele>78.03692626953125</ele>
        <time>2026-08-04T11:17:19Z</time>
      </trkpt>
      <trkpt lat="39.907230300590314" lon="116.14843066738517">
        <ele>77.33526611328125</ele>
        <time>2026-08-04T11:17:40Z</time>
      </trkpt>
      <trkpt lat="39.90739575272202" lon="116.14812181635604">
        <ele>77.822998046875</ele>
        <time>2026-08-04T11:17:55Z</time>
      </trkpt>
      <trkpt lat="39.90751218728415" lon="116.14780094090557">
        <ele>76.445068359375</ele>
        <time>2026-08-04T11:18:10Z</time>
      </trkpt>
      <trkpt lat="39.907659541712036" lon="116.14743393996616">
        <ele>76.6903076171875</ele>
        <time>2026-08-04T11:18:34Z</time>
      </trkpt>
      <trkpt lat="39.907742886901346" lon="116.14705892811453">
        <ele>76.037109375</ele>
        <time>2026-08-04T11:18:49Z</time>
      </trkpt>
      <trkpt lat="39.90775476299095" lon="116.14698773680782">
        <ele>76.206787109375</ele>
        <time>2026-08-04T11:18:52Z</time>
      </trkpt>
      <trkpt lat="39.907884469182804" lon="116.14682127693358">
        <ele>77.28424072265625</ele>
        <time>2026-08-04T11:19:13Z</time>
      </trkpt>
      <trkpt lat="39.9079473936144" lon="116.14677915683448">
        <ele>77.51470947265625</ele>
        <time>2026-08-04T11:19:19Z</time>
      </trkpt>
      <trkpt lat="39.90819089461488" lon="116.14649637402334">
        <ele>80.9876708984375</ele>
        <time>2026-08-04T11:19:49Z</time>
      </trkpt>
      <trkpt lat="39.90841153592608" lon="116.14629380831407">
        <ele>78.0205078125</ele>
        <time>2026-08-04T11:20:04Z</time>
      </trkpt>
      <trkpt lat="39.908649111628826" lon="116.14605314029396">
        <ele>77.05377197265625</ele>
        <time>2026-08-04T11:20:19Z</time>
      </trkpt>
      <trkpt lat="39.90882189233185" lon="116.14592979187074">
        <ele>77.97625732421875</ele>
        <time>2026-08-04T11:20:28Z</time>
      </trkpt>
      <trkpt lat="39.90891068375329" lon="116.14581046500919">
        <ele>77.823974609375</ele>
        <time>2026-08-04T11:20:34Z</time>
      </trkpt>
      <trkpt lat="39.90897135637987" lon="116.14562095664331">
        <ele>78.9659423828125</ele>
        <time>2026-08-04T11:20:49Z</time>
      </trkpt>
      <trkpt lat="39.90893121565258" lon="116.14553774209732">
        <ele>78.40533447265625</ele>
        <time>2026-08-04T11:21:01Z</time>
      </trkpt>
      <trkpt lat="39.90895899328028" lon="116.1454083974547">
        <ele>79.208251953125</ele>
        <time>2026-08-04T11:21:13Z</time>
      </trkpt>
      <trkpt lat="39.90894455061753" lon="116.14514871540581">
        <ele>81.7235107421875</ele>
        <time>2026-08-04T11:21:49Z</time>
      </trkpt>
      <trkpt lat="39.90897732882598" lon="116.14501937111304">
        <ele>82.0767822265625</ele>
        <time>2026-08-04T11:22:04Z</time>
      </trkpt>
      <trkpt lat="39.90896079761732" lon="116.14470655195817">
        <ele>80.9931640625</ele>
        <time>2026-08-04T11:22:34Z</time>
      </trkpt>
      <trkpt lat="39.90891558689232" lon="116.14458122922771">
        <ele>79.857177734375</ele>
        <time>2026-08-04T11:22:46Z</time>
      </trkpt>
      <trkpt lat="39.908952510512336" lon="116.14453710898604">
        <ele>79.77783203125</ele>
        <time>2026-08-04T11:23:25Z</time>
      </trkpt>
      <trkpt lat="39.909001469327684" lon="116.14451404237822">
        <ele>79.7220458984375</ele>
        <time>2026-08-04T11:23:31Z</time>
      </trkpt>
      <trkpt lat="39.90909817316715" lon="116.14434157885745">
        <ele>80.8848876953125</ele>
        <time>2026-08-04T11:23:49Z</time>
      </trkpt>
      <trkpt lat="39.909049085388126" lon="116.14428844617896">
        <ele>79.1883544921875</ele>
        <time>2026-08-04T11:23:58Z</time>
      </trkpt>
      <trkpt lat="39.908936120752045" lon="116.14430650771251">
        <ele>77.17218017578125</ele>
        <time>2026-08-04T11:24:16Z</time>
      </trkpt>
      <trkpt lat="39.90890104935364" lon="116.14426339949019">
        <ele>75.71221923828125</ele>
        <time>2026-08-04T11:24:25Z</time>
      </trkpt>
      <trkpt lat="39.90911656277663" lon="116.14398063406782">
        <ele>74.46923828125</ele>
        <time>2026-08-04T11:24:46Z</time>
      </trkpt>
      <trkpt lat="39.90929811440208" lon="116.14371892940345">
        <ele>74.87799072265625</ele>
        <time>2026-08-04T11:25:04Z</time>
      </trkpt>
      <trkpt lat="39.909452606151845" lon="116.14342013332153">
        <ele>74.67919921875</ele>
        <time>2026-08-04T11:25:22Z</time>
      </trkpt>
      <trkpt lat="39.90963101465864" lon="116.14307120633894">
        <ele>74.5369873046875</ele>
        <time>2026-08-04T11:25:43Z</time>
      </trkpt>
      <trkpt lat="39.90981842490943" lon="116.14272228085265">
        <ele>73.760986328125</ele>
        <time>2026-08-04T11:26:01Z</time>
      </trkpt>
      <trkpt lat="39.90999392928518" lon="116.14242850146053">
        <ele>73.8897705078125</ele>
        <time>2026-08-04T11:26:16Z</time>
      </trkpt>
      <trkpt lat="39.91004170950312" lon="116.14229715751988">
        <ele>74.50244140625</ele>
        <time>2026-08-04T11:26:22Z</time>
      </trkpt>
      <trkpt lat="39.91021537688909" lon="116.14210063064748">
        <ele>74.83453369140625</ele>
        <time>2026-08-04T11:26:34Z</time>
      </trkpt>
      <trkpt lat="39.910304008922004" lon="116.1418800538232">
        <ele>74.13348388671875</ele>
        <time>2026-08-04T11:26:43Z</time>
      </trkpt>
      <trkpt lat="39.91040988045556" lon="116.14180484780717">
        <ele>73.8936767578125</ele>
        <time>2026-08-04T11:26:49Z</time>
      </trkpt>
      <trkpt lat="39.91046567502231" lon="116.1416815252121">
        <ele>74.607666015625</ele>
        <time>2026-08-04T11:26:55Z</time>
      </trkpt>
      <trkpt lat="39.91067128896438" lon="116.14145191259853">
        <ele>74.90509033203125</ele>
        <time>2026-08-04T11:27:10Z</time>
      </trkpt>
      <trkpt lat="39.910827135957035" lon="116.1413626651762">
        <ele>75.04931640625</ele>
        <time>2026-08-04T11:27:19Z</time>
      </trkpt>
      <trkpt lat="39.91084601028143" lon="116.14128646857267">
        <ele>75.17071533203125</ele>
        <time>2026-08-04T11:27:25Z</time>
      </trkpt>
      <trkpt lat="39.91088094311584" lon="116.14124636197079">
        <ele>74.09124755859375</ele>
        <time>2026-08-04T11:27:52Z</time>
      </trkpt>
      <trkpt lat="39.91100594436213" lon="116.14125035627924">
        <ele>76.1402587890625</ele>
        <time>2026-08-04T11:28:04Z</time>
      </trkpt>
      <trkpt lat="39.9112357065818" lon="116.14111097232694">
        <ele>75.9757080078125</ele>
        <time>2026-08-04T11:28:28Z</time>
      </trkpt>
      <trkpt lat="39.91142742661715" lon="116.1409445249122">
        <ele>75.7818603515625</ele>
        <time>2026-08-04T11:28:40Z</time>
      </trkpt>
      <trkpt lat="39.91147834922423" lon="116.14089840132624">
        <ele>75.55291748046875</ele>
        <time>2026-08-04T11:28:58Z</time>
      </trkpt>
      <trkpt lat="39.911525325975674" lon="116.1408853622621">
        <ele>75.314697265625</ele>
        <time>2026-08-04T11:29:07Z</time>
      </trkpt>
      <trkpt lat="39.91155323000809" lon="116.14082721114613">
        <ele>75.261474609375</ele>
        <time>2026-08-04T11:29:13Z</time>
      </trkpt>
      <trkpt lat="39.91167011237099" lon="116.14075802082498">
        <ele>74.93707275390625</ele>
        <time>2026-08-04T11:29:25Z</time>
      </trkpt>
      <trkpt lat="39.91167996838484" lon="116.14066979597912">
        <ele>74.83984375</ele>
        <time>2026-08-04T11:29:32Z</time>
      </trkpt>
      <trkpt lat="39.91164282002807" lon="116.14057756715223">
        <ele>74.59942626953125</ele>
        <time>2026-08-04T11:29:37Z</time>
      </trkpt>
      <trkpt lat="39.9116357796124" lon="116.14055250461777">
        <ele>75.11456298828125</ele>
        <time>2026-08-04T11:31:46Z</time>
      </trkpt>
      <trkpt lat="39.91035254399784" lon="116.14280743290732">
        <ele>83.23468017578125</ele>
        <time>2026-08-04T12:05:57Z</time>
      </trkpt>
      <trkpt lat="39.910160112677765" lon="116.1431433259344">
        <ele>84.20892333984375</ele>
        <time>2026-08-04T12:06:18Z</time>
      </trkpt>
      <trkpt lat="39.90997564094589" lon="116.14345415530532">
        <ele>83.81829833984375</ele>
        <time>2026-08-04T12:06:36Z</time>
      </trkpt>
      <trkpt lat="39.90990582898285" lon="116.14356445064846">
        <ele>83.20111083984375</ele>
        <time>2026-08-04T12:06:42Z</time>
      </trkpt>
      <trkpt lat="39.90970525721771" lon="116.14381412555788">
        <ele>82.93365478515625</ele>
        <time>2026-08-04T12:06:57Z</time>
      </trkpt>
      <trkpt lat="39.909495686896996" lon="116.14406380291733">
        <ele>82.03607177734375</ele>
        <time>2026-08-04T12:07:12Z</time>
      </trkpt>
      <trkpt lat="39.90941387828218" lon="116.1441751038131">
        <ele>81.81439208984375</ele>
        <time>2026-08-04T12:07:18Z</time>
      </trkpt>
      <trkpt lat="39.90918901328175" lon="116.1442493262048">
        <ele>82.1612548828125</ele>
        <time>2026-08-04T12:07:30Z</time>
      </trkpt>
      <trkpt lat="39.90907532009324" lon="116.14442780730074">
        <ele>81.93597412109375</ele>
        <time>2026-08-04T12:07:39Z</time>
      </trkpt>
      <trkpt lat="39.908957596993304" lon="116.14458824227411">
        <ele>81.4708251953125</ele>
        <time>2026-08-04T12:07:48Z</time>
      </trkpt>
      <trkpt lat="39.90891426666107" lon="116.14498127899873">
        <ele>81.09600830078125</ele>
        <time>2026-08-04T12:08:03Z</time>
      </trkpt>
      <trkpt lat="39.90888783019044" lon="116.14531115021708">
        <ele>81.87481689453125</ele>
        <time>2026-08-04T12:08:15Z</time>
      </trkpt>
      <trkpt lat="39.90889944532791" lon="116.14567109816286">
        <ele>81.31005859375</ele>
        <time>2026-08-04T12:08:30Z</time>
      </trkpt>
      <trkpt lat="39.908893106329984" lon="116.14605611725952">
        <ele>80.6552734375</ele>
        <time>2026-08-04T12:08:45Z</time>
      </trkpt>
      <trkpt lat="39.90884420497352" lon="116.14611227220797">
        <ele>80.00469970703125</ele>
        <time>2026-08-04T12:08:48Z</time>
      </trkpt>
      <trkpt lat="39.90883794989234" lon="116.14654441970104">
        <ele>82.25506591796875</ele>
        <time>2026-08-04T12:09:03Z</time>
      </trkpt>
      <trkpt lat="39.90879965031965" lon="116.14694849987089">
        <ele>81.99517822265625</ele>
        <time>2026-08-04T12:09:18Z</time>
      </trkpt>
      <trkpt lat="39.90877439090656" lon="116.14737464025953">
        <ele>81.62188720703125</ele>
        <time>2026-08-04T12:09:33Z</time>
      </trkpt>
      <trkpt lat="39.90874764669425" lon="116.14752103504951">
        <ele>78.88140869140625</ele>
        <time>2026-08-04T12:09:39Z</time>
      </trkpt>
      <trkpt lat="39.908759273611814" lon="116.14788099755005">
        <ele>78.20660400390625</ele>
        <time>2026-08-04T12:09:54Z</time>
      </trkpt>
      <trkpt lat="39.9087639447482" lon="116.14826502781045">
        <ele>77.26202392578125</ele>
        <time>2026-08-04T12:10:12Z</time>
      </trkpt>
      <trkpt lat="39.908784173962566" lon="116.14839637839813">
        <ele>77.31231689453125</ele>
        <time>2026-08-04T12:10:18Z</time>
      </trkpt>
      <trkpt lat="39.90876181192356" lon="116.14875935860977">
        <ele>75.11126708984375</ele>
        <time>2026-08-04T12:10:33Z</time>
      </trkpt>
      <trkpt lat="39.908773625132646" lon="116.14922160485135">
        <ele>77.40777587890625</ele>
        <time>2026-08-04T12:10:54Z</time>
      </trkpt>
      <trkpt lat="39.90876227714972" lon="116.14959060473225">
        <ele>78.85540771484375</ele>
        <time>2026-08-04T12:11:12Z</time>
      </trkpt>
      <trkpt lat="39.90878098291092" lon="116.14998968454205">
        <ele>79.5372314453125</ele>
        <time>2026-08-04T12:11:30Z</time>
      </trkpt>
      <trkpt lat="39.90876374207965" lon="116.15041684768126">
        <ele>81.4730224609375</ele>
        <time>2026-08-04T12:11:48Z</time>
      </trkpt>
      <trkpt lat="39.908761425908565" lon="116.15080089400338">
        <ele>80.03778076171875</ele>
        <time>2026-08-04T12:12:03Z</time>
      </trkpt>
      <trkpt lat="39.90877680802834" lon="116.15101547742756">
        <ele>79.36224365234375</ele>
        <time>2026-08-04T12:12:12Z</time>
      </trkpt>
      <trkpt lat="39.90875529623502" lon="116.15128822510856">
        <ele>78.3525390625</ele>
        <time>2026-08-04T12:12:24Z</time>
      </trkpt>
      <trkpt lat="39.90877247665106" lon="116.15138949980668">
        <ele>78.29608154296875</ele>
        <time>2026-08-04T12:12:30Z</time>
      </trkpt>
      <trkpt lat="39.90886846176763" lon="116.15138347117866">
        <ele>77.5458984375</ele>
        <time>2026-08-04T12:12:36Z</time>
      </trkpt>
      <trkpt lat="39.90890259489222" lon="116.15145867253507">
        <ele>76.82171630859375</ele>
        <time>2026-08-04T12:12:45Z</time>
      </trkpt>
      <trkpt lat="39.908920273410644" lon="116.15183770810205">
        <ele>78.170654296875</ele>
        <time>2026-08-04T12:13:03Z</time>
      </trkpt>
      <trkpt lat="39.90895335476187" lon="116.15188383032988">
        <ele>77.7061767578125</ele>
        <time>2026-08-04T12:13:06Z</time>
      </trkpt>
      <trkpt lat="39.9091223421178" lon="116.15188080065056">
        <ele>77.045654296875</ele>
        <time>2026-08-04T12:13:15Z</time>
      </trkpt>
      <trkpt lat="39.909168370739316" lon="116.15189784154082">
        <ele>77.29193115234375</ele>
        <time>2026-08-04T12:13:18Z</time>
      </trkpt>
      <trkpt lat="39.90917163708063" lon="116.15204624809704">
        <ele>77.3907470703125</ele>
        <time>2026-08-04T12:13:24Z</time>
      </trkpt>
      <trkpt lat="39.90926877886242" lon="116.15212745863106">
        <ele>78.06622314453125</ele>
        <time>2026-08-04T12:13:30Z</time>
      </trkpt>
      <trkpt lat="39.90928810621201" lon="116.15230995722163">
        <ele>79.49847412109375</ele>
        <time>2026-08-04T12:13:39Z</time>
      </trkpt>
      <trkpt lat="39.90937127950511" lon="116.15240821664001">
        <ele>81.1253662109375</ele>
        <time>2026-08-04T12:13:48Z</time>
      </trkpt>
      <trkpt lat="39.90943828385687" lon="116.15241221916439">
        <ele>80.6328125</ele>
        <time>2026-08-04T12:13:54Z</time>
      </trkpt>
      <trkpt lat="39.90948235960328" lon="116.15245533207003">
        <ele>79.4659423828125</ele>
        <time>2026-08-04T12:14:00Z</time>
      </trkpt>
      <trkpt lat="39.90946170374713" lon="116.1526458585489">
        <ele>78.557861328125</ele>
        <time>2026-08-04T12:14:09Z</time>
      </trkpt>
      <trkpt lat="39.909481977753394" lon="116.15279827538663">
        <ele>78.7059326171875</ele>
        <time>2026-08-04T12:14:15Z</time>
      </trkpt>
      <trkpt lat="39.90953819794946" lon="116.15292160785418">
        <ele>78.289306640625</ele>
        <time>2026-08-04T12:14:21Z</time>
      </trkpt>
      <trkpt lat="39.90955283156957" lon="116.15327257332167">
        <ele>79.51263427734375</ele>
        <time>2026-08-04T12:14:36Z</time>
      </trkpt>
      <trkpt lat="39.9095889298016" lon="116.15332772088443">
        <ele>79.76239013671875</ele>
        <time>2026-08-04T12:14:39Z</time>
      </trkpt>
      <trkpt lat="39.909891976721745" lon="116.15336077376439">
        <ele>79.13348388671875</ele>
        <time>2026-08-04T12:14:54Z</time>
      </trkpt>
      <trkpt lat="39.91018892955859" lon="116.15334168354694">
        <ele>78.4093017578125</ele>
        <time>2026-08-04T12:15:09Z</time>
      </trkpt>
      <trkpt lat="39.910468897652144" lon="116.15333061761831">
        <ele>77.87811279296875</ele>
        <time>2026-08-04T12:15:27Z</time>
      </trkpt>
      <trkpt lat="39.91078890578483" lon="116.15334261024512">
        <ele>78.6505126953125</ele>
        <time>2026-08-04T12:15:45Z</time>
      </trkpt>
      <trkpt lat="39.91109387102597" lon="116.1533305383792">
        <ele>78.48443603515625</ele>
        <time>2026-08-04T12:16:03Z</time>
      </trkpt>
      <trkpt lat="39.91125786586352" lon="116.15333152035286">
        <ele>79.53558349609375</ele>
        <time>2026-08-04T12:16:12Z</time>
      </trkpt>
      <trkpt lat="39.91132004107976" lon="116.15342978365278">
        <ele>79.42022705078125</ele>
        <time>2026-08-04T12:16:18Z</time>
      </trkpt>
      <trkpt lat="39.911299774310905" lon="116.15383390254824">
        <ele>79.14300537109375</ele>
        <time>2026-08-04T12:16:36Z</time>
      </trkpt>
      <trkpt lat="39.91123540157424" lon="116.15417786225824">
        <ele>79.052734375</ele>
        <time>2026-08-04T12:16:51Z</time>
      </trkpt>
      <trkpt lat="39.91123710376625" lon="116.15456393161703">
        <ele>79.41094970703125</ele>
        <time>2026-08-04T12:17:09Z</time>
      </trkpt>
      <trkpt lat="39.91125075736427" lon="116.15492292583497">
        <ele>79.001953125</ele>
        <time>2026-08-04T12:17:27Z</time>
      </trkpt>
      <trkpt lat="39.91128448447309" lon="116.15532203029464">
        <ele>79.405517578125</ele>
        <time>2026-08-04T12:17:45Z</time>
      </trkpt>
      <trkpt lat="39.9113342360521" lon="116.15573417053783">
        <ele>79.676513671875</ele>
        <time>2026-08-04T12:18:03Z</time>
      </trkpt>
      <trkpt lat="39.91140875446103" lon="116.15601895427052">
        <ele>80.6865234375</ele>
        <time>2026-08-04T12:18:15Z</time>
      </trkpt>
      <trkpt lat="39.911465987306926" lon="116.15614730474323">
        <ele>81.440185546875</ele>
        <time>2026-08-04T12:18:21Z</time>
      </trkpt>
      <trkpt lat="39.9114625596155" lon="116.15645917492787">
        <ele>83.0687255859375</ele>
        <time>2026-08-04T12:18:33Z</time>
      </trkpt>
      <trkpt lat="39.91156416134019" lon="116.1567890830384">
        <ele>78.601806640625</ele>
        <time>2026-08-04T12:18:48Z</time>
      </trkpt>
      <trkpt lat="39.91166084893328" lon="116.15716512161258">
        <ele>76.73199462890625</ele>
        <time>2026-08-04T12:19:03Z</time>
      </trkpt>
      <trkpt lat="39.911739392248094" lon="116.15746194188459">
        <ele>77.86474609375</ele>
        <time>2026-08-04T12:19:15Z</time>
      </trkpt>
      <trkpt lat="39.91177604889924" lon="116.1578189366094">
        <ele>77.4642333984375</ele>
        <time>2026-08-04T12:19:27Z</time>
      </trkpt>
      <trkpt lat="39.9118407384856" lon="116.1581939792792">
        <ele>76.15570068359375</ele>
        <time>2026-08-04T12:19:42Z</time>
      </trkpt>
      <trkpt lat="39.911862167461734" lon="116.15842662891002">
        <ele>76.52935791015625</ele>
        <time>2026-08-04T12:19:51Z</time>
      </trkpt>
      <trkpt lat="39.9118352612923" lon="116.15847677295329">
        <ele>76.54339599609375</ele>
        <time>2026-08-04T12:20:00Z</time>
      </trkpt>
      <trkpt lat="39.911929936179085" lon="116.15884379091135">
        <ele>77.166015625</ele>
        <time>2026-08-04T12:20:24Z</time>
      </trkpt>
      <trkpt lat="39.91200423375824" lon="116.15900623764396">
        <ele>73.18524169921875</ele>
        <time>2026-08-04T12:20:33Z</time>
      </trkpt>
      <trkpt lat="39.91206989789617" lon="116.15936624069617">
        <ele>72.4656982421875</ele>
        <time>2026-08-04T12:20:48Z</time>
      </trkpt>
      <trkpt lat="39.9121026682594" lon="116.15978240655055">
        <ele>70.097900390625</ele>
        <time>2026-08-04T12:21:06Z</time>
      </trkpt>
      <trkpt lat="39.912190310457156" lon="116.16013037442256">
        <ele>65.25482177734375</ele>
        <time>2026-08-04T12:21:21Z</time>
      </trkpt>
      <trkpt lat="39.91230506945289" lon="116.16054151732799">
        <ele>68.49859619140625</ele>
        <time>2026-08-04T12:21:36Z</time>
      </trkpt>
      <trkpt lat="39.9123385434653" lon="116.16079723332227">
        <ele>68.551513671875</ele>
        <time>2026-08-04T12:21:45Z</time>
      </trkpt>
      <trkpt lat="39.91242318723752" lon="116.16114520310762">
        <ele>73.87677001953125</ele>
        <time>2026-08-04T12:21:57Z</time>
      </trkpt>
      <trkpt lat="39.912516931901365" lon="116.161547324873">
        <ele>75.826416015625</ele>
        <time>2026-08-04T12:22:12Z</time>
      </trkpt>
      <trkpt lat="39.912604679213516" lon="116.16195045074923">
        <ele>76.74432373046875</ele>
        <time>2026-08-04T12:22:27Z</time>
      </trkpt>
      <trkpt lat="39.91267546325019" lon="116.16237263299881">
        <ele>76.060791015625</ele>
        <time>2026-08-04T12:22:48Z</time>
      </trkpt>
      <trkpt lat="39.91272610828112" lon="116.16271960590812">
        <ele>74.77557373046875</ele>
        <time>2026-08-04T12:23:06Z</time>
      </trkpt>
      <trkpt lat="39.91276360816788" lon="116.16298835988005">
        <ele>73.98394775390625</ele>
        <time>2026-08-04T12:23:18Z</time>
      </trkpt>
      <trkpt lat="39.912774907150876" lon="116.1631488114762">
        <ele>75.669921875</ele>
        <time>2026-08-04T12:23:24Z</time>
      </trkpt>
      <trkpt lat="39.91284655374728" lon="116.16349678505185">
        <ele>73.53948974609375</ele>
        <time>2026-08-04T12:23:39Z</time>
      </trkpt>
      <trkpt lat="39.912892769006845" lon="116.16361310773407">
        <ele>72.32586669921875</ele>
        <time>2026-08-04T12:23:45Z</time>
      </trkpt>
      <trkpt lat="39.91294353102283" lon="116.16402225692492">
        <ele>74.0301513671875</ele>
        <time>2026-08-04T12:24:00Z</time>
      </trkpt>
      <trkpt lat="39.912963154049386" lon="116.1643561977138">
        <ele>77.5364990234375</ele>
        <time>2026-08-04T12:24:12Z</time>
      </trkpt>
      <trkpt lat="39.91301971941255" lon="116.16466004889168">
        <ele>74.0677490234375</ele>
        <time>2026-08-04T12:24:24Z</time>
      </trkpt>
      <trkpt lat="39.91301594069973" lon="116.16477838363727">
        <ele>70.27471923828125</ele>
        <time>2026-08-04T12:24:30Z</time>
      </trkpt>
      <trkpt lat="39.91305437573567" lon="116.16501203881472">
        <ele>70.656982421875</ele>
        <time>2026-08-04T12:24:39Z</time>
      </trkpt>
      <trkpt lat="39.91305170570681" lon="116.16518853770756">
        <ele>72.254150390625</ele>
        <time>2026-08-04T12:24:45Z</time>
      </trkpt>
      <trkpt lat="39.91307382847173" lon="116.1652547218675">
        <ele>73.88299560546875</ele>
        <time>2026-08-04T12:24:48Z</time>
      </trkpt>
      <trkpt lat="39.913077332509" lon="116.1655244833785">
        <ele>72.52203369140625</ele>
        <time>2026-08-04T12:24:57Z</time>
      </trkpt>
      <trkpt lat="39.91314777937052" lon="116.16576515423985">
        <ele>71.9898681640625</ele>
        <time>2026-08-04T12:25:06Z</time>
      </trkpt>
      <trkpt lat="39.91316259031459" lon="116.16619937860207">
        <ele>72.84698486328125</ele>
        <time>2026-08-04T12:25:21Z</time>
      </trkpt>
      <trkpt lat="39.91321317853688" lon="116.16651526410178">
        <ele>71.92401123046875</ele>
        <time>2026-08-04T12:25:33Z</time>
      </trkpt>
      <trkpt lat="39.913202846096354" lon="116.16687227315929">
        <ele>72.0504150390625</ele>
        <time>2026-08-04T12:25:45Z</time>
      </trkpt>
      <trkpt lat="39.91321156893564" lon="116.16725936441503">
        <ele>68.19146728515625</ele>
        <time>2026-08-04T12:26:00Z</time>
      </trkpt>
      <trkpt lat="39.91321239493051" lon="116.16770161183528">
        <ele>67.296142578125</ele>
        <time>2026-08-04T12:26:15Z</time>
      </trkpt>
      <trkpt lat="39.913235230921835" lon="116.16814987284292">
        <ele>66.89495849609375</ele>
        <time>2026-08-04T12:26:30Z</time>
      </trkpt>
      <trkpt lat="39.91322194456211" lon="116.16853195124405">
        <ele>69.59307861328125</ele>
        <time>2026-08-04T12:26:42Z</time>
      </trkpt>
      <trkpt lat="39.913198445082635" lon="116.16879970842972">
        <ele>71.10888671875</ele>
        <time>2026-08-04T12:26:51Z</time>
      </trkpt>
      <trkpt lat="39.91324204356513" lon="116.1691216092917">
        <ele>69.4722900390625</ele>
        <time>2026-08-04T12:27:03Z</time>
      </trkpt>
      <trkpt lat="39.91319984347993" lon="116.1695498195518">
        <ele>70.16265869140625</ele>
        <time>2026-08-04T12:27:18Z</time>
      </trkpt>
      <trkpt lat="39.91315648230516" lon="116.16989178663411">
        <ele>70.6683349609375</ele>
        <time>2026-08-04T12:27:30Z</time>
      </trkpt>
      <trkpt lat="39.913159161727556" lon="116.17025681208861">
        <ele>69.75030517578125</ele>
        <time>2026-08-04T12:27:45Z</time>
      </trkpt>
      <trkpt lat="39.91313490708549" lon="116.17065693871155">
        <ele>70.65338134765625</ele>
        <time>2026-08-04T12:28:00Z</time>
      </trkpt>
      <trkpt lat="39.91316357506136" lon="116.17101694519997">
        <ele>67.941162109375</ele>
        <time>2026-08-04T12:28:15Z</time>
      </trkpt>
      <trkpt lat="39.91315111763102" lon="116.17130876494063">
        <ele>68.63226318359375</ele>
        <time>2026-08-04T12:28:27Z</time>
      </trkpt>
      <trkpt lat="39.91317253743916" lon="116.17153539726617">
        <ele>66.03546142578125</ele>
        <time>2026-08-04T12:28:36Z</time>
      </trkpt>
      <trkpt lat="39.91313379027823" lon="116.1716707813126">
        <ele>63.37225341796875</ele>
        <time>2026-08-04T12:28:42Z</time>
      </trkpt>
      <trkpt lat="39.91312036177706" lon="116.17197864476198">
        <ele>65.38641357421875</ele>
        <time>2026-08-04T12:28:54Z</time>
      </trkpt>
      <trkpt lat="39.91316699342563" lon="116.17232059526187">
        <ele>66.09820556640625</ele>
        <time>2026-08-04T12:29:06Z</time>
      </trkpt>
      <trkpt lat="39.9131472746463" lon="116.17247202096135">
        <ele>66.44219970703125</ele>
        <time>2026-08-04T12:29:12Z</time>
      </trkpt>
      <trkpt lat="39.913174041633795" lon="116.17288717699078">
        <ele>65.42205810546875</ele>
        <time>2026-08-04T12:29:27Z</time>
      </trkpt>
      <trkpt lat="39.913162701857566" lon="116.17324417425965">
        <ele>68.9500732421875</ele>
        <time>2026-08-04T12:29:39Z</time>
      </trkpt>
      <trkpt lat="39.91315742213062" lon="116.17363426181981">
        <ele>70.477783203125</ele>
        <time>2026-08-04T12:29:54Z</time>
      </trkpt>
      <trkpt lat="39.91315708583774" lon="116.1739942637217">
        <ele>70.08648681640625</ele>
        <time>2026-08-04T12:30:12Z</time>
      </trkpt>
      <trkpt lat="39.91316346603346" lon="116.17420083725685">
        <ele>69.66815185546875</ele>
        <time>2026-08-04T12:30:21Z</time>
      </trkpt>
      <trkpt lat="39.9131119646102" lon="116.17447059311512">
        <ele>66.896484375</ele>
        <time>2026-08-04T12:30:33Z</time>
      </trkpt>
      <trkpt lat="39.91312364793079" lon="116.17484262398531">
        <ele>66.03741455078125</ele>
        <time>2026-08-04T12:30:48Z</time>
      </trkpt>
      <trkpt lat="39.91311230917929" lon="116.17520262302185">
        <ele>68.27642822265625</ele>
        <time>2026-08-04T12:31:03Z</time>
      </trkpt>
      <trkpt lat="39.913131896539305" lon="116.17552350863797">
        <ele>68.2432861328125</ele>
        <time>2026-08-04T12:31:15Z</time>
      </trkpt>
      <trkpt lat="39.9131064465012" lon="116.17582334063482">
        <ele>66.9744873046875</ele>
        <time>2026-08-04T12:31:27Z</time>
      </trkpt>
      <trkpt lat="39.91311674133119" lon="116.1759847851977">
        <ele>68.12957763671875</ele>
        <time>2026-08-04T12:31:36Z</time>
      </trkpt>
    </trkseg>
  </trk>
</gpx>