<?xml version="1.0" encoding="UTF-8"?>
<gpx xmlns="http://www.topografix.com/GPX/1/1" xmlns:gpxtpx="http://www.garmin.com/xmlschemas/TrackPointExtension/v1" xmlns:xsi="http://www.w3.org/2001/XMLSchema-instance" xsi:schemaLocation="http://www.topografix.com/GPX/1/1 http://www.topografix.com/GPX/1/1/gpx.xsd" version="1.1" creator="gpx.py -- https://github.com/tkrajina/gpxpy">
  <trk>
    <name>gpx from keep</name>
    <type>Run</type>
    <trkseg>
      <trkpt lat="38.869042512697874" lon="115.47728196694088">
        <ele>56.0609130859375</ele>
        <time>2026-09-30T12:49:49Z</time>
      </trkpt>
      <trkpt lat="38.869095534922195" lon="115.47730002931424">
        <ele>21.716064453125</ele>
        <time>2026-09-30T12:49:55Z</time>
      </trkpt>
      <trkpt lat="38.86902825999579" lon="115.47753894891281">
        <ele>15.86553955078125</ele>
        <time>2026-09-30T12:50:04Z</time>
      </trkpt>
      <trkpt lat="38.86900137697784" lon="115.47792141327027">
        <ele>11.29205322265625</ele>
        <time>2026-09-30T12:50:28Z</time>
      </trkpt>
      <trkpt lat="38.869036159791804" lon="115.47819947287347">
        <ele>13.24102783203125</ele>
        <time>2026-09-30T12:50:46Z</time>
      </trkpt>
      <trkpt lat="38.86901873785758" lon="115.47839622860403">
        <ele>14.85308837890625</ele>
        <time>2026-09-30T12:50:58Z</time>
      </trkpt>
      <trkpt lat="38.8690280459905" lon="115.47850464299299">
        <ele>13.88983154296875</ele>
        <time>2026-09-30T12:51:04Z</time>
      </trkpt>
      <trkpt lat="38.86901242921936" lon="115.47863414150194">
        <ele>12.77630615234375</ele>
        <time>2026-09-30T12:51:10Z</time>
      </trkpt>
      <trkpt lat="38.86905174408911" lon="115.47875058347103">
        <ele>11.31219482421875</ele>
        <time>2026-09-30T12:51:16Z</time>
      </trkpt>
      <trkpt lat="38.86908786329802" lon="115.47879876398672">
        <ele>11.501068115234375</ele>
        <time>2026-09-30T12:51:19Z</time>
      </trkpt>
      <trkpt lat="38.86940689072335" lon="115.4788699984878">
        <ele>12.82867431640625</ele>
        <time>2026-09-30T12:51:37Z</time>
      </trkpt>
      <trkpt lat="38.86971097886646" lon="115.47895930431773">
        <ele>9.9200439453125</ele>
        <time>2026-09-30T12:51:52Z</time>
      </trkpt>
      <trkpt lat="38.86999201599693" lon="115.47902652824533">
        <ele>15.61090087890625</ele>
        <time>2026-09-30T12:52:07Z</time>
      </trkpt>
      <trkpt lat="38.87010796545699" lon="115.47903153330819">
        <ele>13.47564697265625</ele>
        <time>2026-09-30T12:52:13Z</time>
      </trkpt>
      <trkpt lat="38.87021568978299" lon="115.47895723468825">
        <ele>11.276336669921875</ele>
        <time>2026-09-30T12:52:19Z</time>
      </trkpt>
      <trkpt lat="38.87028910504606" lon="115.4787695048668">
        <ele>10.130950927734375</ele>
        <time>2026-09-30T12:52:28Z</time>
      </trkpt>
      <trkpt lat="38.87029596904397" lon="115.47837800264313">
        <ele>8.303985595703125</ele>
        <time>2026-09-30T12:52:43Z</time>
      </trkpt>
      <trkpt lat="38.870335932213635" lon="115.47802665259834">
        <ele>10.633209228515625</ele>
        <time>2026-09-30T12:52:58Z</time>
      </trkpt>
      <trkpt lat="38.87043982926218" lon="115.4776642547099">
        <ele>10.538299560546875</ele>
        <time>2026-09-30T12:53:16Z</time>
      </trkpt>
      <trkpt lat="38.87046678855397" lon="115.47730789159004">
        <ele>11.384796142578125</ele>
        <time>2026-09-30T12:53:34Z</time>
      </trkpt>
      <trkpt lat="38.8705225604903" lon="115.47689129806378">
        <ele>10.330596923828125</ele>
        <time>2026-09-30T12:53:52Z</time>
      </trkpt>
      <trkpt lat="38.87056887512495" lon="115.47666141822606">
        <ele>7.966888427734375</ele>
        <time>2026-09-30T12:54:01Z</time>
      </trkpt>
      <trkpt lat="38.870564423127504" lon="115.47650281623196">
        <ele>7.627593994140625</ele>
        <time>2026-09-30T12:54:07Z</time>
      </trkpt>
      <trkpt lat="38.87050906328718" lon="115.47636630477444">
        <ele>7.87109375</ele>
        <time>2026-09-30T12:54:13Z</time>
      </trkpt>
      <trkpt lat="38.8704579483335" lon="115.4763161206073">
        <ele>7.840179443359375</ele>
        <time>2026-09-30T12:54:16Z</time>
      </trkpt>
      <trkpt lat="38.87039092564315" lon="115.47629504886672">
        <ele>8.031463623046875</ele>
        <time>2026-09-30T12:54:19Z</time>
      </trkpt>
      <trkpt lat="38.87008432761924" lon="115.47637539122383">
        <ele>5.670074462890625</ele>
        <time>2026-09-30T12:54:34Z</time>
      </trkpt>
      <trkpt lat="38.86997859390635" lon="115.4764476785463">
        <ele>6.079620361328125</ele>
        <time>2026-09-30T12:54:40Z</time>
      </trkpt>
      <trkpt lat="38.86987895174718" lon="115.47655309103732">
        <ele>7.68096923828125</ele>
        <time>2026-09-30T12:54:46Z</time>
      </trkpt>
      <trkpt lat="38.86982408321255" lon="115.47658823124054">
        <ele>7.381011962890625</ele>
        <time>2026-09-30T12:54:49Z</time>
      </trkpt>
      <trkpt lat="38.869564231887395" lon="115.4765892669642">
        <ele>11.713958740234375</ele>
        <time>2026-09-30T12:55:01Z</time>
      </trkpt>
      <trkpt lat="38.86950131321221" lon="115.47660533571114">
        <ele>10.358489990234375</ele>
        <time>2026-09-30T12:55:04Z</time>
      </trkpt>
      <trkpt lat="38.86947246750038" lon="115.47665352234439">
        <ele>15.82843017578125</ele>
        <time>2026-09-30T12:55:10Z</time>
      </trkpt>
      <trkpt lat="38.86937254944461" lon="115.4766625689484">
        <ele>15.7696533203125</ele>
        <time>2026-09-30T12:55:16Z</time>
      </trkpt>
      <trkpt lat="38.86930951573741" lon="115.47663848513366">
        <ele>17.6083984375</ele>
        <time>2026-09-30T12:55:19Z</time>
      </trkpt>
      <trkpt lat="38.86910959044776" lon="115.47662546009613">
        <ele>13.2366943359375</ele>
        <time>2026-09-30T12:55:25Z</time>
      </trkpt>
      <trkpt lat="38.869053676467814" lon="115.47664453943725">
        <ele>12.66729736328125</ele>
        <time>2026-09-30T12:55:28Z</time>
      </trkpt>
      <trkpt lat="38.868960042688535" lon="115.4767539668463">
        <ele>12.0560302734375</ele>
        <time>2026-09-30T12:55:34Z</time>
      </trkpt>
      <trkpt lat="38.86892128325933" lon="115.47683026173267">
        <ele>11.655792236328125</ele>
        <time>2026-09-30T12:55:37Z</time>
      </trkpt>
      <trkpt lat="38.86890056565706" lon="115.47692462326954">
        <ele>11.52911376953125</ele>
        <time>2026-09-30T12:55:40Z</time>
      </trkpt>
      <trkpt lat="38.868903828967994" lon="115.47701697438544">
        <ele>10.97412109375</ele>
        <time>2026-09-30T12:55:43Z</time>
      </trkpt>
      <trkpt lat="38.86897941243954" lon="115.47723479485602">
        <ele>9.445556640625</ele>
        <time>2026-09-30T12:55:52Z</time>
      </trkpt>
      <trkpt lat="38.86896953569574" lon="115.47762327801796">
        <ele>11.89300537109375</ele>
        <time>2026-09-30T12:56:07Z</time>
      </trkpt>
      <trkpt lat="38.869002596325316" lon="115.47799770487752">
        <ele>12.90826416015625</ele>
        <time>2026-09-30T12:56:19Z</time>
      </trkpt>
      <trkpt lat="38.86899613183029" lon="115.4783404980827">
        <ele>11.023193359375</ele>
        <time>2026-09-30T12:56:34Z</time>
      </trkpt>
      <trkpt lat="38.869012417611174" lon="115.47863012610082">
        <ele>10.43072509765625</ele>
        <time>2026-09-30T12:56:43Z</time>
      </trkpt>
      <trkpt lat="38.86904066895974" lon="115.47872247696223">
        <ele>10.63507080078125</ele>
        <time>2026-09-30T12:56:46Z</time>
      </trkpt>
      <trkpt lat="38.869089870889596" lon="115.4788017753009">
        <ele>11.861083984375</ele>
        <time>2026-09-30T12:56:49Z</time>
      </trkpt>
      <trkpt lat="38.86915098192668" lon="115.47885196050107">
        <ele>12.48516845703125</ele>
        <time>2026-09-30T12:56:52Z</time>
      </trkpt>
      <trkpt lat="38.8694579434765" lon="115.47889810016267">
        <ele>11.11712646484375</ele>
        <time>2026-09-30T12:57:07Z</time>
      </trkpt>
      <trkpt lat="38.86975795541529" lon="115.478960302411">
        <ele>8.61907958984375</ele>
        <time>2026-09-30T12:57:22Z</time>
      </trkpt>
      <trkpt lat="38.869929030987784" lon="115.479019508971">
        <ele>11.64697265625</ele>
        <time>2026-09-30T12:57:31Z</time>
      </trkpt>
      <trkpt lat="38.870046026402115" lon="115.47904057562414">
        <ele>12.37933349609375</ele>
        <time>2026-09-30T12:57:37Z</time>
      </trkpt>
      <trkpt lat="38.87022061142473" lon="115.47893113382894">
        <ele>11.272552490234375</ele>
        <time>2026-09-30T12:57:46Z</time>
      </trkpt>
      <trkpt lat="38.87025841868668" lon="115.47887190172996">
        <ele>10.738037109375</ele>
        <time>2026-09-30T12:57:49Z</time>
      </trkpt>
      <trkpt lat="38.87029974761132" lon="115.47864803746802">
        <ele>10.720703125</ele>
        <time>2026-09-30T12:57:58Z</time>
      </trkpt>
      <trkpt lat="38.870316629768794" lon="115.47826456558428">
        <ele>11.267181396484375</ele>
        <time>2026-09-30T12:58:13Z</time>
      </trkpt>
      <trkpt lat="38.87037653304425" lon="115.4778961485436">
        <ele>10.842132568359375</ele>
        <time>2026-09-30T12:58:28Z</time>
      </trkpt>
      <trkpt lat="38.870437680139716" lon="115.47761205564623">
        <ele>9.0316162109375</ele>
        <time>2026-09-30T12:58:40Z</time>
      </trkpt>
      <trkpt lat="38.8704456157324" lon="115.47724364928726">
        <ele>12.23919677734375</ele>
        <time>2026-09-30T12:58:55Z</time>
      </trkpt>
      <trkpt lat="38.870555406658184" lon="115.47684411453844">
        <ele>10.19384765625</ele>
        <time>2026-09-30T12:59:10Z</time>
      </trkpt>
      <trkpt lat="38.87058320558286" lon="115.47643053950938">
        <ele>10.62713623046875</ele>
        <time>2026-09-30T12:59:25Z</time>
      </trkpt>
      <trkpt lat="38.87055700762713" lon="115.47635626079312">
        <ele>10.2847900390625</ele>
        <time>2026-09-30T12:59:28Z</time>
      </trkpt>
      <trkpt lat="38.87042990088509" lon="115.47629404027177">
        <ele>9.83837890625</ele>
        <time>2026-09-30T12:59:34Z</time>
      </trkpt>
      <trkpt lat="38.870358909151435" lon="115.47628300710443">
        <ele>9.067840576171875</ele>
        <time>2026-09-30T12:59:37Z</time>
      </trkpt>
      <trkpt lat="38.87006740034459" lon="115.47639747711732">
        <ele>7.098297119140625</ele>
        <time>2026-09-30T12:59:52Z</time>
      </trkpt>
      <trkpt lat="38.869868029784925" lon="115.4765781877085">
        <ele>11.95916748046875</ele>
        <time>2026-09-30T13:00:04Z</time>
      </trkpt>
      <trkpt lat="38.869697361474664" lon="115.47666052143262">
        <ele>9.988250732421875</ele>
        <time>2026-09-30T13:00:16Z</time>
      </trkpt>
      <trkpt lat="38.86949656046492" lon="115.47669066054873">
        <ele>22.1461181640625</ele>
        <time>2026-09-30T13:00:28Z</time>
      </trkpt>
      <trkpt lat="38.869221579440634" lon="115.47664351500491">
        <ele>18.4755859375</ele>
        <time>2026-09-30T13:00:40Z</time>
      </trkpt>
      <trkpt lat="38.86915258935462" lon="115.47663348533106">
        <ele>16.1549072265625</ele>
        <time>2026-09-30T13:00:43Z</time>
      </trkpt>
      <trkpt lat="38.868996895366465" lon="115.47670979440296">
        <ele>14.93505859375</ele>
        <time>2026-09-30T13:00:49Z</time>
      </trkpt>
      <trkpt lat="38.86894205852884" lon="115.47675597668805">
        <ele>14.66168212890625</ele>
        <time>2026-09-30T13:00:52Z</time>
      </trkpt>
      <trkpt lat="38.86890925256463" lon="115.47681721357506">
        <ele>14.30096435546875</ele>
        <time>2026-09-30T13:00:55Z</time>
      </trkpt>
      <trkpt lat="38.868913834889184" lon="115.47702098844393">
        <ele>13.31451416015625</ele>
        <time>2026-09-30T13:01:04Z</time>
      </trkpt>
      <trkpt lat="38.86898644600961" lon="115.47724784372897">
        <ele>12.067138671875</ele>
        <time>2026-09-30T13:01:16Z</time>
      </trkpt>
      <trkpt lat="38.86898455907208" lon="115.47763431833663">
        <ele>11.338287353515625</ele>
        <time>2026-09-30T13:01:34Z</time>
      </trkpt>
      <trkpt lat="38.869005626479264" lon="115.47800874674215">
        <ele>11.06982421875</ele>
        <time>2026-09-30T13:01:52Z</time>
      </trkpt>
      <trkpt lat="38.86901797293868" lon="115.47813121381228">
        <ele>9.626983642578125</ele>
        <time>2026-09-30T13:01:58Z</time>
      </trkpt>
      <trkpt lat="38.86899450203023" lon="115.47830990083719">
        <ele>8.20782470703125</ele>
        <time>2026-09-30T13:02:07Z</time>
      </trkpt>
      <trkpt lat="38.86900723761033" lon="115.47856688418284">
        <ele>7.99969482421875</ele>
        <time>2026-09-30T13:02:16Z</time>
      </trkpt>
      <trkpt lat="38.86903551210633" lon="115.47866726575123">
        <ele>9.06475830078125</ele>
        <time>2026-09-30T13:02:19Z</time>
      </trkpt>
      <trkpt lat="38.86908073654868" lon="115.47875359147214">
        <ele>8.9705810546875</ele>
        <time>2026-09-30T13:02:22Z</time>
      </trkpt>
      <trkpt lat="38.869395859126186" lon="115.47885694973164">
        <ele>11.75445556640625</ele>
        <time>2026-09-30T13:02:37Z</time>
      </trkpt>
      <trkpt lat="38.8696759200341" lon="115.47893220450722">
        <ele>11.88165283203125</ele>
        <time>2026-09-30T13:02:49Z</time>
      </trkpt>
      <trkpt lat="38.869994956178985" lon="115.47900645074105">
        <ele>13.244384765625</ele>
        <time>2026-09-30T13:03:04Z</time>
      </trkpt>
      <trkpt lat="38.87012083027022" lon="115.47898736201898">
        <ele>10.90216064453125</ele>
        <time>2026-09-30T13:03:10Z</time>
      </trkpt>
      <trkpt lat="38.87018466939901" lon="115.47894418836465">
        <ele>10.54095458984375</ele>
        <time>2026-09-30T13:03:13Z</time>
      </trkpt>
      <trkpt lat="38.870234469919254" lon="115.47888495478149">
        <ele>10.252166748046875</ele>
        <time>2026-09-30T13:03:16Z</time>
      </trkpt>
      <trkpt lat="38.87028200444727" lon="115.47873336703958">
        <ele>10.54254150390625</ele>
        <time>2026-09-30T13:03:22Z</time>
      </trkpt>
      <trkpt lat="38.870296305397616" lon="115.47849444889259">
        <ele>8.894989013671875</ele>
        <time>2026-09-30T13:03:31Z</time>
      </trkpt>
      <trkpt lat="38.87027883945215" lon="115.47832982014158">
        <ele>6.337677001953125</ele>
        <time>2026-09-30T13:03:37Z</time>
      </trkpt>
      <trkpt lat="38.8703083822296" lon="115.47817723220422">
        <ele>6.060577392578125</ele>
        <time>2026-09-30T13:03:43Z</time>
      </trkpt>
      <trkpt lat="38.87038760497885" lon="115.47792325081325">
        <ele>8.89483642578125</ele>
        <time>2026-09-30T13:03:52Z</time>
      </trkpt>
      <trkpt lat="38.87045159428485" lon="115.47758495046067">
        <ele>8.225128173828125</ele>
        <time>2026-09-30T13:04:04Z</time>
      </trkpt>
      <trkpt lat="38.87046906156025" lon="115.47740325497735">
        <ele>8.4595947265625</ele>
        <time>2026-09-30T13:04:10Z</time>
      </trkpt>
      <trkpt lat="38.870460806346216" lon="115.47731291146064">
        <ele>10.919097900390625</ele>
        <time>2026-09-30T13:04:13Z</time>
      </trkpt>
      <trkpt lat="38.8705447583643" lon="115.47696457420662">
        <ele>10.813323974609375</ele>
        <time>2026-09-30T13:04:25Z</time>
      </trkpt>
      <trkpt lat="38.87057473947299" lon="115.47661524203308">
        <ele>10.18414306640625</ele>
        <time>2026-09-30T13:04:37Z</time>
      </trkpt>
      <trkpt lat="38.87058223774605" lon="115.4764415815464">
        <ele>10.414459228515625</ele>
        <time>2026-09-30T13:04:43Z</time>
      </trkpt>
      <trkpt lat="38.87053304694462" lon="115.47636529801946">
        <ele>9.319580078125</ele>
        <time>2026-09-30T13:04:46Z</time>
      </trkpt>
      <trkpt lat="38.87038297032665" lon="115.47630910315766">
        <ele>11.008819580078125</ele>
        <time>2026-09-30T13:04:52Z</time>
      </trkpt>
      <trkpt lat="38.87018416813114" lon="115.4763392418309">
        <ele>9.721923828125</ele>
        <time>2026-09-30T13:05:01Z</time>
      </trkpt>
      <trkpt lat="38.86999857694126" lon="115.47644566847035">
        <ele>9.273529052734375</ele>
        <time>2026-09-30T13:05:10Z</time>
      </trkpt>
      <trkpt lat="38.86991487119265" lon="115.4765320065584">
        <ele>9.543670654296875</ele>
        <time>2026-09-30T13:05:16Z</time>
      </trkpt>
      <trkpt lat="38.86984402024702" lon="115.47657016015005">
        <ele>11.188568115234375</ele>
        <time>2026-09-30T13:05:19Z</time>
      </trkpt>
      <trkpt lat="38.869522241060665" lon="115.47658425305276">
        <ele>8.97021484375</ele>
        <time>2026-09-30T13:05:31Z</time>
      </trkpt>
      <trkpt lat="38.86941823611997" lon="115.4765621819316">
        <ele>11.468719482421875</ele>
        <time>2026-09-30T13:05:40Z</time>
      </trkpt>
      <trkpt lat="38.86915750603909" lon="115.47660537793004">
        <ele>11.9185791015625</ele>
        <time>2026-09-30T13:05:49Z</time>
      </trkpt>
      <trkpt lat="38.86899486484387" lon="115.47669875267852">
        <ele>13.05120849609375</ele>
        <time>2026-09-30T13:05:55Z</time>
      </trkpt>
      <trkpt lat="38.8689301084147" lon="115.47677103540921">
        <ele>14.602294921875</ele>
        <time>2026-09-30T13:05:58Z</time>
      </trkpt>
      <trkpt lat="38.868891383547506" lon="115.47685937613919">
        <ele>13.8426513671875</ele>
        <time>2026-09-30T13:06:01Z</time>
      </trkpt>
      <trkpt lat="38.86888661669811" lon="115.47693968228377">
        <ele>11.74139404296875</ele>
        <time>2026-09-30T13:06:04Z</time>
      </trkpt>
      <trkpt lat="38.86893407438511" lon="115.47710831852449">
        <ele>11.1512451171875</ele>
        <time>2026-09-30T13:06:10Z</time>
      </trkpt>
      <trkpt lat="38.86898846507809" lon="115.47725487026356">
        <ele>9.907684326171875</ele>
        <time>2026-09-30T13:06:16Z</time>
      </trkpt>
      <trkpt lat="38.869001471540805" lon="115.47760721277442">
        <ele>11.8360595703125</ele>
        <time>2026-09-30T13:06:28Z</time>
      </trkpt>
      <trkpt lat="38.869002892903275" lon="115.47775377235028">
        <ele>9.858184814453125</ele>
        <time>2026-09-30T13:06:34Z</time>
      </trkpt>
      <trkpt lat="38.868990093903754" lon="115.47782103092186">
        <ele>10.662567138671875</ele>
        <time>2026-09-30T13:06:37Z</time>
      </trkpt>
      <trkpt lat="38.86891617585212" lon="115.47783509370579">
        <ele>10.42974853515625</ele>
        <time>2026-09-30T13:06:40Z</time>
      </trkpt>
      <trkpt lat="38.868753165961955" lon="115.47779997943965">
        <ele>9.552581787109375</ele>
        <time>2026-09-30T13:06:46Z</time>
      </trkpt>
      <trkpt lat="38.868622233558156" lon="115.47779798783725">
        <ele>9.887908935546875</ele>
        <time>2026-09-30T13:06:52Z</time>
      </trkpt>
      <trkpt lat="38.868598472571364" lon="115.47787629001614">
        <ele>11.015594482421875</ele>
        <time>2026-09-30T13:06:55Z</time>
      </trkpt>
      <trkpt lat="38.86868516239669" lon="115.47813225849532">
        <ele>9.339263916015625</ele>
        <time>2026-09-30T13:07:04Z</time>
      </trkpt>
      <trkpt lat="38.86869943260536" lon="115.47822862565206">
        <ele>9.5738525390625</ele>
        <time>2026-09-30T13:07:07Z</time>
      </trkpt>
      <trkpt lat="38.868646230997435" lon="115.4784946513568">
        <ele>9.80560302734375</ele>
        <time>2026-09-30T13:07:16Z</time>
      </trkpt>
      <trkpt lat="38.86865446438592" lon="115.47857696596137">
        <ele>9.271240234375</ele>
        <time>2026-09-30T13:07:19Z</time>
      </trkpt>
      <trkpt lat="38.86874267336299" lon="115.47866629782777">
        <ele>8.358795166015625</ele>
        <time>2026-09-30T13:07:25Z</time>
      </trkpt>
      <trkpt lat="38.86885271043062" lon="115.4787004152785">
        <ele>8.46630859375</ele>
        <time>2026-09-30T13:07:31Z</time>
      </trkpt>
      <trkpt lat="38.86902159542002" lon="115.47869336759648">
        <ele>8.289520263671875</ele>
        <time>2026-09-30T13:07:40Z</time>
      </trkpt>
      <trkpt lat="38.86912984847333" lon="115.47880177039637">
        <ele>8.933624267578125</ele>
        <time>2026-09-30T13:07:46Z</time>
      </trkpt>
      <trkpt lat="38.86924187864123" lon="115.47883387997385">
        <ele>7.4710693359375</ele>
        <time>2026-09-30T13:07:52Z</time>
      </trkpt>
      <trkpt lat="38.869281954982384" lon="115.47886800610554">
        <ele>8.005279541015625</ele>
        <time>2026-09-30T13:07:55Z</time>
      </trkpt>
      <trkpt lat="38.869484890571414" lon="115.47888504674108">
        <ele>8.294525146484375</ele>
        <time>2026-09-30T13:08:04Z</time>
      </trkpt>
      <trkpt lat="38.8697739958473" lon="115.4789773660015">
        <ele>6.947601318359375</ele>
        <time>2026-09-30T13:08:16Z</time>
      </trkpt>
      <trkpt lat="38.870018965969386" lon="115.47901447865227">
        <ele>11.380279541015625</ele>
        <time>2026-09-30T13:08:28Z</time>
      </trkpt>
      <trkpt lat="38.87014480227345" lon="115.47898233979485">
        <ele>9.778564453125</ele>
        <time>2026-09-30T13:08:34Z</time>
      </trkpt>
      <trkpt lat="38.870199666794676" lon="115.47894619423677">
        <ele>9.171539306640625</ele>
        <time>2026-09-30T13:08:37Z</time>
      </trkpt>
      <trkpt lat="38.87023749147759" lon="115.47889298525124">
        <ele>7.5546875</ele>
        <time>2026-09-30T13:08:40Z</time>
      </trkpt>
      <trkpt lat="38.87027647035541" lon="115.47854765531264">
        <ele>9.223663330078125</ele>
        <time>2026-09-30T13:08:52Z</time>
      </trkpt>
      <trkpt lat="38.87029642372009" lon="115.47818927978692">
        <ele>6.639495849609375</ele>
        <time>2026-09-30T13:09:04Z</time>
      </trkpt>
      <trkpt lat="38.870365414843135" lon="115.47785298489713">
        <ele>6.405853271484375</ele>
        <time>2026-09-30T13:09:16Z</time>
      </trkpt>
      <trkpt lat="38.870414895308855" lon="115.47768232677988">
        <ele>7.02874755859375</ele>
        <time>2026-09-30T13:09:22Z</time>
      </trkpt>
      <trkpt lat="38.870424901564846" lon="115.47733901538409">
        <ele>9.13848876953125</ele>
        <time>2026-09-30T13:09:34Z</time>
      </trkpt>
      <trkpt lat="38.87050177961902" lon="115.476963575663">
        <ele>9.47088623046875</ele>
        <time>2026-09-30T13:09:46Z</time>
      </trkpt>
      <trkpt lat="38.87056702006828" lon="115.47671160923116">
        <ele>10.351165771484375</ele>
        <time>2026-09-30T13:09:55Z</time>
      </trkpt>
      <trkpt lat="38.87057626984439" lon="115.47645162038877">
        <ele>10.290863037109375</ele>
        <time>2026-09-30T13:10:04Z</time>
      </trkpt>
      <trkpt lat="38.87054607985579" lon="115.4763793497519">
        <ele>9.937652587890625</ele>
        <time>2026-09-30T13:10:07Z</time>
      </trkpt>
      <trkpt lat="38.87041095174193" lon="115.47630809591274">
        <ele>10.0985107421875</ele>
        <time>2026-09-30T13:10:13Z</time>
      </trkpt>
      <trkpt lat="38.87010136116417" lon="115.47639044627716">
        <ele>7.82574462890625</ele>
        <time>2026-09-30T13:10:28Z</time>
      </trkpt>
      <trkpt lat="38.86982704990542" lon="115.4765771889275">
        <ele>11.44342041015625</ele>
        <time>2026-09-30T13:10:43Z</time>
      </trkpt>
      <trkpt lat="38.86954824948355" lon="115.47659228036781">
        <ele>10.535003662109375</ele>
        <time>2026-09-30T13:10:55Z</time>
      </trkpt>
      <trkpt lat="38.86942636676041" lon="115.47660936017037">
        <ele>10.21282958984375</ele>
        <time>2026-09-30T13:11:01Z</time>
      </trkpt>
      <trkpt lat="38.86933651498174" lon="115.4766435008913">
        <ele>13.10296630859375</ele>
        <time>2026-09-30T13:11:07Z</time>
      </trkpt>
      <trkpt lat="38.869188482914716" lon="115.47660336649837">
        <ele>13.61273193359375</ele>
        <time>2026-09-30T13:11:13Z</time>
      </trkpt>
      <trkpt lat="38.86911756296045" lon="115.47661742860335">
        <ele>12.23382568359375</ele>
        <time>2026-09-30T13:11:16Z</time>
      </trkpt>
      <trkpt lat="38.86903974183233" lon="115.47666461744541">
        <ele>12.665771484375</ele>
        <time>2026-09-30T13:11:19Z</time>
      </trkpt>
      <trkpt lat="38.8689849653821" lon="115.47673187982235">
        <ele>12.2454833984375</ele>
        <time>2026-09-30T13:11:22Z</time>
      </trkpt>
      <trkpt lat="38.868946214564595" lon="115.47681118612938">
        <ele>10.912750244140625</ele>
        <time>2026-09-30T13:11:25Z</time>
      </trkpt>
      <trkpt lat="38.868926761345286" lon="115.47699789896103">
        <ele>10.91650390625</ele>
        <time>2026-09-30T13:11:31Z</time>
      </trkpt>
      <trkpt lat="38.86889195094142" lon="115.4770571287267">
        <ele>10.6875</ele>
        <time>2026-09-30T13:11:34Z</time>
      </trkpt>
      <trkpt lat="38.86882701041048" lon="115.47706516727976">
        <ele>10.10345458984375</ele>
        <time>2026-09-30T13:11:37Z</time>
      </trkpt>
      <trkpt lat="38.8686569097214" lon="115.47699692827071">
        <ele>10.3614501953125</ele>
        <time>2026-09-30T13:11:46Z</time>
      </trkpt>
      <trkpt lat="38.8686040143102" lon="115.47702303412521">
        <ele>10.59234619140625</ele>
        <time>2026-09-30T13:11:49Z</time>
      </trkpt>
      <trkpt lat="38.8685531955897" lon="115.47707624294574">
        <ele>12.24658203125</ele>
        <time>2026-09-30T13:11:52Z</time>
      </trkpt>
      <trkpt lat="38.86851343704704" lon="115.4771525384126">
        <ele>14.1317138671875</ele>
        <time>2026-09-30T13:11:55Z</time>
      </trkpt>
      <trkpt lat="38.8685037021568" lon="115.47724288386169">
        <ele>13.10321044921875</ele>
        <time>2026-09-30T13:11:58Z</time>
      </trkpt>
      <trkpt lat="38.86859237430538" lon="115.47749383002542">
        <ele>12.24114990234375</ele>
        <time>2026-09-30T13:12:07Z</time>
      </trkpt>
      <trkpt lat="38.86858410450542" lon="115.47774579306932">
        <ele>12.31695556640625</ele>
        <time>2026-09-30T13:12:16Z</time>
      </trkpt>
      <trkpt lat="38.868601297367974" lon="115.4778160594577">
        <ele>12.1641845703125</ele>
        <time>2026-09-30T13:12:19Z</time>
      </trkpt>
      <trkpt lat="38.868666321688416" lon="115.47783713204402">
        <ele>11.8719482421875</ele>
        <time>2026-09-30T13:12:22Z</time>
      </trkpt>
      <trkpt lat="38.86889218929884" lon="115.4778350966497">
        <ele>10.7540283203125</ele>
        <time>2026-09-30T13:12:34Z</time>
      </trkpt>
      <trkpt lat="38.8689743082144" lon="115.4778923052913">
        <ele>10.303009033203125</ele>
        <time>2026-09-30T13:12:40Z</time>
      </trkpt>
      <trkpt lat="38.869013433903525" lon="115.47794349623591">
        <ele>9.819671630859375</ele>
        <time>2026-09-30T13:12:43Z</time>
      </trkpt>
      <trkpt lat="38.86903263160923" lon="115.4780157703069">
        <ele>8.498138427734375</ele>
        <time>2026-09-30T13:12:46Z</time>
      </trkpt>
      <trkpt lat="38.8690238305962" lon="115.47808302870051">
        <ele>7.30670166015625</ele>
        <time>2026-09-30T13:12:49Z</time>
      </trkpt>
      <trkpt lat="38.86898505513914" lon="115.47815330237883">
        <ele>6.99676513671875</ele>
        <time>2026-09-30T13:12:52Z</time>
      </trkpt>
      <trkpt lat="38.869008757956706" lon="115.47840124906166">
        <ele>7.6597900390625</ele>
        <time>2026-09-30T13:13:01Z</time>
      </trkpt>
      <trkpt lat="38.868995258840734" lon="115.47857190490035">
        <ele>7.770233154296875</ele>
        <time>2026-09-30T13:13:07Z</time>
      </trkpt>
      <trkpt lat="38.86902459373896" lon="115.47869336722862">
        <ele>8.547698974609375</ele>
        <time>2026-09-30T13:13:10Z</time>
      </trkpt>
      <trkpt lat="38.86907384500706" lon="115.47878973102597">
        <ele>10.027740478515625</ele>
        <time>2026-09-30T13:13:13Z</time>
      </trkpt>
      <trkpt lat="38.869138979937624" lon="115.47884895041044">
        <ele>10.71197509765625</ele>
        <time>2026-09-30T13:13:16Z</time>
      </trkpt>
      <trkpt lat="38.869411966359145" lon="115.47889710194792">
        <ele>10.57171630859375</ele>
        <time>2026-09-30T13:13:28Z</time>
      </trkpt>
      <trkpt lat="38.86968101021998" lon="115.47896432727542">
        <ele>9.29681396484375</ele>
        <time>2026-09-30T13:13:40Z</time>
      </trkpt>
      <trkpt lat="38.86994508015135" lon="115.47903958415006">
        <ele>8.480072021484375</ele>
        <time>2026-09-30T13:13:52Z</time>
      </trkpt>
      <trkpt lat="38.87007805496457" lon="115.47905663341857">
        <ele>8.886962890625</ele>
        <time>2026-09-30T13:13:58Z</time>
      </trkpt>
      <trkpt lat="38.87014792848107" lon="115.47902650911873">
        <ele>7.753082275390625</ele>
        <time>2026-09-30T13:14:01Z</time>
      </trkpt>
      <trkpt lat="38.87024751201432" lon="115.47890201871867">
        <ele>6.990570068359375</ele>
        <time>2026-09-30T13:14:07Z</time>
      </trkpt>
      <trkpt lat="38.87030500605776" lon="115.47873838347982">
        <ele>6.498046875</ele>
        <time>2026-09-30T13:14:13Z</time>
      </trkpt>
      <trkpt lat="38.87032892443677" lon="115.4783689639829">
        <ele>4.235443115234375</ele>
        <time>2026-09-30T13:14:25Z</time>
      </trkpt>
      <trkpt lat="38.87036390202904" lon="115.478021629965">
        <ele>5.0618896484375</ele>
        <time>2026-09-30T13:14:37Z</time>
      </trkpt>
      <trkpt lat="38.870390366108666" lon="115.47784093579094">
        <ele>4.7088623046875</ele>
        <time>2026-09-30T13:14:43Z</time>
      </trkpt>
      <trkpt lat="38.870458818598756" lon="115.47766425237897">
        <ele>4.1702880859375</ele>
        <time>2026-09-30T13:14:49Z</time>
      </trkpt>
      <trkpt lat="38.87049298459693" lon="115.47738116780818">
        <ele>4.5692138671875</ele>
        <time>2026-09-30T13:14:58Z</time>
      </trkpt>
      <trkpt lat="38.87050244532201" lon="115.47719545868341">
        <ele>4.84954833984375</ele>
        <time>2026-09-30T13:15:04Z</time>
      </trkpt>
      <trkpt lat="38.87058242028962" lon="115.4768541494077">
        <ele>6.075042724609375</ele>
        <time>2026-09-30T13:15:16Z</time>
      </trkpt>
      <trkpt lat="38.87060419666793" lon="115.47643154074201">
        <ele>6.741180419921875</ele>
        <time>2026-09-30T13:15:31Z</time>
      </trkpt>
      <trkpt lat="38.87056500026495" lon="115.4763552560023">
        <ele>7.315521240234375</ele>
        <time>2026-09-30T13:15:34Z</time>
      </trkpt>
      <trkpt lat="38.870418901316754" lon="115.47629203400683">
        <ele>8.198699951171875</ele>
        <time>2026-09-30T13:15:40Z</time>
      </trkpt>
      <trkpt lat="38.87014915618231" lon="115.47632820423485">
        <ele>7.19622802734375</ele>
        <time>2026-09-30T13:15:52Z</time>
      </trkpt>
      <trkpt lat="38.87002539518318" lon="115.47638744417742">
        <ele>6.11492919921875</ele>
        <time>2026-09-30T13:15:58Z</time>
      </trkpt>
      <trkpt lat="38.86983900867756" lon="115.47656514169931">
        <ele>8.09619140625</ele>
        <time>2026-09-30T13:16:10Z</time>
      </trkpt>
      <trkpt lat="38.86972019041519" lon="115.47660530883307">
        <ele>9.184783935546875</ele>
        <time>2026-09-30T13:16:16Z</time>
      </trkpt>
      <trkpt lat="38.869510262163665" lon="115.47658927359169">
        <ele>11.911376953125</ele>
        <time>2026-09-30T13:16:25Z</time>
      </trkpt>
      <trkpt lat="38.86945738101096" lon="115.47662039831715">
        <ele>21.9306640625</ele>
        <time>2026-09-30T13:16:34Z</time>
      </trkpt>
      <trkpt lat="38.86928246760856" lon="115.47661640453941">
        <ele>18.9569091796875</ele>
        <time>2026-09-30T13:16:40Z</time>
      </trkpt>
      <trkpt lat="38.86919445942555" lon="115.47659633906777">
        <ele>13.07891845703125</ele>
        <time>2026-09-30T13:16:43Z</time>
      </trkpt>
      <trkpt lat="38.86910055235957" lon="115.47661040399362">
        <ele>11.5684814453125</ele>
        <time>2026-09-30T13:16:46Z</time>
      </trkpt>
      <trkpt lat="38.86902574967737" lon="115.47666461916356">
        <ele>9.5870361328125</ele>
        <time>2026-09-30T13:16:49Z</time>
      </trkpt>
      <trkpt lat="38.86896697834499" lon="115.4767328858473">
        <ele>8.644256591796875</ele>
        <time>2026-09-30T13:16:52Z</time>
      </trkpt>
      <trkpt lat="38.86892328213876" lon="115.47683026148724">
        <ele>7.896575927734375</ele>
        <time>2026-09-30T13:16:55Z</time>
      </trkpt>
      <trkpt lat="38.86890663429247" lon="115.47694971802946">
        <ele>8.565521240234375</ele>
        <time>2026-09-30T13:16:58Z</time>
      </trkpt>
      <trkpt lat="38.86891690523845" lon="115.47704608361718">
        <ele>8.694091796875</ele>
        <time>2026-09-30T13:17:01Z</time>
      </trkpt>
      <trkpt lat="38.86896936325037" lon="115.47721572340366">
        <ele>9.633087158203125</ele>
        <time>2026-09-30T13:17:07Z</time>
      </trkpt>
      <trkpt lat="38.86897658089058" lon="115.47764034231464">
        <ele>4.529876708984375</ele>
        <time>2026-09-30T13:17:22Z</time>
      </trkpt>
      <trkpt lat="38.86899572180783" lon="115.47803986699938">
        <ele>13.55963134765625</ele>
        <time>2026-09-30T13:17:34Z</time>
      </trkpt>
      <trkpt lat="38.86899295509495" lon="115.47812017462209">
        <ele>12.7857666015625</ele>
        <time>2026-09-30T13:17:37Z</time>
      </trkpt>
      <trkpt lat="38.86892069420694" lon="115.47836210986102">
        <ele>7.6156005859375</ele>
        <time>2026-09-30T13:17:46Z</time>
      </trkpt>
      <trkpt lat="38.868963340602726" lon="115.47859399351181">
        <ele>8.99176025390625</ele>
        <time>2026-09-30T13:17:52Z</time>
      </trkpt>
      <trkpt lat="38.86901365796137" lon="115.47871344560724">
        <ele>8.9512939453125</ele>
        <time>2026-09-30T13:17:55Z</time>
      </trkpt>
      <trkpt lat="38.86908790105238" lon="115.47881181407861">
        <ele>10.33001708984375</ele>
        <time>2026-09-30T13:17:58Z</time>
      </trkpt>
      <trkpt lat="38.86935700009615" lon="115.47889811254623">
        <ele>10.6187744140625</ele>
        <time>2026-09-30T13:18:07Z</time>
      </trkpt>
      <trkpt lat="38.869678026433014" lon="115.47896934692312">
        <ele>9.494171142578125</ele>
        <time>2026-09-30T13:18:19Z</time>
      </trkpt>
      <trkpt lat="38.869977126159185" lon="115.47906166508929">
        <ele>10.081512451171875</ele>
        <time>2026-09-30T13:18:31Z</time>
      </trkpt>
      <trkpt lat="38.870055108570035" lon="115.47907069024505">
        <ele>9.85552978515625</ele>
        <time>2026-09-30T13:18:34Z</time>
      </trkpt>
      <trkpt lat="38.87013297468711" lon="115.47903956110021">
        <ele>8.8076171875</ele>
        <time>2026-09-30T13:18:37Z</time>
      </trkpt>
      <trkpt lat="38.87020478023509" lon="115.47898634786348">
        <ele>8.375579833984375</ele>
        <time>2026-09-30T13:18:40Z</time>
      </trkpt>
      <trkpt lat="38.87025351736381" lon="115.47890502954783">
        <ele>8.079376220703125</ele>
        <time>2026-09-30T13:18:43Z</time>
      </trkpt>
      <trkpt lat="38.870325616941706" lon="115.47860788026865">
        <ele>7.571075439453125</ele>
        <time>2026-09-30T13:18:52Z</time>
      </trkpt>
      <trkpt lat="38.87033147939254" lon="115.47821537540973">
        <ele>7.123809814453125</ele>
        <time>2026-09-30T13:19:04Z</time>
      </trkpt>
      <trkpt lat="38.87039538643896" lon="115.47784896587027">
        <ele>7.076202392578125</ele>
        <time>2026-09-30T13:19:16Z</time>
      </trkpt>
      <trkpt lat="38.87048628584558" lon="115.47748456306758">
        <ele>5.218017578125</ele>
        <time>2026-09-30T13:19:28Z</time>
      </trkpt>
      <trkpt lat="38.870545219381796" lon="115.47712518571953">
        <ele>5.624786376953125</ele>
        <time>2026-09-30T13:19:40Z</time>
      </trkpt>
      <trkpt lat="38.870603189757695" lon="115.47677785668881">
        <ele>3.21417236328125</ele>
        <time>2026-09-30T13:19:52Z</time>
      </trkpt>
      <trkpt lat="38.8706083955557" lon="115.47650180701967">
        <ele>4.235565185546875</ele>
        <time>2026-09-30T13:20:01Z</time>
      </trkpt>
      <trkpt lat="38.870590124092686" lon="115.4764034357796">
        <ele>5.536376953125</ele>
        <time>2026-09-30T13:20:04Z</time>
      </trkpt>
      <trkpt lat="38.870517986442444" lon="115.47634120844991">
        <ele>6.229156494140625</ele>
        <time>2026-09-30T13:20:07Z</time>
      </trkpt>
      <trkpt lat="38.87035296993584" lon="115.47630308399303">
        <ele>6.2982177734375</ele>
        <time>2026-09-30T13:20:13Z</time>
      </trkpt>
      <trkpt lat="38.87011622351191" lon="115.47634527302903">
        <ele>5.49798583984375</ele>
        <time>2026-09-30T13:20:22Z</time>
      </trkpt>
      <trkpt lat="38.86987489075409" lon="115.47653100765565">
        <ele>6.228729248046875</ele>
        <time>2026-09-30T13:20:34Z</time>
      </trkpt>
      <trkpt lat="38.86983303791571" lon="115.476574176752">
        <ele>6.816925048828125</ele>
        <time>2026-09-30T13:20:37Z</time>
      </trkpt>
      <trkpt lat="38.86972014728758" lon="115.47659025163132">
        <ele>11.389739990234375</ele>
        <time>2026-09-30T13:20:43Z</time>
      </trkpt>
      <trkpt lat="38.86949018425672" lon="115.476558157844">
        <ele>14.900146484375</ele>
        <time>2026-09-30T13:20:52Z</time>
      </trkpt>
      <trkpt lat="38.8694373375915" lon="115.47660132831172">
        <ele>18.21771240234375</ele>
        <time>2026-09-30T13:21:01Z</time>
      </trkpt>
      <trkpt lat="38.86908349000695" lon="115.47658531074454">
        <ele>12.7879638671875</ele>
        <time>2026-09-30T13:21:13Z</time>
      </trkpt>
      <trkpt lat="38.869003635469845" lon="115.4766204540357">
        <ele>11.987823486328125</ele>
        <time>2026-09-30T13:21:16Z</time>
      </trkpt>
      <trkpt lat="38.86893982950369" lon="115.47667567168057">
        <ele>10.691864013671875</ele>
        <time>2026-09-30T13:21:19Z</time>
      </trkpt>
      <trkpt lat="38.86888707208056" lon="115.47674996053944">
        <ele>8.7918701171875</ele>
        <time>2026-09-30T13:21:22Z</time>
      </trkpt>
      <trkpt lat="38.86886328121524" lon="115.47681822303758">
        <ele>6.6407470703125</ele>
        <time>2026-09-30T13:21:25Z</time>
      </trkpt>
      <trkpt lat="38.86887359806285" lon="115.47693064950072">
        <ele>7.19000244140625</ele>
        <time>2026-09-30T13:21:28Z</time>
      </trkpt>
      <trkpt lat="38.86897434891414" lon="115.47721170749013">
        <ele>8.440155029296875</ele>
        <time>2026-09-30T13:21:37Z</time>
      </trkpt>
      <trkpt lat="38.86896136974278" lon="115.4775640529126">
        <ele>6.753753662109375</ele>
        <time>2026-09-30T13:21:49Z</time>
      </trkpt>
      <trkpt lat="38.86899438957935" lon="115.47792442564258">
        <ele>7.84344482421875</ele>
        <time>2026-09-30T13:22:01Z</time>
      </trkpt>
      <trkpt lat="38.86900162003821" lon="115.47800573571456">
        <ele>11.460784912109375</ele>
        <time>2026-09-30T13:22:04Z</time>
      </trkpt>
      <trkpt lat="38.86897311109717" lon="115.47817036916669">
        <ele>11.651519775390625</ele>
        <time>2026-09-30T13:22:10Z</time>
      </trkpt>
      <trkpt lat="38.86893831319621" lon="115.47823361555737">
        <ele>9.69512939453125</ele>
        <time>2026-09-30T13:22:13Z</time>
      </trkpt>
      <trkpt lat="38.86892552620203" lon="115.47830489007589">
        <ele>7.441986083984375</ele>
        <time>2026-09-30T13:22:16Z</time>
      </trkpt>
      <trkpt lat="38.868949782318516" lon="115.47839824475824">
        <ele>7.984405517578125</ele>
        <time>2026-09-30T13:22:19Z</time>
      </trkpt>
      <trkpt lat="38.868928223853324" lon="115.47854681689056">
        <ele>7.917510986328125</ele>
        <time>2026-09-30T13:22:25Z</time>
      </trkpt>
      <trkpt lat="38.868965487478484" lon="115.47864518961954">
        <ele>7.97650146484375</ele>
        <time>2026-09-30T13:22:28Z</time>
      </trkpt>
      <trkpt lat="38.86909292148489" lon="115.47881984429276">
        <ele>9.81976318359375</ele>
        <time>2026-09-30T13:22:34Z</time>
      </trkpt>
      <trkpt lat="38.86916999161193" lon="115.47885898514998">
        <ele>9.1011962890625</ele>
        <time>2026-09-30T13:22:37Z</time>
      </trkpt>
      <trkpt lat="38.8693689846535" lon="115.4788950995106">
        <ele>9.584381103515625</ele>
        <time>2026-09-30T13:22:46Z</time>
      </trkpt>
      <trkpt lat="38.86944192920423" lon="115.4788900712865">
        <ele>10.436279296875</ele>
        <time>2026-09-30T13:22:49Z</time>
      </trkpt>
      <trkpt lat="38.86975807457452" lon="115.4790014605158">
        <ele>9.196136474609375</ele>
        <time>2026-09-30T13:23:04Z</time>
      </trkpt>
      <trkpt lat="38.870028088828505" lon="115.47905864726383">
        <ele>9.566009521484375</ele>
        <time>2026-09-30T13:23:16Z</time>
      </trkpt>
      <trkpt lat="38.870096036144744" lon="115.47905361963926">
        <ele>9.21844482421875</ele>
        <time>2026-09-30T13:23:19Z</time>
      </trkpt>
      <trkpt lat="38.87021772353412" lon="115.47896928071437">
        <ele>7.9332275390625</ele>
        <time>2026-09-30T13:23:25Z</time>
      </trkpt>
      <trkpt lat="38.87025949656494" lon="115.47889900568262">
        <ele>7.625396728515625</ele>
        <time>2026-09-30T13:23:28Z</time>
      </trkpt>
      <trkpt lat="38.87029202496612" lon="115.47874240048267">
        <ele>5.3427734375</ele>
        <time>2026-09-30T13:23:34Z</time>
      </trkpt>
      <trkpt lat="38.870308776247505" lon="115.47831375494233">
        <ele>5.240264892578125</ele>
        <time>2026-09-30T13:23:49Z</time>
      </trkpt>
      <trkpt lat="38.870388642028466" lon="115.47793630058585">
        <ele>3.55511474609375</ele>
        <time>2026-09-30T13:24:04Z</time>
      </trkpt>
      <trkpt lat="38.87045352672757" lon="115.47756186208636">
        <ele>2.77716064453125</ele>
        <time>2026-09-30T13:24:19Z</time>
      </trkpt>
      <trkpt lat="38.87051139125462" lon="115.47717839256086">
        <ele>4.167022705078125</ele>
        <time>2026-09-30T13:24:34Z</time>
      </trkpt>
      <trkpt lat="38.870590205688025" lon="115.47678086973515">
        <ele>4.18194580078125</ele>
        <time>2026-09-30T13:24:49Z</time>
      </trkpt>
      <trkpt lat="38.87060429147916" lon="115.47646466649256">
        <ele>4.14532470703125</ele>
        <time>2026-09-30T13:25:01Z</time>
      </trkpt>
      <trkpt lat="38.870578079126936" lon="115.47638536868007">
        <ele>5.2633056640625</ele>
        <time>2026-09-30T13:25:04Z</time>
      </trkpt>
      <trkpt lat="38.87043592622728" lon="115.47630407761253">
        <ele>6.266845703125</ele>
        <time>2026-09-30T13:25:10Z</time>
      </trkpt>
      <trkpt lat="38.870117211464546" lon="115.47634125767202">
        <ele>6.973236083984375</ele>
        <time>2026-09-30T13:25:22Z</time>
      </trkpt>
      <trkpt lat="38.870044341443055" lon="115.47637238470617">
        <ele>6.43157958984375</ele>
        <time>2026-09-30T13:25:25Z</time>
      </trkpt>
      <trkpt lat="38.86988889152449" lon="115.47653401737398">
        <ele>7.533843994140625</ele>
        <time>2026-09-30T13:25:34Z</time>
      </trkpt>
      <trkpt lat="38.869830042473126" lon="115.4765751809332">
        <ele>8.96221923828125</ele>
        <time>2026-09-30T13:25:38Z</time>
      </trkpt>
      <trkpt lat="38.86975311440619" lon="115.47658522851485">
        <ele>10.76202392578125</ele>
        <time>2026-09-30T13:25:40Z</time>
      </trkpt>
      <trkpt lat="38.869595090891444" lon="115.4765460992062">
        <ele>8.93011474609375</ele>
        <time>2026-09-30T13:25:46Z</time>
      </trkpt>
      <trkpt lat="38.869437257090766" lon="115.47657322154114">
        <ele>12.24896240234375</ele>
        <time>2026-09-30T13:25:55Z</time>
      </trkpt>
      <trkpt lat="38.86937636891234" lon="115.47660033198476">
        <ele>15.355224609375</ele>
        <time>2026-09-30T13:26:01Z</time>
      </trkpt>
      <trkpt lat="38.869092539590916" lon="115.47660438209384">
        <ele>11.162200927734375</ele>
        <time>2026-09-30T13:26:10Z</time>
      </trkpt>
      <trkpt lat="38.86900765048167" lon="115.47662647642821">
        <ele>11.7586669921875</ele>
        <time>2026-09-30T13:26:13Z</time>
      </trkpt>
      <trkpt lat="38.86892294258326" lon="115.47671181111552">
        <ele>9.221649169921875</ele>
        <time>2026-09-30T13:26:22Z</time>
      </trkpt>
    </trkseg>
  </trk>
</gpx>