<?xml version="1.0" encoding="UTF-8"?>
<gpx xmlns="http://www.topografix.com/GPX/1/1" xmlns:gpxtpx="http://www.garmin.com/xmlschemas/TrackPointExtension/v1" xmlns:xsi="http://www.w3.org/2001/XMLSchema-instance" xsi:schemaLocation="http://www.topografix.com/GPX/1/1 http://www.topografix.com/GPX/1/1/gpx.xsd" version="1.1" creator="gpx.py -- https://github.com/tkrajina/gpxpy">
  <trk>
    <name>gpx from keep</name>
    <type>Run</type>
    <trkseg>
      <trkpt lat="39.91257878929675" lon="116.18555361253908">
        <ele>68.45721435546875</ele>
        <time>2026-09-28T11:27:22Z</time>
      </trkpt>
      <trkpt lat="39.91278177552613" lon="116.18555057920936">
        <ele>69.68792724609375</ele>
        <time>2026-09-28T11:27:43Z</time>
      </trkpt>
      <trkpt lat="39.912835745659734" lon="116.18553453057861">
        <ele>69.9176025390625</ele>
        <time>2026-09-28T11:27:49Z</time>
      </trkpt>
      <trkpt lat="39.91305878276001" lon="116.18556157320674">
        <ele>68.80584716796875</ele>
        <time>2026-09-28T11:28:07Z</time>
      </trkpt>
      <trkpt lat="39.913111138713475" lon="116.1857701102303">
        <ele>64.76171875</ele>
        <time>2026-09-28T11:28:25Z</time>
      </trkpt>
      <trkpt lat="39.913111592350795" lon="116.18603479883132">
        <ele>63.8857421875</ele>
        <time>2026-09-28T11:28:40Z</time>
      </trkpt>
      <trkpt lat="39.91314966624642" lon="116.18607890868708">
        <ele>63.0452880859375</ele>
        <time>2026-09-28T11:28:43Z</time>
      </trkpt>
      <trkpt lat="39.91333767716851" lon="116.1860899137401">
        <ele>60.81610107421875</ele>
        <time>2026-09-28T11:28:55Z</time>
      </trkpt>
      <trkpt lat="39.91347760433736" lon="116.18605079457853">
        <ele>61.19671630859375</ele>
        <time>2026-09-28T11:29:04Z</time>
      </trkpt>
      <trkpt lat="39.9135316432374" lon="116.1860748503208">
        <ele>60.07269287109375</ele>
        <time>2026-09-28T11:29:07Z</time>
      </trkpt>
      <trkpt lat="39.91357156604227" lon="116.1860307306703">
        <ele>57.23516845703125</ele>
        <time>2026-09-28T11:29:10Z</time>
      </trkpt>
      <trkpt lat="39.913802602626475" lon="116.1860577720211">
        <ele>59.49566650390625</ele>
        <time>2026-09-28T11:29:22Z</time>
      </trkpt>
      <trkpt lat="39.91385056971122" lon="116.18603971910044">
        <ele>60.49725341796875</ele>
        <time>2026-09-28T11:29:25Z</time>
      </trkpt>
      <trkpt lat="39.91400239675266" lon="116.1859424471882">
        <ele>59.9503173828125</ele>
        <time>2026-09-28T11:29:34Z</time>
      </trkpt>
      <trkpt lat="39.914032256302704" lon="116.18586123214335">
        <ele>60.75775146484375</ele>
        <time>2026-09-28T11:29:37Z</time>
      </trkpt>
      <trkpt lat="39.91406662640674" lon="116.18549527400423">
        <ele>56.25262451171875</ele>
        <time>2026-09-28T11:29:55Z</time>
      </trkpt>
      <trkpt lat="39.91407522037464" lon="116.18525965737409">
        <ele>56.3087158203125</ele>
        <time>2026-09-28T11:30:04Z</time>
      </trkpt>
      <trkpt lat="39.91403360950087" lon="116.1849047332372">
        <ele>62.19781494140625</ele>
        <time>2026-09-28T11:30:19Z</time>
      </trkpt>
      <trkpt lat="39.91404689365332" lon="116.18449164680018">
        <ele>63.271240234375</ele>
        <time>2026-09-28T11:30:34Z</time>
      </trkpt>
      <trkpt lat="39.914069368602526" lon="116.18418984936491">
        <ele>63.32470703125</ele>
        <time>2026-09-28T11:30:49Z</time>
      </trkpt>
      <trkpt lat="39.91409188938205" lon="116.18405045355142">
        <ele>63.47406005859375</ele>
        <time>2026-09-28T11:30:55Z</time>
      </trkpt>
      <trkpt lat="39.91408997338721" lon="116.18396324900964">
        <ele>61.24237060546875</ele>
        <time>2026-09-28T11:31:07Z</time>
      </trkpt>
      <trkpt lat="39.914132653503174" lon="116.18378076155327">
        <ele>58.054931640625</ele>
        <time>2026-09-28T11:31:16Z</time>
      </trkpt>
      <trkpt lat="39.914088922486435" lon="116.18362862207651">
        <ele>57.09527587890625</ele>
        <time>2026-09-28T11:31:22Z</time>
      </trkpt>
      <trkpt lat="39.91405473319736" lon="116.18325237187963">
        <ele>62.720947265625</ele>
        <time>2026-09-28T11:31:37Z</time>
      </trkpt>
      <trkpt lat="39.91404711279598" lon="116.18289843257475">
        <ele>62.33489990234375</ele>
        <time>2026-09-28T11:31:52Z</time>
      </trkpt>
      <trkpt lat="39.914047433935956" lon="116.18251240447424">
        <ele>65.017578125</ele>
        <time>2026-09-28T11:32:07Z</time>
      </trkpt>
      <trkpt lat="39.91405830775491" lon="116.18211567628921">
        <ele>66.065185546875</ele>
        <time>2026-09-28T11:32:22Z</time>
      </trkpt>
      <trkpt lat="39.914074110305734" lon="116.18176339899159">
        <ele>65.69757080078125</ele>
        <time>2026-09-28T11:32:37Z</time>
      </trkpt>
      <trkpt lat="39.91406634623496" lon="116.18133224314967">
        <ele>60.064697265625</ele>
        <time>2026-09-28T11:32:58Z</time>
      </trkpt>
      <trkpt lat="39.914040577147844" lon="116.18089908110778">
        <ele>56.34002685546875</ele>
        <time>2026-09-28T11:33:16Z</time>
      </trkpt>
      <trkpt lat="39.914040450364894" lon="116.18082788931723">
        <ele>56.94927978515625</ele>
        <time>2026-09-28T11:33:19Z</time>
      </trkpt>
      <trkpt lat="39.91407135046361" lon="116.18078406371163">
        <ele>57.6864013671875</ele>
        <time>2026-09-28T11:33:22Z</time>
      </trkpt>
      <trkpt lat="39.91427731364479" lon="116.18077616580709">
        <ele>62.716552734375</ele>
        <time>2026-09-28T11:33:34Z</time>
      </trkpt>
      <trkpt lat="39.91431325483265" lon="116.1807245766199">
        <ele>62.70867919921875</ele>
        <time>2026-09-28T11:33:40Z</time>
      </trkpt>
      <trkpt lat="39.91430967214955" lon="116.18048472040722">
        <ele>62.78631591796875</ele>
        <time>2026-09-28T11:33:52Z</time>
      </trkpt>
      <trkpt lat="39.91431270907307" lon="116.18039494633624">
        <ele>60.105224609375</ele>
        <time>2026-09-28T11:33:55Z</time>
      </trkpt>
      <trkpt lat="39.91435368589907" lon="116.18032531143166">
        <ele>61.0777587890625</ele>
        <time>2026-09-28T11:33:58Z</time>
      </trkpt>
      <trkpt lat="39.91437838926815" lon="116.18024126339165">
        <ele>61.20831298828125</ele>
        <time>2026-09-28T11:34:04Z</time>
      </trkpt>
      <trkpt lat="39.91468030304635" lon="116.18020011424895">
        <ele>57.68316650390625</ele>
        <time>2026-09-28T11:34:19Z</time>
      </trkpt>
      <trkpt lat="39.91497630673848" lon="116.1802091014336">
        <ele>59.65057373046875</ele>
        <time>2026-09-28T11:34:34Z</time>
      </trkpt>
      <trkpt lat="39.91515333874691" lon="116.1802311388286">
        <ele>61.33404541015625</ele>
        <time>2026-09-28T11:34:43Z</time>
      </trkpt>
      <trkpt lat="39.9152093202591" lon="116.18022210738461">
        <ele>61.3790283203125</ele>
        <time>2026-09-28T11:34:46Z</time>
      </trkpt>
      <trkpt lat="39.9152502252901" lon="116.18016996121374">
        <ele>61.793701171875</ele>
        <time>2026-09-28T11:34:49Z</time>
      </trkpt>
      <trkpt lat="39.915257095835074" lon="116.18009776501263">
        <ele>61.724365234375</ele>
        <time>2026-09-28T11:34:52Z</time>
      </trkpt>
      <trkpt lat="39.91524295463875" lon="116.1800185523711">
        <ele>62.06219482421875</ele>
        <time>2026-09-28T11:34:55Z</time>
      </trkpt>
      <trkpt lat="39.91525363388216" lon="116.17993755878035">
        <ele>62.04107666015625</ele>
        <time>2026-09-28T11:34:58Z</time>
      </trkpt>
      <trkpt lat="39.915247374021334" lon="116.17969467414798">
        <ele>61.4071044921875</ele>
        <time>2026-09-28T11:35:07Z</time>
      </trkpt>
      <trkpt lat="39.91534322066452" lon="116.17961143630829">
        <ele>61.82501220703125</ele>
        <time>2026-09-28T11:35:13Z</time>
      </trkpt>
      <trkpt lat="39.915403991275554" lon="116.17948508571065">
        <ele>62.94415283203125</ele>
        <time>2026-09-28T11:35:19Z</time>
      </trkpt>
      <trkpt lat="39.91539966350609" lon="116.17930259046274">
        <ele>63.1558837890625</ele>
        <time>2026-09-28T11:35:28Z</time>
      </trkpt>
      <trkpt lat="39.91537141940332" lon="116.17916622321717">
        <ele>63.29443359375</ele>
        <time>2026-09-28T11:35:34Z</time>
      </trkpt>
      <trkpt lat="39.91538373070751" lon="116.1787841814691">
        <ele>62.102294921875</ele>
        <time>2026-09-28T11:35:49Z</time>
      </trkpt>
      <trkpt lat="39.91536501105105" lon="116.17838509502498">
        <ele>65.469482421875</ele>
        <time>2026-09-28T11:36:04Z</time>
      </trkpt>
      <trkpt lat="39.91540591871623" lon="116.17833495293895">
        <ele>65.8060302734375</ele>
        <time>2026-09-28T11:36:07Z</time>
      </trkpt>
      <trkpt lat="39.91569193390689" lon="116.17834995803626">
        <ele>66.872802734375</ele>
        <time>2026-09-28T11:36:22Z</time>
      </trkpt>
      <trkpt lat="39.91601786587084" lon="116.17831983485088">
        <ele>76.4224853515625</ele>
        <time>2026-09-28T11:36:40Z</time>
      </trkpt>
      <trkpt lat="39.91616580528952" lon="116.17828973404896">
        <ele>78.5916748046875</ele>
        <time>2026-09-28T11:36:49Z</time>
      </trkpt>
      <trkpt lat="39.91630180684954" lon="116.17829372789465">
        <ele>77.83673095703125</ele>
        <time>2026-09-28T11:36:55Z</time>
      </trkpt>
      <trkpt lat="39.916340741759576" lon="116.178258627097">
        <ele>77.1007080078125</ele>
        <time>2026-09-28T11:36:58Z</time>
      </trkpt>
      <trkpt lat="39.91634800990461" lon="116.17785452079052">
        <ele>76.082763671875</ele>
        <time>2026-09-28T11:37:13Z</time>
      </trkpt>
      <trkpt lat="39.91633423917024" lon="116.17742935721604">
        <ele>77.72552490234375</ele>
        <time>2026-09-28T11:37:28Z</time>
      </trkpt>
      <trkpt lat="39.916342577184864" lon="116.17706535667887">
        <ele>77.640869140625</ele>
        <time>2026-09-28T11:37:43Z</time>
      </trkpt>
      <trkpt lat="39.916349893985334" lon="116.17669032426875">
        <ele>77.58697509765625</ele>
        <time>2026-09-28T11:37:58Z</time>
      </trkpt>
      <trkpt lat="39.91636018384543" lon="116.17630125108845">
        <ele>67.95330810546875</ele>
        <time>2026-09-28T11:38:19Z</time>
      </trkpt>
      <trkpt lat="39.916367419415046" lon="116.17588309621712">
        <ele>72.02685546875</ele>
        <time>2026-09-28T11:38:34Z</time>
      </trkpt>
      <trkpt lat="39.91636874388278" lon="116.17551407605615">
        <ele>69.52001953125</ele>
        <time>2026-09-28T11:38:49Z</time>
      </trkpt>
      <trkpt lat="39.91635563420059" lon="116.17545391126241">
        <ele>67.42889404296875</ele>
        <time>2026-09-28T11:38:55Z</time>
      </trkpt>
      <trkpt lat="39.91635563420059" lon="116.17545391126241">
        <ele>67.42889404296875</ele>
        <time>2026-09-28T11:39:03Z</time>
      </trkpt>
      <trkpt lat="39.916339379408974" lon="116.17531452756282">
        <ele>75.49658203125</ele>
        <time>2026-09-28T11:45:10Z</time>
      </trkpt>
      <trkpt lat="39.91632764393481" lon="116.17491341783273">
        <ele>71.66668701171875</ele>
        <time>2026-09-28T11:45:31Z</time>
      </trkpt>
      <trkpt lat="39.91633690275223" lon="116.17451029823896">
        <ele>65.22003173828125</ele>
        <time>2026-09-28T11:45:52Z</time>
      </trkpt>
      <trkpt lat="39.91635614896701" lon="116.1741011590551">
        <ele>66.44891357421875</ele>
        <time>2026-09-28T11:46:07Z</time>
      </trkpt>
      <trkpt lat="39.91636344822913" lon="116.17372110075527">
        <ele>67.27581787109375</ele>
        <time>2026-09-28T11:46:22Z</time>
      </trkpt>
      <trkpt lat="39.9163556509365" lon="116.17328889769075">
        <ele>66.5845947265625</ele>
        <time>2026-09-28T11:46:43Z</time>
      </trkpt>
      <trkpt lat="39.91634805834261" lon="116.17296800364169">
        <ele>68.6739501953125</ele>
        <time>2026-09-28T11:47:01Z</time>
      </trkpt>
      <trkpt lat="39.91634561709022" lon="116.17272933773043">
        <ele>68.24871826171875</ele>
        <time>2026-09-28T11:47:13Z</time>
      </trkpt>
      <trkpt lat="39.91631553671935" lon="116.17268521830465">
        <ele>67.86944580078125</ele>
        <time>2026-09-28T11:47:16Z</time>
      </trkpt>
      <trkpt lat="39.91626453328718" lon="116.17268221633192">
        <ele>67.5948486328125</ele>
        <time>2026-09-28T11:47:19Z</time>
      </trkpt>
      <trkpt lat="39.91595261313357" lon="116.17271835646514">
        <ele>65.55523681640625</ele>
        <time>2026-09-28T11:47:37Z</time>
      </trkpt>
      <trkpt lat="39.91565268506354" lon="116.17275048387486">
        <ele>61.0665283203125</ele>
        <time>2026-09-28T11:47:55Z</time>
      </trkpt>
      <trkpt lat="39.91535172736597" lon="116.17276656660778">
        <ele>62.8624267578125</ele>
        <time>2026-09-28T11:48:10Z</time>
      </trkpt>
      <trkpt lat="39.91530566808474" lon="116.17273348001288">
        <ele>62.85406494140625</ele>
        <time>2026-09-28T11:48:13Z</time>
      </trkpt>
      <trkpt lat="39.91528842574787" lon="116.17260211529786">
        <ele>63.54583740234375</ele>
        <time>2026-09-28T11:48:19Z</time>
      </trkpt>
      <trkpt lat="39.915256508736654" lon="116.172646242566">
        <ele>63.42047119140625</ele>
        <time>2026-09-28T11:48:22Z</time>
      </trkpt>
      <trkpt lat="39.915257796226115" lon="116.17280167643757">
        <ele>64.17254638671875</ele>
        <time>2026-09-28T11:48:28Z</time>
      </trkpt>
      <trkpt lat="39.91527506993491" lon="116.17295008850867">
        <ele>64.7232666015625</ele>
        <time>2026-09-28T11:48:34Z</time>
      </trkpt>
      <trkpt lat="39.91524920633796" lon="116.17302329602623">
        <ele>65.02117919921875</ele>
        <time>2026-09-28T11:48:37Z</time>
      </trkpt>
      <trkpt lat="39.91525693397407" lon="116.1734173939049">
        <ele>66.813720703125</ele>
        <time>2026-09-28T11:48:52Z</time>
      </trkpt>
      <trkpt lat="39.91524270782258" lon="116.17383656295358">
        <ele>72.3262939453125</ele>
        <time>2026-09-28T11:49:07Z</time>
      </trkpt>
      <trkpt lat="39.91525745350842" lon="116.17424168772246">
        <ele>68.3663330078125</ele>
        <time>2026-09-28T11:49:22Z</time>
      </trkpt>
      <trkpt lat="39.91522392542139" lon="116.17449740225287">
        <ele>65.954833984375</ele>
        <time>2026-09-28T11:49:31Z</time>
      </trkpt>
      <trkpt lat="39.915225231418816" lon="116.17466386413884">
        <ele>65.4698486328125</ele>
        <time>2026-09-28T11:49:37Z</time>
      </trkpt>
      <trkpt lat="39.91517729793627" lon="116.17469896756181">
        <ele>65.2249755859375</ele>
        <time>2026-09-28T11:49:40Z</time>
      </trkpt>
      <trkpt lat="39.915122256016886" lon="116.17467490771831">
        <ele>65.458251953125</ele>
        <time>2026-09-28T11:49:43Z</time>
      </trkpt>
      <trkpt lat="39.91508214157657" lon="116.17461173745458">
        <ele>65.070068359375</ele>
        <time>2026-09-28T11:49:46Z</time>
      </trkpt>
      <trkpt lat="39.915028060885064" lon="116.1745666190165">
        <ele>65.5655517578125</ele>
        <time>2026-09-28T11:49:49Z</time>
      </trkpt>
      <trkpt lat="39.914973101912246" lon="116.17458768439238">
        <ele>65.948486328125</ele>
        <time>2026-09-28T11:49:52Z</time>
      </trkpt>
      <trkpt lat="39.914943211931124" lon="116.17464685235821">
        <ele>65.2900390625</ele>
        <time>2026-09-28T11:49:55Z</time>
      </trkpt>
      <trkpt lat="39.914638364814486" lon="116.17472310221848">
        <ele>67.8792724609375</ele>
        <time>2026-09-28T11:50:10Z</time>
      </trkpt>
      <trkpt lat="39.914353443139035" lon="116.17475923825194">
        <ele>71.65289306640625</ele>
        <time>2026-09-28T11:50:22Z</time>
      </trkpt>
      <trkpt lat="39.914102437130474" lon="116.17475024483326">
        <ele>69.977294921875</ele>
        <time>2026-09-28T11:50:34Z</time>
      </trkpt>
      <trkpt lat="39.91403023192484" lon="116.1746369395326">
        <ele>66.489990234375</ele>
        <time>2026-09-28T11:50:40Z</time>
      </trkpt>
      <trkpt lat="39.91372326699043" lon="116.17464901159117">
        <ele>67.71588134765625</ele>
        <time>2026-09-28T11:50:55Z</time>
      </trkpt>
      <trkpt lat="39.913526275305806" lon="116.17464903640399">
        <ele>69.0791015625</ele>
        <time>2026-09-28T11:51:04Z</time>
      </trkpt>
      <trkpt lat="39.91344447410286" lon="116.17475534161557">
        <ele>68.3311767578125</ele>
        <time>2026-09-28T11:51:10Z</time>
      </trkpt>
      <trkpt lat="39.91342519478405" lon="116.17514743086845">
        <ele>66.98724365234375</ele>
        <time>2026-09-28T11:51:25Z</time>
      </trkpt>
      <trkpt lat="39.91341991559251" lon="116.17554051951848">
        <ele>67.4564208984375</ele>
        <time>2026-09-28T11:51:40Z</time>
      </trkpt>
      <trkpt lat="39.913440195669935" lon="116.17569394115941">
        <ele>67.45184326171875</ele>
        <time>2026-09-28T11:51:46Z</time>
      </trkpt>
      <trkpt lat="39.913484285577155" lon="116.17574407417744">
        <ele>67.17010498046875</ele>
        <time>2026-09-28T11:51:49Z</time>
      </trkpt>
      <trkpt lat="39.9135134182953" lon="116.17581727277097">
        <ele>67.3916015625</ele>
        <time>2026-09-28T11:51:52Z</time>
      </trkpt>
      <trkpt lat="39.91353271458666" lon="116.17597971898243">
        <ele>67.56365966796875</ele>
        <time>2026-09-28T11:51:58Z</time>
      </trkpt>
      <trkpt lat="39.91355382918025" lon="116.1760428907152">
        <ele>67.159912109375</ele>
        <time>2026-09-28T11:52:01Z</time>
      </trkpt>
      <trkpt lat="39.91353896908094" lon="116.17611910290239">
        <ele>67.08135986328125</ele>
        <time>2026-09-28T11:52:04Z</time>
      </trkpt>
      <trkpt lat="39.91343413654558" lon="116.17620836230738">
        <ele>66.98150634765625</ele>
        <time>2026-09-28T11:52:10Z</time>
      </trkpt>
      <trkpt lat="39.91339256482351" lon="116.17644201166709">
        <ele>68.0450439453125</ele>
        <time>2026-09-28T11:52:19Z</time>
      </trkpt>
      <trkpt lat="39.913398275664115" lon="116.17683208489761">
        <ele>67.5362548828125</ele>
        <time>2026-09-28T11:52:34Z</time>
      </trkpt>
      <trkpt lat="39.91338900588985" lon="116.17723318845532">
        <ele>66.71295166015625</ele>
        <time>2026-09-28T11:52:49Z</time>
      </trkpt>
      <trkpt lat="39.91339131554391" lon="116.17740365607386">
        <ele>66.4322509765625</ele>
        <time>2026-09-28T11:52:55Z</time>
      </trkpt>
      <trkpt lat="39.9134064733229" lon="116.1774908934833">
        <ele>66.77142333984375</ele>
        <time>2026-09-28T11:52:58Z</time>
      </trkpt>
      <trkpt lat="39.91343961025614" lon="116.17756709829217">
        <ele>66.44390869140625</ele>
        <time>2026-09-28T11:53:01Z</time>
      </trkpt>
      <trkpt lat="39.91371161696893" lon="116.17757709155337">
        <ele>67.0772705078125</ele>
        <time>2026-09-28T11:53:13Z</time>
      </trkpt>
      <trkpt lat="39.91403156889655" lon="116.17755799905294">
        <ele>68.44091796875</ele>
        <time>2026-09-28T11:53:28Z</time>
      </trkpt>
      <trkpt lat="39.91431849492414" lon="116.17752386945722">
        <ele>69.50579833984375</ele>
        <time>2026-09-28T11:53:43Z</time>
      </trkpt>
      <trkpt lat="39.9146004502893" lon="116.17750578447368">
        <ele>82.848388671875</ele>
        <time>2026-09-28T11:53:55Z</time>
      </trkpt>
      <trkpt lat="39.91484438177276" lon="116.17747366576506">
        <ele>82.474853515625</ele>
        <time>2026-09-28T11:54:04Z</time>
      </trkpt>
      <trkpt lat="39.91481208806344" lon="116.17731122408298">
        <ele>73.9993896484375</ele>
        <time>2026-09-28T11:54:13Z</time>
      </trkpt>
      <trkpt lat="39.91483185778368" lon="116.17693055740105">
        <ele>75.45196533203125</ele>
        <time>2026-09-28T11:54:28Z</time>
      </trkpt>
      <trkpt lat="39.91485588902534" lon="116.17682311745267">
        <ele>78.28265380859375</ele>
        <time>2026-09-28T11:54:31Z</time>
      </trkpt>
      <trkpt lat="39.91491055157762" lon="116.17651601820384">
        <ele>80.83673095703125</ele>
        <time>2026-09-28T11:54:40Z</time>
      </trkpt>
      <trkpt lat="39.91495935607108" lon="116.176363598857">
        <ele>84.552490234375</ele>
        <time>2026-09-28T11:54:43Z</time>
      </trkpt>
      <trkpt lat="39.91503671173478" lon="116.176012620969">
        <ele>84.7442626953125</ele>
        <time>2026-09-28T11:54:55Z</time>
      </trkpt>
      <trkpt lat="39.91502246662879" lon="116.17587825172787">
        <ele>87.77484130859375</ele>
        <time>2026-09-28T11:55:01Z</time>
      </trkpt>
      <trkpt lat="39.914941834937096" lon="116.17553130290672">
        <ele>90.5621337890625</ele>
        <time>2026-09-28T11:55:13Z</time>
      </trkpt>
      <trkpt lat="39.9149061158274" lon="116.175138219359">
        <ele>86.40460205078125</ele>
        <time>2026-09-28T11:55:28Z</time>
      </trkpt>
      <trkpt lat="39.91489373536517" lon="116.17493064570628">
        <ele>85.489990234375</ele>
        <time>2026-09-28T11:55:37Z</time>
      </trkpt>
      <trkpt lat="39.914864532171066" lon="116.17481934075472">
        <ele>80.85528564453125</ele>
        <time>2026-09-28T11:55:43Z</time>
      </trkpt>
      <trkpt lat="39.91481743651344" lon="116.17476619927862">
        <ele>74.89202880859375</ele>
        <time>2026-09-28T11:55:46Z</time>
      </trkpt>
      <trkpt lat="39.91475537463453" lon="116.17473110973533">
        <ele>70.4442138671875</ele>
        <time>2026-09-28T11:55:49Z</time>
      </trkpt>
      <trkpt lat="39.91445045195187" lon="116.17476624550389">
        <ele>63.443603515625</ele>
        <time>2026-09-28T11:56:04Z</time>
      </trkpt>
      <trkpt lat="39.914140441056475" lon="116.17475324839141">
        <ele>62.60662841796875</ele>
        <time>2026-09-28T11:56:19Z</time>
      </trkpt>
      <trkpt lat="39.914060221444124" lon="116.1746319218408">
        <ele>61.15264892578125</ele>
        <time>2026-09-28T11:56:25Z</time>
      </trkpt>
      <trkpt lat="39.9137602082885" lon="116.17461792066958">
        <ele>62.96142578125</ele>
        <time>2026-09-28T11:56:40Z</time>
      </trkpt>
      <trkpt lat="39.91358223792049" lon="116.17462997648208">
        <ele>64.8909912109375</ele>
        <time>2026-09-28T11:56:49Z</time>
      </trkpt>
      <trkpt lat="39.913523282805" lon="116.1746530479116">
        <ele>65.27728271484375</ele>
        <time>2026-09-28T11:56:52Z</time>
      </trkpt>
      <trkpt lat="39.91344946836443" lon="116.17475233264163">
        <ele>65.81463623046875</ele>
        <time>2026-09-28T11:56:58Z</time>
      </trkpt>
      <trkpt lat="39.91343902491833" lon="116.17505517354613">
        <ele>66.69012451171875</ele>
        <time>2026-09-28T11:57:10Z</time>
      </trkpt>
      <trkpt lat="39.91341970432439" lon="116.1754252005373">
        <ele>67.19720458984375</ele>
        <time>2026-09-28T11:57:25Z</time>
      </trkpt>
      <trkpt lat="39.91342313397639" lon="116.17565984906462">
        <ele>67.41522216796875</ele>
        <time>2026-09-28T11:57:34Z</time>
      </trkpt>
      <trkpt lat="39.913452255730526" lon="116.17572703109992">
        <ele>67.2777099609375</ele>
        <time>2026-09-28T11:57:37Z</time>
      </trkpt>
      <trkpt lat="39.91349934916803" lon="116.17577916926294">
        <ele>67.5704345703125</ele>
        <time>2026-09-28T11:57:40Z</time>
      </trkpt>
      <trkpt lat="39.913527934732926" lon="116.17610005171879">
        <ele>68.11529541015625</ele>
        <time>2026-09-28T11:57:55Z</time>
      </trkpt>
      <trkpt lat="39.913427186287194" lon="116.17623543785612">
        <ele>68.07745361328125</ele>
        <time>2026-09-28T11:58:04Z</time>
      </trkpt>
      <trkpt lat="39.91339847491318" lon="116.17639287551599">
        <ele>68.2691650390625</ele>
        <time>2026-09-28T11:58:10Z</time>
      </trkpt>
      <trkpt lat="39.91339221929985" lon="116.17680100014226">
        <ele>67.843994140625</ele>
        <time>2026-09-28T11:58:25Z</time>
      </trkpt>
      <trkpt lat="39.91338594586099" lon="116.17720009796865">
        <ele>66.42852783203125</ele>
        <time>2026-09-28T11:58:40Z</time>
      </trkpt>
      <trkpt lat="39.91339938440611" lon="116.1774417595996">
        <ele>65.82659912109375</ele>
        <time>2026-09-28T11:58:49Z</time>
      </trkpt>
      <trkpt lat="39.91342353085422" lon="116.1775229793369">
        <ele>65.49462890625</ele>
        <time>2026-09-28T11:58:52Z</time>
      </trkpt>
      <trkpt lat="39.913468594472924" lon="116.1775590726504">
        <ele>65.3756103515625</ele>
        <time>2026-09-28T11:58:55Z</time>
      </trkpt>
      <trkpt lat="39.91374358104341" lon="116.17755803529529">
        <ele>66.46990966796875</ele>
        <time>2026-09-28T11:59:07Z</time>
      </trkpt>
      <trkpt lat="39.914067561919495" lon="116.17755498627513">
        <ele>66.37786865234375</ele>
        <time>2026-09-28T11:59:22Z</time>
      </trkpt>
      <trkpt lat="39.91423157502655" lon="116.17756599587719">
        <ele>69.20062255859375</ele>
        <time>2026-09-28T11:59:34Z</time>
      </trkpt>
      <trkpt lat="39.914412538286506" lon="116.17754992911294">
        <ele>77.3310546875</ele>
        <time>2026-09-28T11:59:40Z</time>
      </trkpt>
      <trkpt lat="39.914696524515364" lon="116.17754889062354">
        <ele>86.93719482421875</ele>
        <time>2026-09-28T11:59:52Z</time>
      </trkpt>
      <trkpt lat="39.91483348235415" lon="116.17752881839412">
        <ele>80.4044189453125</ele>
        <time>2026-09-28T11:59:58Z</time>
      </trkpt>
      <trkpt lat="39.91482625506576" lon="116.17740347548099">
        <ele>73.29156494140625</ele>
        <time>2026-09-28T12:00:04Z</time>
      </trkpt>
      <trkpt lat="39.91478503817771" lon="116.17728315041111">
        <ele>73.45428466796875</ele>
        <time>2026-09-28T12:00:07Z</time>
      </trkpt>
      <trkpt lat="39.91482945999604" lon="116.17696627427475">
        <ele>74.71051025390625</ele>
        <time>2026-09-28T12:00:16Z</time>
      </trkpt>
      <trkpt lat="39.91487174364842" lon="116.17683376804776">
        <ele>77.45703125</ele>
        <time>2026-09-28T12:00:22Z</time>
      </trkpt>
      <trkpt lat="39.91486772778729" lon="116.17673563044565">
        <ele>79.45263671875</ele>
        <time>2026-09-28T12:00:25Z</time>
      </trkpt>
      <trkpt lat="39.91485948395408" lon="116.1766486672824">
        <ele>81.6634521484375</ele>
        <time>2026-09-28T12:00:28Z</time>
      </trkpt>
      <trkpt lat="39.91491983560444" lon="116.17643083087847">
        <ele>84.05645751953125</ele>
        <time>2026-09-28T12:00:34Z</time>
      </trkpt>
      <trkpt lat="39.914956791917746" lon="116.17635061768422">
        <ele>85.11676025390625</ele>
        <time>2026-09-28T12:00:37Z</time>
      </trkpt>
      <trkpt lat="39.91500778076898" lon="116.1760497270257">
        <ele>90.8900146484375</ele>
        <time>2026-09-28T12:00:46Z</time>
      </trkpt>
      <trkpt lat="39.91495609508949" lon="116.17567369483906">
        <ele>94.41082763671875</ele>
        <time>2026-09-28T12:00:58Z</time>
      </trkpt>
      <trkpt lat="39.914904423033455" lon="116.17530568330343">
        <ele>90.29803466796875</ele>
        <time>2026-09-28T12:01:13Z</time>
      </trkpt>
      <trkpt lat="39.914883730261955" lon="116.17492763862678">
        <ele>82.76751708984375</ele>
        <time>2026-09-28T12:01:28Z</time>
      </trkpt>
      <trkpt lat="39.914868443581085" lon="116.1747712067614">
        <ele>78.92608642578125</ele>
        <time>2026-09-28T12:01:34Z</time>
      </trkpt>
      <trkpt lat="39.91478525174821" lon="116.1746649223438">
        <ele>72.20330810546875</ele>
        <time>2026-09-28T12:01:40Z</time>
      </trkpt>
      <trkpt lat="39.91445938892989" lon="116.17473214979987">
        <ele>61.1456298828125</ele>
        <time>2026-09-28T12:01:55Z</time>
      </trkpt>
      <trkpt lat="39.91422744660316" lon="116.1747582513406">
        <ele>59.69891357421875</ele>
        <time>2026-09-28T12:02:07Z</time>
      </trkpt>
      <trkpt lat="39.914166404953775" lon="116.17473419226764">
        <ele>59.74053955078125</ele>
        <time>2026-09-28T12:02:10Z</time>
      </trkpt>
      <trkpt lat="39.914070233925315" lon="116.17463894005952">
        <ele>60.5841064453125</ele>
        <time>2026-09-28T12:02:16Z</time>
      </trkpt>
      <trkpt lat="39.91376521360759" lon="116.1746209283881">
        <ele>61.5540771484375</ele>
        <time>2026-09-28T12:02:31Z</time>
      </trkpt>
      <trkpt lat="39.91358325078104" lon="116.17463699583443">
        <ele>62.6544189453125</ele>
        <time>2026-09-28T12:02:40Z</time>
      </trkpt>
      <trkpt lat="39.91348136935457" lon="116.17469918118206">
        <ele>63.31988525390625</ele>
        <time>2026-09-28T12:02:46Z</time>
      </trkpt>
      <trkpt lat="39.91344545195126" lon="116.1747433081123">
        <ele>63.6346435546875</ele>
        <time>2026-09-28T12:02:49Z</time>
      </trkpt>
      <trkpt lat="39.913411759143436" lon="116.17490977398354">
        <ele>64.85418701171875</ele>
        <time>2026-09-28T12:02:55Z</time>
      </trkpt>
      <trkpt lat="39.913413496887" lon="116.17531188771974">
        <ele>65.0316162109375</ele>
        <time>2026-09-28T12:03:10Z</time>
      </trkpt>
      <trkpt lat="39.91342909884198" lon="116.17564079564268">
        <ele>65.97607421875</ele>
        <time>2026-09-28T12:03:22Z</time>
      </trkpt>
      <trkpt lat="39.91345124292583" lon="116.17572001182805">
        <ele>65.43316650390625</ele>
        <time>2026-09-28T12:03:25Z</time>
      </trkpt>
      <trkpt lat="39.913495347502106" lon="116.17577816699608">
        <ele>65.28289794921875</ele>
        <time>2026-09-28T12:03:28Z</time>
      </trkpt>
      <trkpt lat="39.913519955225695" lon="116.17611108316083">
        <ele>66.12664794921875</ele>
        <time>2026-09-28T12:03:40Z</time>
      </trkpt>
      <trkpt lat="39.91347707428745" lon="116.17617526562222">
        <ele>66.03985595703125</ele>
        <time>2026-09-28T12:03:43Z</time>
      </trkpt>
      <trkpt lat="39.913367088092464" lon="116.17618029330026">
        <ele>64.74432373046875</ele>
        <time>2026-09-28T12:03:49Z</time>
      </trkpt>
      <trkpt lat="39.913312191145856" lon="116.17623545233347">
        <ele>63.8717041015625</ele>
        <time>2026-09-28T12:03:55Z</time>
      </trkpt>
      <trkpt lat="39.913296910855905" lon="116.17662954020363">
        <ele>64.74432373046875</ele>
        <time>2026-09-28T12:04:10Z</time>
      </trkpt>
      <trkpt lat="39.913328481281894" lon="116.17694339979451">
        <ele>64.8870849609375</ele>
        <time>2026-09-28T12:04:22Z</time>
      </trkpt>
      <trkpt lat="39.91330994360311" lon="116.17719709927238">
        <ele>64.44110107421875</ele>
        <time>2026-09-28T12:04:31Z</time>
      </trkpt>
      <trkpt lat="39.91331234619936" lon="116.17741870728057">
        <ele>63.240234375</ele>
        <time>2026-09-28T12:04:40Z</time>
      </trkpt>
      <trkpt lat="39.913249811126505" lon="116.17767341352237">
        <ele>64.040771484375</ele>
        <time>2026-09-28T12:04:49Z</time>
      </trkpt>
      <trkpt lat="39.913257145328664" lon="116.17785791798244">
        <ele>67.00396728515625</ele>
        <time>2026-09-28T12:04:55Z</time>
      </trkpt>
      <trkpt lat="39.91331861305508" lon="116.17811762087058">
        <ele>62.11865234375</ele>
        <time>2026-09-28T12:05:07Z</time>
      </trkpt>
      <trkpt lat="39.91330702704567" lon="116.17834624714875">
        <ele>61.60540771484375</ele>
        <time>2026-09-28T12:05:16Z</time>
      </trkpt>
      <trkpt lat="39.91332736133144" lon="116.1785317510497">
        <ele>58.77935791015625</ele>
        <time>2026-09-28T12:05:25Z</time>
      </trkpt>
      <trkpt lat="39.91329500848034" lon="116.17888973110186">
        <ele>62.962890625</ele>
        <time>2026-09-28T12:05:37Z</time>
      </trkpt>
      <trkpt lat="39.913267746086596" lon="116.17929884771792">
        <ele>65.1644287109375</ele>
        <time>2026-09-28T12:05:52Z</time>
      </trkpt>
      <trkpt lat="39.913249424018" lon="116.17967587374812">
        <ele>65.854736328125</ele>
        <time>2026-09-28T12:06:07Z</time>
      </trkpt>
      <trkpt lat="39.913250155266006" lon="116.18008397939725">
        <ele>65.27105712890625</ele>
        <time>2026-09-28T12:06:22Z</time>
      </trkpt>
      <trkpt lat="39.913254291443906" lon="116.18016018507453">
        <ele>64.25732421875</ele>
        <time>2026-09-28T12:06:25Z</time>
      </trkpt>
      <trkpt lat="39.91323255233207" lon="116.18030558096311">
        <ele>64.2901611328125</ele>
        <time>2026-09-28T12:06:31Z</time>
      </trkpt>
      <trkpt lat="39.91318962940449" lon="116.18034770017842">
        <ele>64.1551513671875</ele>
        <time>2026-09-28T12:06:34Z</time>
      </trkpt>
      <trkpt lat="39.91291969635811" lon="116.18037881810916">
        <ele>66.0128173828125</ele>
        <time>2026-09-28T12:06:46Z</time>
      </trkpt>
      <trkpt lat="39.91266774105827" lon="116.18039790125869">
        <ele>64.11370849609375</ele>
        <time>2026-09-28T12:06:58Z</time>
      </trkpt>
      <trkpt lat="39.91233368714885" lon="116.18035984031296">
        <ele>65.40191650390625</ele>
        <time>2026-09-28T12:07:13Z</time>
      </trkpt>
      <trkpt lat="39.91227162707239" lon="116.18032475327693">
        <ele>66.0078125</ele>
        <time>2026-09-28T12:07:16Z</time>
      </trkpt>
      <trkpt lat="39.91195364952728" lon="116.18032980680596">
        <ele>68.3536376953125</ele>
        <time>2026-09-28T12:07:31Z</time>
      </trkpt>
      <trkpt lat="39.91165863518338" lon="116.18031480324821">
        <ele>67.60546875</ele>
        <time>2026-09-28T12:07:46Z</time>
      </trkpt>
      <trkpt lat="39.911347702163106" lon="116.18034492363634">
        <ele>69.786376953125</ele>
        <time>2026-09-28T12:08:01Z</time>
      </trkpt>
      <trkpt lat="39.911222736147494" lon="116.18036098269938">
        <ele>70.74249267578125</ele>
        <time>2026-09-28T12:08:07Z</time>
      </trkpt>
      <trkpt lat="39.91092974325423" lon="116.18035801140739">
        <ele>67.3963623046875</ele>
        <time>2026-09-28T12:08:22Z</time>
      </trkpt>
      <trkpt lat="39.910607782064616" lon="116.18037208981472">
        <ele>67.753173828125</ele>
        <time>2026-09-28T12:08:37Z</time>
      </trkpt>
      <trkpt lat="39.91048684991636" lon="116.18040719982909">
        <ele>67.96527099609375</ele>
        <time>2026-09-28T12:08:43Z</time>
      </trkpt>
      <trkpt lat="39.91042482569887" lon="116.18039216699587">
        <ele>69.43231201171875</ele>
        <time>2026-09-28T12:08:46Z</time>
      </trkpt>
      <trkpt lat="39.910291697018906" lon="116.18031698052621">
        <ele>68.2940673828125</ele>
        <time>2026-09-28T12:08:55Z</time>
      </trkpt>
      <trkpt lat="39.91011565973902" lon="116.18029193490291">
        <ele>66.87579345703125</ele>
        <time>2026-09-28T12:09:07Z</time>
      </trkpt>
      <trkpt lat="39.91011565973902" lon="116.18029193490291">
        <ele>66.87579345703125</ele>
        <time>2026-09-28T12:09:10Z</time>
      </trkpt>
      <trkpt lat="39.910173610924076" lon="116.18082637001935">
        <ele>61.720458984375</ele>
        <time>2026-09-28T12:25:00Z</time>
      </trkpt>
      <trkpt lat="39.91030064300354" lon="116.1808474107889">
        <ele>59.23565673828125</ele>
        <time>2026-09-28T12:25:12Z</time>
      </trkpt>
      <trkpt lat="39.910604585374195" lon="116.18082230503697">
        <ele>61.4114990234375</ele>
        <time>2026-09-28T12:25:42Z</time>
      </trkpt>
      <trkpt lat="39.910769551541996" lon="116.18080724376762">
        <ele>62.123046875</ele>
        <time>2026-09-28T12:25:54Z</time>
      </trkpt>
      <trkpt lat="39.91106055700158" lon="116.18081723420873">
        <ele>62.635986328125</ele>
        <time>2026-09-28T12:26:09Z</time>
      </trkpt>
      <trkpt lat="39.9111775627355" lon="116.18082323571291">
        <ele>62.2928466796875</ele>
        <time>2026-09-28T12:26:15Z</time>
      </trkpt>
      <trkpt lat="39.91128952760106" lon="116.18080617570104">
        <ele>59.35302734375</ele>
        <time>2026-09-28T12:26:24Z</time>
      </trkpt>
      <trkpt lat="39.91146656651043" lon="116.18083222370085">
        <ele>60.57427978515625</ele>
        <time>2026-09-28T12:26:33Z</time>
      </trkpt>
      <trkpt lat="39.91178151203629" lon="116.18080912196103">
        <ele>61.90087890625</ele>
        <time>2026-09-28T12:26:51Z</time>
      </trkpt>
      <trkpt lat="39.91206150550365" lon="116.18081209486957">
        <ele>59.627685546875</ele>
        <time>2026-09-28T12:27:06Z</time>
      </trkpt>
      <trkpt lat="39.91215857640011" lon="116.1808541961472">
        <ele>56.237548828125</ele>
        <time>2026-09-28T12:27:12Z</time>
      </trkpt>
      <trkpt lat="39.91249751737514" lon="116.18082908599347">
        <ele>59.80377197265625</ele>
        <time>2026-09-28T12:27:30Z</time>
      </trkpt>
      <trkpt lat="39.91284961317964" lon="116.1808912092236">
        <ele>57.2080078125</ele>
        <time>2026-09-28T12:27:48Z</time>
      </trkpt>
      <trkpt lat="39.91290364124333" lon="116.18090824834644">
        <ele>56.32232666015625</ele>
        <time>2026-09-28T12:27:51Z</time>
      </trkpt>
      <trkpt lat="39.91320855156866" lon="116.18086509386785">
        <ele>58.34136962890625</ele>
        <time>2026-09-28T12:28:06Z</time>
      </trkpt>
      <trkpt lat="39.913433492056456" lon="116.18083698994208">
        <ele>63.06085205078125</ele>
        <time>2026-09-28T12:28:18Z</time>
      </trkpt>
      <trkpt lat="39.91374035056269" lon="116.18085269394246">
        <ele>59.89898681640625</ele>
        <time>2026-09-28T12:28:33Z</time>
      </trkpt>
      <trkpt lat="39.913852452935096" lon="116.1808249048463">
        <ele>60.38946533203125</ele>
        <time>2026-09-28T12:28:39Z</time>
      </trkpt>
      <trkpt lat="39.91390152587502" lon="116.18086701215141">
        <ele>61.8497314453125</ele>
        <time>2026-09-28T12:28:42Z</time>
      </trkpt>
      <trkpt lat="39.913893915204405" lon="116.18108560163714">
        <ele>61.6671142578125</ele>
        <time>2026-09-28T12:28:51Z</time>
      </trkpt>
      <trkpt lat="39.91388139697812" lon="116.1811534302688">
        <ele>61.44281005859375</ele>
        <time>2026-09-28T12:28:54Z</time>
      </trkpt>
      <trkpt lat="39.91389474306051" lon="116.18155185427656">
        <ele>59.93011474609375</ele>
        <time>2026-09-28T12:29:12Z</time>
      </trkpt>
      <trkpt lat="39.9138864747577" lon="116.18196496224692">
        <ele>56.076904296875</ele>
        <time>2026-09-28T12:29:30Z</time>
      </trkpt>
      <trkpt lat="39.91387914421341" lon="116.18234397618983">
        <ele>56.74072265625</ele>
        <time>2026-09-28T12:29:45Z</time>
      </trkpt>
      <trkpt lat="39.91386930191735" lon="116.1824332155801">
        <ele>56.770263671875</ele>
        <time>2026-09-28T12:29:48Z</time>
      </trkpt>
      <trkpt lat="39.91390901119066" lon="116.18283728721609">
        <ele>60.1240234375</ele>
        <time>2026-09-28T12:30:03Z</time>
      </trkpt>
      <trkpt lat="39.91394843719509" lon="116.1830809300365">
        <ele>57.75762939453125</ele>
        <time>2026-09-28T12:30:12Z</time>
      </trkpt>
      <trkpt lat="39.91394147216604" lon="116.18347501595423">
        <ele>59.1929931640625</ele>
        <time>2026-09-28T12:30:27Z</time>
      </trkpt>
      <trkpt lat="39.9139542841737" lon="116.18357278769129">
        <ele>58.56439208984375</ele>
        <time>2026-09-28T12:30:30Z</time>
      </trkpt>
      <trkpt lat="39.91393301493268" lon="116.18398332166326">
        <ele>58.67919921875</ele>
        <time>2026-09-28T12:30:45Z</time>
      </trkpt>
      <trkpt lat="39.91392372834981" lon="116.18439340375022">
        <ele>59.16552734375</ele>
        <time>2026-09-28T12:31:00Z</time>
      </trkpt>
      <trkpt lat="39.91392040966057" lon="116.18478643710841">
        <ele>65.31146240234375</ele>
        <time>2026-09-28T12:31:12Z</time>
      </trkpt>
      <trkpt lat="39.913896049869834" lon="116.1851564097229">
        <ele>57.73760986328125</ele>
        <time>2026-09-28T12:31:30Z</time>
      </trkpt>
      <trkpt lat="39.913907769296266" lon="116.18557450062464">
        <ele>58.50079345703125</ele>
        <time>2026-09-28T12:31:45Z</time>
      </trkpt>
      <trkpt lat="39.913881083819334" lon="116.18575697962683">
        <ele>59.4622802734375</ele>
        <time>2026-09-28T12:31:51Z</time>
      </trkpt>
      <trkpt lat="39.91388234683968" lon="116.18591037879943">
        <ele>58.75146484375</ele>
        <time>2026-09-28T12:31:57Z</time>
      </trkpt>
      <trkpt lat="39.913849454731334" lon="116.18597254461012">
        <ele>59.935546875</ele>
        <time>2026-09-28T12:32:00Z</time>
      </trkpt>
      <trkpt lat="39.913716477516274" lon="116.18598258737268">
        <ele>60.89697265625</ele>
        <time>2026-09-28T12:32:12Z</time>
      </trkpt>
    </trkseg>
  </trk>
</gpx>