<?xml version="1.0" encoding="UTF-8"?>
<gpx xmlns="http://www.topografix.com/GPX/1/1" xmlns:gpxtpx="http://www.garmin.com/xmlschemas/TrackPointExtension/v1" xmlns:xsi="http://www.w3.org/2001/XMLSchema-instance" xsi:schemaLocation="http://www.topografix.com/GPX/1/1 http://www.topografix.com/GPX/1/1/gpx.xsd" version="1.1" creator="gpx.py -- https://github.com/tkrajina/gpxpy">
  <trk>
    <name>gpx from keep</name>
    <type>Run</type>
    <trkseg>
      <trkpt lat="39.914046435745924" lon="116.18538398592956">
        <ele>68.66168212890625</ele>
        <time>2026-09-22T00:59:32Z</time>
      </trkpt>
      <trkpt lat="39.914020823109965" lon="116.18502805804138">
        <ele>65.406982421875</ele>
        <time>2026-09-22T00:59:50Z</time>
      </trkpt>
      <trkpt lat="39.9140201606932" lon="116.18464505338663">
        <ele>62.67633056640625</ele>
        <time>2026-09-22T01:00:05Z</time>
      </trkpt>
      <trkpt lat="39.91399965377637" lon="116.18435228600406">
        <ele>68.92437744140625</ele>
        <time>2026-09-22T01:00:14Z</time>
      </trkpt>
      <trkpt lat="39.914044954326734" lon="116.1839512228971">
        <ele>68.744384765625</ele>
        <time>2026-09-22T01:00:29Z</time>
      </trkpt>
      <trkpt lat="39.913986262308036" lon="116.18355317777262">
        <ele>67.43145751953125</ele>
        <time>2026-09-22T01:00:47Z</time>
      </trkpt>
      <trkpt lat="39.91399567070356" lon="116.18321528085207">
        <ele>66.2913818359375</ele>
        <time>2026-09-22T01:00:59Z</time>
      </trkpt>
      <trkpt lat="39.91402415249725" lon="116.18292049412558">
        <ele>69.5032958984375</ele>
        <time>2026-09-22T01:01:08Z</time>
      </trkpt>
      <trkpt lat="39.91401239508093" lon="116.18257566016784">
        <ele>68.0238037109375</ele>
        <time>2026-09-22T01:01:17Z</time>
      </trkpt>
      <trkpt lat="39.91397618784756" lon="116.18237103625853">
        <ele>68.09161376953125</ele>
        <time>2026-09-22T01:01:23Z</time>
      </trkpt>
      <trkpt lat="39.914000440026086" lon="116.1819886258421">
        <ele>71.088134765625</ele>
        <time>2026-09-22T01:01:38Z</time>
      </trkpt>
      <trkpt lat="39.9140291672216" lon="116.18179448791842">
        <ele>72.289306640625</ele>
        <time>2026-09-22T01:01:44Z</time>
      </trkpt>
      <trkpt lat="39.91401304186828" lon="116.1817232991874">
        <ele>71.84967041015625</ele>
        <time>2026-09-22T01:01:47Z</time>
      </trkpt>
      <trkpt lat="39.914035596151884" lon="116.18135241579463">
        <ele>69.3826904296875</ele>
        <time>2026-09-22T01:01:59Z</time>
      </trkpt>
      <trkpt lat="39.914038254829876" lon="116.18128010657763">
        <ele>68.8946533203125</ele>
        <time>2026-09-22T01:02:02Z</time>
      </trkpt>
      <trkpt lat="39.91400601209821" lon="116.18114274129935">
        <ele>66.547119140625</ele>
        <time>2026-09-22T01:02:08Z</time>
      </trkpt>
      <trkpt lat="39.91400654644472" lon="116.18088103676682">
        <ele>67.1173095703125</ele>
        <time>2026-09-22T01:02:17Z</time>
      </trkpt>
      <trkpt lat="39.91397046581873" lon="116.18083491702991">
        <ele>66.83612060546875</ele>
        <time>2026-09-22T01:02:20Z</time>
      </trkpt>
      <trkpt lat="39.91364649199093" lon="116.18084197667329">
        <ele>66.61834716796875</ele>
        <time>2026-09-22T01:02:32Z</time>
      </trkpt>
      <trkpt lat="39.91335149016318" lon="116.18083399214544">
        <ele>68.07318115234375</ele>
        <time>2026-09-22T01:02:44Z</time>
      </trkpt>
      <trkpt lat="39.91328049316391" lon="116.18083400107103">
        <ele>68.75531005859375</ele>
        <time>2026-09-22T01:02:50Z</time>
      </trkpt>
      <trkpt lat="39.913301429758604" lon="116.18079890386095">
        <ele>66.6204833984375</ele>
        <time>2026-09-22T01:03:05Z</time>
      </trkpt>
      <trkpt lat="39.91327437130016" lon="116.1802053045982">
        <ele>65.80712890625</ele>
        <time>2026-09-22T01:04:47Z</time>
      </trkpt>
      <trkpt lat="39.91325905617372" lon="116.18002882900082">
        <ele>67.01995849609375</ele>
        <time>2026-09-22T01:04:53Z</time>
      </trkpt>
      <trkpt lat="39.91326327228279" lon="116.17959164348363">
        <ele>67.45648193359375</ele>
        <time>2026-09-22T01:05:08Z</time>
      </trkpt>
      <trkpt lat="39.9132656704422" lon="116.17925673349741">
        <ele>67.8812255859375</ele>
        <time>2026-09-22T01:05:20Z</time>
      </trkpt>
      <trkpt lat="39.91324753231908" lon="116.1791795258293">
        <ele>67.03717041015625</ele>
        <time>2026-09-22T01:05:23Z</time>
      </trkpt>
      <trkpt lat="39.91324838611193" lon="116.17909830477316">
        <ele>66.28570556640625</ele>
        <time>2026-09-22T01:05:26Z</time>
      </trkpt>
      <trkpt lat="39.913267264356" lon="116.17903111956699">
        <ele>66.1094970703125</ele>
        <time>2026-09-22T01:05:29Z</time>
      </trkpt>
      <trkpt lat="39.913270107102576" lon="116.1789438817051">
        <ele>68.322509765625</ele>
        <time>2026-09-22T01:05:32Z</time>
      </trkpt>
      <trkpt lat="39.9133087150152" lon="116.1787272867169">
        <ele>64.046630859375</ele>
        <time>2026-09-22T01:05:41Z</time>
      </trkpt>
      <trkpt lat="39.91332114360174" lon="116.17826672290671">
        <ele>60.93353271484375</ele>
        <time>2026-09-22T01:05:56Z</time>
      </trkpt>
      <trkpt lat="39.913241247746065" lon="116.17791407370652">
        <ele>61.2606201171875</ele>
        <time>2026-09-22T01:06:08Z</time>
      </trkpt>
      <trkpt lat="39.913296770943695" lon="116.17765234990522">
        <ele>60.315185546875</ele>
        <time>2026-09-22T01:06:17Z</time>
      </trkpt>
      <trkpt lat="39.913303035041345" lon="116.17724723782278">
        <ele>66.8057861328125</ele>
        <time>2026-09-22T01:06:29Z</time>
      </trkpt>
      <trkpt lat="39.913302274241616" lon="116.17682908870611">
        <ele>68.8192138671875</ele>
        <time>2026-09-22T01:06:44Z</time>
      </trkpt>
      <trkpt lat="39.91330359419659" lon="116.17645606154981">
        <ele>69.666259765625</ele>
        <time>2026-09-22T01:06:59Z</time>
      </trkpt>
      <trkpt lat="39.913306793791854" lon="116.17601785262052">
        <ele>71.233154296875</ele>
        <time>2026-09-22T01:07:14Z</time>
      </trkpt>
      <trkpt lat="39.91330111436455" lon="116.1755714029171">
        <ele>72.82537841796875</ele>
        <time>2026-09-22T01:07:26Z</time>
      </trkpt>
      <trkpt lat="39.91333230539764" lon="116.17520560364757">
        <ele>73.431884765625</ele>
        <time>2026-09-22T01:07:41Z</time>
      </trkpt>
      <trkpt lat="39.913302181584214" lon="116.17513741858434">
        <ele>71.15350341796875</ele>
        <time>2026-09-22T01:07:44Z</time>
      </trkpt>
      <trkpt lat="39.91316608429923" lon="116.17508128015858">
        <ele>69.86328125</ele>
        <time>2026-09-22T01:07:50Z</time>
      </trkpt>
      <trkpt lat="39.913046690475234" lon="116.17506666868918">
        <ele>68.79693603515625</ele>
        <time>2026-09-22T01:07:56Z</time>
      </trkpt>
      <trkpt lat="39.912974002246266" lon="116.17503216820272">
        <ele>69.38543701171875</ele>
        <time>2026-09-22T01:07:59Z</time>
      </trkpt>
      <trkpt lat="39.912743012022666" lon="116.1750321972935">
        <ele>66.4918212890625</ele>
        <time>2026-09-22T01:08:11Z</time>
      </trkpt>
      <trkpt lat="39.91262496732517" lon="116.17500513713007">
        <ele>65.6065673828125</ele>
        <time>2026-09-22T01:08:17Z</time>
      </trkpt>
      <trkpt lat="39.91247505466128" lon="116.17504927827652">
        <ele>65.1082763671875</ele>
        <time>2026-09-22T01:08:23Z</time>
      </trkpt>
      <trkpt lat="39.91236523596087" lon="116.17514555879947">
        <ele>63.7205810546875</ele>
        <time>2026-09-22T01:08:29Z</time>
      </trkpt>
      <trkpt lat="39.91229427024377" lon="116.17516261495302">
        <ele>64.75677490234375</ele>
        <time>2026-09-22T01:08:32Z</time>
      </trkpt>
      <trkpt lat="39.91199725341196" lon="116.17514660791751">
        <ele>68.064697265625</ele>
        <time>2026-09-22T01:08:44Z</time>
      </trkpt>
      <trkpt lat="39.91172226141213" lon="116.17514463699207">
        <ele>70.9837646484375</ele>
        <time>2026-09-22T01:08:56Z</time>
      </trkpt>
      <trkpt lat="39.911441300951736" lon="116.17515971403446">
        <ele>71.446044921875</ele>
        <time>2026-09-22T01:09:08Z</time>
      </trkpt>
      <trkpt lat="39.91138528125912" lon="116.17514768775976">
        <ele>70.7183837890625</ele>
        <time>2026-09-22T01:09:11Z</time>
      </trkpt>
      <trkpt lat="39.91134104760191" lon="116.17501933772597">
        <ele>69.720947265625</ele>
        <time>2026-09-22T01:09:17Z</time>
      </trkpt>
      <trkpt lat="39.911312348668986" lon="116.17463889119094">
        <ele>69.32147216796875</ele>
        <time>2026-09-22T01:09:29Z</time>
      </trkpt>
      <trkpt lat="39.91131331840744" lon="116.17453705682131">
        <ele>69.69970703125</ele>
        <time>2026-09-22T01:09:32Z</time>
      </trkpt>
      <trkpt lat="39.911304834225454" lon="116.17443161601474">
        <ele>71.7618408203125</ele>
        <time>2026-09-22T01:09:35Z</time>
      </trkpt>
      <trkpt lat="39.911357426303624" lon="116.17413788916141">
        <ele>72.21484375</ele>
        <time>2026-09-22T01:09:47Z</time>
      </trkpt>
      <trkpt lat="39.91135329350285" lon="116.17406568894997">
        <ele>69.444580078125</ele>
        <time>2026-09-22T01:09:50Z</time>
      </trkpt>
      <trkpt lat="39.91141456448" lon="116.17367158471231">
        <ele>68.25970458984375</ele>
        <time>2026-09-22T01:10:05Z</time>
      </trkpt>
      <trkpt lat="39.911395123072055" lon="116.17343191963198">
        <ele>67.349365234375</ele>
        <time>2026-09-22T01:10:14Z</time>
      </trkpt>
      <trkpt lat="39.91140895956523" lon="116.1733436719757">
        <ele>68.40582275390625</ele>
        <time>2026-09-22T01:10:20Z</time>
      </trkpt>
      <trkpt lat="39.91137866266907" lon="116.17318222570927">
        <ele>73.5262451171875</ele>
        <time>2026-09-22T01:10:35Z</time>
      </trkpt>
      <trkpt lat="39.911396319097165" lon="116.17299670603258">
        <ele>72.6697998046875</ele>
        <time>2026-09-22T01:10:44Z</time>
      </trkpt>
      <trkpt lat="39.911358066726415" lon="116.1728593274731">
        <ele>72.7545166015625</ele>
        <time>2026-09-22T01:10:50Z</time>
      </trkpt>
      <trkpt lat="39.91136160280796" lon="116.17260862703118">
        <ele>71.78558349609375</ele>
        <time>2026-09-22T01:10:56Z</time>
      </trkpt>
      <trkpt lat="39.91140892680897" lon="116.17224460378374">
        <ele>78.855224609375</ele>
        <time>2026-09-22T01:11:11Z</time>
      </trkpt>
      <trkpt lat="39.91138340755515" lon="116.17196382162754">
        <ele>78.2431640625</ele>
        <time>2026-09-22T01:11:20Z</time>
      </trkpt>
      <trkpt lat="39.911356105627576" lon="116.17180036760249">
        <ele>76.65283203125</ele>
        <time>2026-09-22T01:11:29Z</time>
      </trkpt>
      <trkpt lat="39.91136378623818" lon="116.1717332104968">
        <ele>72.46026611328125</ele>
        <time>2026-09-22T01:11:32Z</time>
      </trkpt>
      <trkpt lat="39.911353595964464" lon="116.17152559849676">
        <ele>69.2864990234375</ele>
        <time>2026-09-22T01:11:38Z</time>
      </trkpt>
      <trkpt lat="39.911389864527145" lon="116.17113249224505">
        <ele>65.887451171875</ele>
        <time>2026-09-22T01:11:50Z</time>
      </trkpt>
      <trkpt lat="39.91139241349267" lon="116.17088981129997">
        <ele>66.9794921875</ele>
        <time>2026-09-22T01:11:59Z</time>
      </trkpt>
      <trkpt lat="39.911378298527985" lon="116.17082763864529">
        <ele>67.6446533203125</ele>
        <time>2026-09-22T01:12:02Z</time>
      </trkpt>
      <trkpt lat="39.91134020880378" lon="116.17077850557187">
        <ele>67.83465576171875</ele>
        <time>2026-09-22T01:12:05Z</time>
      </trkpt>
      <trkpt lat="39.911062340132816" lon="116.17066592309925">
        <ele>65.9683837890625</ele>
        <time>2026-09-22T01:12:20Z</time>
      </trkpt>
      <trkpt lat="39.91087911657336" lon="116.17071839486711">
        <ele>61.04058837890625</ele>
        <time>2026-09-22T01:12:32Z</time>
      </trkpt>
      <trkpt lat="39.91060806846333" lon="116.17068633898509">
        <ele>63.8060302734375</ele>
        <time>2026-09-22T01:12:44Z</time>
      </trkpt>
      <trkpt lat="39.910538019240455" lon="116.17065826901012">
        <ele>67.9666748046875</ele>
        <time>2026-09-22T01:12:50Z</time>
      </trkpt>
      <trkpt lat="39.9105619193839" lon="116.1706051168109">
        <ele>70.412353515625</ele>
        <time>2026-09-22T01:13:14Z</time>
      </trkpt>
      <trkpt lat="39.91054929308887" lon="116.17026817223784">
        <ele>74.40869140625</ele>
        <time>2026-09-22T01:13:26Z</time>
      </trkpt>
      <trkpt lat="39.91055654976112" lon="116.16986904974303">
        <ele>74.252685546875</ele>
        <time>2026-09-22T01:13:41Z</time>
      </trkpt>
      <trkpt lat="39.91056403761375" lon="116.16959427616757">
        <ele>74.1778564453125</ele>
        <time>2026-09-22T01:13:53Z</time>
      </trkpt>
      <trkpt lat="39.91054981398945" lon="116.16947393946428">
        <ele>74.7119140625</ele>
        <time>2026-09-22T01:13:59Z</time>
      </trkpt>
      <trkpt lat="39.910484751356776" lon="116.16943884893007">
        <ele>73.42529296875</ele>
        <time>2026-09-22T01:14:02Z</time>
      </trkpt>
      <trkpt lat="39.91031174939732" lon="116.16943385664732">
        <ele>70.35760498046875</ele>
        <time>2026-09-22T01:14:11Z</time>
      </trkpt>
      <trkpt lat="39.910244716750576" lon="116.16941481149789">
        <ele>70.9859619140625</ele>
        <time>2026-09-22T01:14:14Z</time>
      </trkpt>
      <trkpt lat="39.91019560483736" lon="116.16935364558029">
        <ele>71.1053466796875</ele>
        <time>2026-09-22T01:14:17Z</time>
      </trkpt>
      <trkpt lat="39.91024295219345" lon="116.1690046573865">
        <ele>70.27874755859375</ele>
        <time>2026-09-22T01:14:29Z</time>
      </trkpt>
      <trkpt lat="39.91021318278678" lon="116.16859149760045">
        <ele>70.05633544921875</ele>
        <time>2026-09-22T01:14:44Z</time>
      </trkpt>
      <trkpt lat="39.91022249368975" lon="116.16822245657417">
        <ele>70.62127685546875</ele>
        <time>2026-09-22T01:14:56Z</time>
      </trkpt>
      <trkpt lat="39.91022705168589" lon="116.16798578887864">
        <ele>70.3818359375</ele>
        <time>2026-09-22T01:15:05Z</time>
      </trkpt>
      <trkpt lat="39.910189710622355" lon="116.16780227616145">
        <ele>71.33160400390625</ele>
        <time>2026-09-22T01:15:11Z</time>
      </trkpt>
      <trkpt lat="39.91002514081725" lon="116.16749342583256">
        <ele>71.0601806640625</ele>
        <time>2026-09-22T01:15:23Z</time>
      </trkpt>
      <trkpt lat="39.909837607460666" lon="116.16720363189661">
        <ele>70.98828125</ele>
        <time>2026-09-22T01:15:35Z</time>
      </trkpt>
      <trkpt lat="39.90980347215574" lon="116.1671304296475">
        <ele>71.2958984375</ele>
        <time>2026-09-22T01:15:38Z</time>
      </trkpt>
      <trkpt lat="39.909780040343065" lon="116.16689877889146">
        <ele>70.713623046875</ele>
        <time>2026-09-22T01:15:47Z</time>
      </trkpt>
      <trkpt lat="39.90983958806485" lon="116.16665809206346">
        <ele>69.06231689453125</ele>
        <time>2026-09-22T01:15:56Z</time>
      </trkpt>
      <trkpt lat="39.90992033536644" lon="116.1665247053667">
        <ele>68.01416015625</ele>
        <time>2026-09-22T01:16:02Z</time>
      </trkpt>
      <trkpt lat="39.91002718649338" lon="116.16644747388523">
        <ele>66.85687255859375</ele>
        <time>2026-09-22T01:16:08Z</time>
      </trkpt>
      <trkpt lat="39.91011896329584" lon="116.16633013104446">
        <ele>64.32464599609375</ele>
        <time>2026-09-22T01:16:14Z</time>
      </trkpt>
      <trkpt lat="39.91018170197417" lon="116.1661917323848">
        <ele>62.3074951171875</ele>
        <time>2026-09-22T01:16:20Z</time>
      </trkpt>
      <trkpt lat="39.9101963733498" lon="116.16601623499005">
        <ele>64.1956787109375</ele>
        <time>2026-09-22T01:16:26Z</time>
      </trkpt>
      <trkpt lat="39.91021821872351" lon="116.16593400001997">
        <ele>64.33251953125</ele>
        <time>2026-09-22T01:16:29Z</time>
      </trkpt>
      <trkpt lat="39.91026709667953" lon="116.1658698126032">
        <ele>64.232177734375</ele>
        <time>2026-09-22T01:16:32Z</time>
      </trkpt>
      <trkpt lat="39.91031175739236" lon="116.16568929718815">
        <ele>64.84564208984375</ele>
        <time>2026-09-22T01:16:38Z</time>
      </trkpt>
      <trkpt lat="39.910293403927014" lon="116.16549976420757">
        <ele>68.2056884765625</ele>
        <time>2026-09-22T01:16:44Z</time>
      </trkpt>
      <trkpt lat="39.91023200170007" lon="116.16528316015847">
        <ele>67.447998046875</ele>
        <time>2026-09-22T01:16:53Z</time>
      </trkpt>
      <trkpt lat="39.910024470792564" lon="116.16499437059393">
        <ele>71.47222900390625</ele>
        <time>2026-09-22T01:17:08Z</time>
      </trkpt>
      <trkpt lat="39.90995201474224" lon="116.16474868574937">
        <ele>73.560791015625</ele>
        <time>2026-09-22T01:17:20Z</time>
      </trkpt>
      <trkpt lat="39.90984773436391" lon="116.16459626835993">
        <ele>73.549072265625</ele>
        <time>2026-09-22T01:17:29Z</time>
      </trkpt>
      <trkpt lat="39.90961658310425" lon="116.1645100539562">
        <ele>72.9925537109375</ele>
        <time>2026-09-22T01:17:44Z</time>
      </trkpt>
      <trkpt lat="39.90956457783525" lon="116.16450604919598">
        <ele>72.9429931640625</ele>
        <time>2026-09-22T01:17:47Z</time>
      </trkpt>
      <trkpt lat="39.909414766012006" lon="116.16460334288762">
        <ele>72.35723876953125</ele>
        <time>2026-09-22T01:17:56Z</time>
      </trkpt>
      <trkpt lat="39.909222257746386" lon="116.16486209802548">
        <ele>71.81787109375</ele>
        <time>2026-09-22T01:18:11Z</time>
      </trkpt>
      <trkpt lat="39.90918135133008" lon="116.16491124199084">
        <ele>71.2645263671875</ele>
        <time>2026-09-22T01:18:14Z</time>
      </trkpt>
      <trkpt lat="39.90915747979366" lon="116.16497943762292">
        <ele>71.18817138671875</ele>
        <time>2026-09-22T01:18:17Z</time>
      </trkpt>
      <trkpt lat="39.90918817381536" lon="116.16535148460855">
        <ele>69.471923828125</ele>
        <time>2026-09-22T01:18:32Z</time>
      </trkpt>
      <trkpt lat="39.90917091866282" lon="116.16574961119366">
        <ele>70.52435302734375</ele>
        <time>2026-09-22T01:18:50Z</time>
      </trkpt>
      <trkpt lat="39.909187521481584" lon="116.16607252096298">
        <ele>70.843994140625</ele>
        <time>2026-09-22T01:19:05Z</time>
      </trkpt>
      <trkpt lat="39.90916507159357" lon="116.16636635341393">
        <ele>69.21441650390625</ele>
        <time>2026-09-22T01:19:17Z</time>
      </trkpt>
      <trkpt lat="39.90921760907561" lon="116.1666551620979">
        <ele>67.78228759765625</ele>
        <time>2026-09-22T01:19:29Z</time>
      </trkpt>
      <trkpt lat="39.909134197293355" lon="116.16696805570093">
        <ele>71.272216796875</ele>
        <time>2026-09-22T01:19:44Z</time>
      </trkpt>
      <trkpt lat="39.909047463322345" lon="116.16710846282862">
        <ele>71.27105712890625</ele>
        <time>2026-09-22T01:19:53Z</time>
      </trkpt>
      <trkpt lat="39.90890766791176" lon="116.16721478040654">
        <ele>71.64288330078125</ele>
        <time>2026-09-22T01:20:02Z</time>
      </trkpt>
      <trkpt lat="39.908614761046756" lon="116.16725793904067">
        <ele>72.71173095703125</ele>
        <time>2026-09-22T01:20:20Z</time>
      </trkpt>
      <trkpt lat="39.908315760787154" lon="116.16725095697636">
        <ele>72.0902099609375</ele>
        <time>2026-09-22T01:20:38Z</time>
      </trkpt>
      <trkpt lat="39.90803071310566" lon="116.16721890241728">
        <ele>72.54595947265625</ele>
        <time>2026-09-22T01:20:56Z</time>
      </trkpt>
      <trkpt lat="39.90776042873302" lon="116.16706048946412">
        <ele>71.18475341796875</ele>
        <time>2026-09-22T01:21:14Z</time>
      </trkpt>
      <trkpt lat="39.907486399331475" lon="116.1670384617991">
        <ele>68.24017333984375</ele>
        <time>2026-09-22T01:21:29Z</time>
      </trkpt>
      <trkpt lat="39.90719670411331" lon="116.16719493978103">
        <ele>67.4390869140625</ele>
        <time>2026-09-22T01:21:44Z</time>
      </trkpt>
      <trkpt lat="39.90706704879299" lon="116.16737646822173">
        <ele>65.23699951171875</ele>
        <time>2026-09-22T01:21:53Z</time>
      </trkpt>
      <trkpt lat="39.90699440407835" lon="116.1675650091749">
        <ele>66.9212646484375</ele>
        <time>2026-09-22T01:21:59Z</time>
      </trkpt>
      <trkpt lat="39.90698415733256" lon="116.1679681472269">
        <ele>66.245849609375</ele>
        <time>2026-09-22T01:22:11Z</time>
      </trkpt>
      <trkpt lat="39.90700755134167" lon="116.16817974072092">
        <ele>67.77886962890625</ele>
        <time>2026-09-22T01:22:17Z</time>
      </trkpt>
      <trkpt lat="39.90712520505185" lon="116.16853272054003">
        <ele>70.41094970703125</ele>
        <time>2026-09-22T01:22:29Z</time>
      </trkpt>
      <trkpt lat="39.90713954308303" lon="116.16871423000663">
        <ele>69.73046875</ele>
        <time>2026-09-22T01:22:35Z</time>
      </trkpt>
      <trkpt lat="39.907121901122196" lon="116.1689057716096">
        <ele>69.517822265625</ele>
        <time>2026-09-22T01:22:41Z</time>
      </trkpt>
      <trkpt lat="39.90702255800101" lon="116.16925576929538">
        <ele>69.39501953125</ele>
        <time>2026-09-22T01:22:53Z</time>
      </trkpt>
      <trkpt lat="39.907014735919674" lon="116.16935103835102">
        <ele>70.15155029296875</ele>
        <time>2026-09-22T01:22:56Z</time>
      </trkpt>
      <trkpt lat="39.90705906479468" lon="116.1695285321003">
        <ele>69.6795654296875</ele>
        <time>2026-09-22T01:23:02Z</time>
      </trkpt>
      <trkpt lat="39.90710121432095" lon="116.16960975524509">
        <ele>70.07177734375</ele>
        <time>2026-09-22T01:23:05Z</time>
      </trkpt>
      <trkpt lat="39.90722137913788" lon="116.1697009967169">
        <ele>67.79412841796875</ele>
        <time>2026-09-22T01:23:11Z</time>
      </trkpt>
      <trkpt lat="39.90736240480454" lon="116.16971802686767">
        <ele>67.9942626953125</ele>
        <time>2026-09-22T01:23:17Z</time>
      </trkpt>
      <trkpt lat="39.90765433429694" lon="116.169686902634">
        <ele>70.12982177734375</ele>
        <time>2026-09-22T01:23:29Z</time>
      </trkpt>
      <trkpt lat="39.907887339197664" lon="116.16969489580629">
        <ele>73.048095703125</ele>
        <time>2026-09-22T01:23:38Z</time>
      </trkpt>
      <trkpt lat="39.90801316750339" lon="116.1696056289443">
        <ele>73.65985107421875</ele>
        <time>2026-09-22T01:23:44Z</time>
      </trkpt>
      <trkpt lat="39.90806105520134" lon="116.16954645649437">
        <ele>73.5863037109375</ele>
        <time>2026-09-22T01:23:47Z</time>
      </trkpt>
      <trkpt lat="39.90814561984443" lon="116.16931479412672">
        <ele>72.56805419921875</ele>
        <time>2026-09-22T01:23:56Z</time>
      </trkpt>
      <trkpt lat="39.9082323450436" lon="116.16916937398115">
        <ele>71.931640625</ele>
        <time>2026-09-22T01:24:02Z</time>
      </trkpt>
      <trkpt lat="39.908436132471515" lon="116.16906004060002">
        <ele>72.929443359375</ele>
        <time>2026-09-22T01:24:11Z</time>
      </trkpt>
      <trkpt lat="39.90851012181085" lon="116.16905601997436">
        <ele>73.50140380859375</ele>
        <time>2026-09-22T01:24:14Z</time>
      </trkpt>
      <trkpt lat="39.90855518532011" lon="116.16909111309057">
        <ele>70.62786865234375</ele>
        <time>2026-09-22T01:24:17Z</time>
      </trkpt>
      <trkpt lat="39.908706244272565" lon="116.16912619283016">
        <ele>70.71044921875</ele>
        <time>2026-09-22T01:24:23Z</time>
      </trkpt>
      <trkpt lat="39.90872948071104" lon="116.16925354833991">
        <ele>69.37353515625</ele>
        <time>2026-09-22T01:24:29Z</time>
      </trkpt>
      <trkpt lat="39.908676946492584" lon="116.16950225469661">
        <ele>67.8721923828125</ele>
        <time>2026-09-22T01:24:38Z</time>
      </trkpt>
      <trkpt lat="39.908685293658365" lon="116.16968877824466">
        <ele>66.37152099609375</ele>
        <time>2026-09-22T01:24:44Z</time>
      </trkpt>
      <trkpt lat="39.90875077084889" lon="116.16994649454828">
        <ele>67.59429931640625</ele>
        <time>2026-09-22T01:24:53Z</time>
      </trkpt>
      <trkpt lat="39.9087460996419" lon="116.17012299113317">
        <ele>65.8603515625</ele>
        <time>2026-09-22T01:24:59Z</time>
      </trkpt>
      <trkpt lat="39.908710401668976" lon="116.1702844492087">
        <ele>67.39794921875</ele>
        <time>2026-09-22T01:25:05Z</time>
      </trkpt>
      <trkpt lat="39.908665523022265" lon="116.17034863512984">
        <ele>68.4173583984375</ele>
        <time>2026-09-22T01:25:08Z</time>
      </trkpt>
      <trkpt lat="39.908367537697615" lon="116.17034967552223">
        <ele>70.5023193359375</ele>
        <time>2026-09-22T01:25:23Z</time>
      </trkpt>
      <trkpt lat="39.90807759682152" lon="116.17037478249101">
        <ele>72.34967041015625</ele>
        <time>2026-09-22T01:25:38Z</time>
      </trkpt>
      <trkpt lat="39.90777964510783" lon="116.17039387356867">
        <ele>74.5577392578125</ele>
        <time>2026-09-22T01:25:56Z</time>
      </trkpt>
      <trkpt lat="39.90777826252284" lon="116.1707258055529">
        <ele>76.17327880859375</ele>
        <time>2026-09-22T01:26:29Z</time>
      </trkpt>
      <trkpt lat="39.907797733271195" lon="116.17097951487695">
        <ele>77.903076171875</ele>
        <time>2026-09-22T01:26:41Z</time>
      </trkpt>
      <trkpt lat="39.90782196885382" lon="116.17110686896484">
        <ele>78.507568359375</ele>
        <time>2026-09-22T01:26:47Z</time>
      </trkpt>
      <trkpt lat="39.90788677343489" lon="116.17153023142924">
        <ele>73.5504150390625</ele>
        <time>2026-09-22T01:27:05Z</time>
      </trkpt>
      <trkpt lat="39.90792443664157" lon="116.1719000780179">
        <ele>68.5074462890625</ele>
        <time>2026-09-22T01:27:17Z</time>
      </trkpt>
      <trkpt lat="39.90792970735088" lon="116.1719856905828">
        <ele>68.03900146484375</ele>
        <time>2026-09-22T01:27:20Z</time>
      </trkpt>
      <trkpt lat="39.90789878164583" lon="116.1720856002869">
        <ele>63.1387939453125</ele>
        <time>2026-09-22T01:27:26Z</time>
      </trkpt>
      <trkpt lat="39.90788444726674" lon="116.17244460576313">
        <ele>65.4261474609375</ele>
        <time>2026-09-22T01:27:38Z</time>
      </trkpt>
      <trkpt lat="39.90790013317749" lon="116.17281564004061">
        <ele>66.94976806640625</ele>
        <time>2026-09-22T01:27:50Z</time>
      </trkpt>
      <trkpt lat="39.90787292761632" lon="116.17324484075392">
        <ele>57.7398681640625</ele>
        <time>2026-09-22T01:28:08Z</time>
      </trkpt>
      <trkpt lat="39.90787566235006" lon="116.17364294955993">
        <ele>59.0513916015625</ele>
        <time>2026-09-22T01:28:20Z</time>
      </trkpt>
      <trkpt lat="39.907906393058134" lon="116.17404005062475">
        <ele>58.398193359375</ele>
        <time>2026-09-22T01:28:35Z</time>
      </trkpt>
      <trkpt lat="39.9079431925833" lon="116.17447525525155">
        <ele>54.57611083984375</ele>
        <time>2026-09-22T01:28:50Z</time>
      </trkpt>
      <trkpt lat="39.90795093867554" lon="116.17488138105763">
        <ele>55.241943359375</ele>
        <time>2026-09-22T01:29:05Z</time>
      </trkpt>
      <trkpt lat="39.90790166031651" lon="116.1752734734934">
        <ele>58.550537109375</ele>
        <time>2026-09-22T01:29:17Z</time>
      </trkpt>
      <trkpt lat="39.90785944660507" lon="116.17570166318337">
        <ele>56.6195068359375</ele>
        <time>2026-09-22T01:29:32Z</time>
      </trkpt>
      <trkpt lat="39.907841235945696" lon="116.17613285612734">
        <ele>56.46856689453125</ele>
        <time>2026-09-22T01:29:47Z</time>
      </trkpt>
      <trkpt lat="39.90784299001931" lon="116.17654599471969">
        <ele>56.09710693359375</ele>
        <time>2026-09-22T01:30:02Z</time>
      </trkpt>
      <trkpt lat="39.90785067122538" lon="116.17692002302175">
        <ele>60.91436767578125</ele>
        <time>2026-09-22T01:30:14Z</time>
      </trkpt>
      <trkpt lat="39.90786438741172" lon="116.17731410390199">
        <ele>69.05029296875</ele>
        <time>2026-09-22T01:30:29Z</time>
      </trkpt>
      <trkpt lat="39.90786906986997" lon="116.17769013450915">
        <ele>68.627197265625</ele>
        <time>2026-09-22T01:30:47Z</time>
      </trkpt>
      <trkpt lat="39.907868765766416" lon="116.17807418584836">
        <ele>67.389892578125</ele>
        <time>2026-09-22T01:31:05Z</time>
      </trkpt>
      <trkpt lat="39.90786839686372" lon="116.1784231394182">
        <ele>66.418212890625</ele>
        <time>2026-09-22T01:31:20Z</time>
      </trkpt>
      <trkpt lat="39.9079064550063" lon="116.17845622496574">
        <ele>65.7255859375</ele>
        <time>2026-09-22T01:31:23Z</time>
      </trkpt>
      <trkpt lat="39.90795444569231" lon="116.17845220798067">
        <ele>65.9366455078125</ele>
        <time>2026-09-22T01:31:26Z</time>
      </trkpt>
      <trkpt lat="39.90803953802098" lon="116.17850534233223">
        <ele>63.60113525390625</ele>
        <time>2026-09-22T01:31:32Z</time>
      </trkpt>
      <trkpt lat="39.90835652618531" lon="116.17850630519834">
        <ele>68.09014892578125</ele>
        <time>2026-09-22T01:31:50Z</time>
      </trkpt>
      <trkpt lat="39.90856648817877" lon="116.17849023500322">
        <ele>68.4439697265625</ele>
        <time>2026-09-22T01:31:59Z</time>
      </trkpt>
      <trkpt lat="39.90884050900273" lon="116.17850824979553">
        <ele>67.9508056640625</ele>
        <time>2026-09-22T01:32:11Z</time>
      </trkpt>
      <trkpt lat="39.90894052643854" lon="116.17852027005212">
        <ele>69.7266845703125</ele>
        <time>2026-09-22T01:32:17Z</time>
      </trkpt>
      <trkpt lat="39.90899647514135" lon="116.17849318912855">
        <ele>69.76556396484375</ele>
        <time>2026-09-22T01:32:20Z</time>
      </trkpt>
      <trkpt lat="39.9092575363768" lon="116.17853326574895">
        <ele>70.5693359375</ele>
        <time>2026-09-22T01:32:32Z</time>
      </trkpt>
      <trkpt lat="39.90946347865727" lon="116.17850616596284">
        <ele>69.59912109375</ele>
        <time>2026-09-22T01:32:44Z</time>
      </trkpt>
      <trkpt lat="39.91215368045302" lon="116.18035184126947">
        <ele>68.1416015625</ele>
        <time>2026-09-22T01:49:55Z</time>
      </trkpt>
      <trkpt lat="39.91229765642853" lon="116.18034179607122">
        <ele>67.88427734375</ele>
        <time>2026-09-22T01:50:04Z</time>
      </trkpt>
      <trkpt lat="39.912590731783155" lon="116.18039089197893">
        <ele>68.1611328125</ele>
        <time>2026-09-22T01:50:19Z</time>
      </trkpt>
      <trkpt lat="39.91284470490613" lon="116.18038183566539">
        <ele>68.04400634765625</ele>
        <time>2026-09-22T01:50:34Z</time>
      </trkpt>
      <trkpt lat="39.91302876875679" lon="116.18042192087368">
        <ele>67.91021728515625</ele>
        <time>2026-09-22T01:50:43Z</time>
      </trkpt>
      <trkpt lat="39.913054238263555" lon="116.18068562945274">
        <ele>68.95501708984375</ele>
        <time>2026-09-22T01:50:52Z</time>
      </trkpt>
      <trkpt lat="39.913136472460586" lon="116.180818978646">
        <ele>69.4757080078125</ele>
        <time>2026-09-22T01:51:01Z</time>
      </trkpt>
      <trkpt lat="39.91331551133008" lon="116.18084502638908">
        <ele>69.129638671875</ele>
        <time>2026-09-22T01:51:10Z</time>
      </trkpt>
      <trkpt lat="39.913619485987034" lon="116.18083796926103">
        <ele>69.49346923828125</ele>
        <time>2026-09-22T01:51:28Z</time>
      </trkpt>
      <trkpt lat="39.91375848011985" lon="116.18083795178671">
        <ele>69.8487548828125</ele>
        <time>2026-09-22T01:51:37Z</time>
      </trkpt>
      <trkpt lat="39.91380747805223" lon="116.18083794562668">
        <ele>70.277099609375</ele>
        <time>2026-09-22T01:51:40Z</time>
      </trkpt>
      <trkpt lat="39.913857624138444" lon="116.18092116352479">
        <ele>68.70489501953125</ele>
        <time>2026-09-22T01:51:46Z</time>
      </trkpt>
      <trkpt lat="39.91391533301951" lon="116.181321232499">
        <ele>66.591552734375</ele>
        <time>2026-09-22T01:52:07Z</time>
      </trkpt>
      <trkpt lat="39.91390501623806" lon="116.18170626707789">
        <ele>66.57940673828125</ele>
        <time>2026-09-22T01:52:25Z</time>
      </trkpt>
      <trkpt lat="39.91390169382102" lon="116.18208929292103">
        <ele>66.74041748046875</ele>
        <time>2026-09-22T01:52:43Z</time>
      </trkpt>
      <trkpt lat="39.91392140040217" lon="116.18249036148553">
        <ele>67.9188232421875</ele>
        <time>2026-09-22T01:53:04Z</time>
      </trkpt>
      <trkpt lat="39.91392298946165" lon="116.18282525344333">
        <ele>68.08026123046875</ele>
        <time>2026-09-22T01:53:22Z</time>
      </trkpt>
      <trkpt lat="39.91391119070765" lon="116.18293955897738">
        <ele>67.308837890625</ele>
        <time>2026-09-22T01:53:28Z</time>
      </trkpt>
      <trkpt lat="39.91392295114365" lon="116.18337371020961">
        <ele>63.091064453125</ele>
        <time>2026-09-22T01:53:58Z</time>
      </trkpt>
      <trkpt lat="39.913935712521834" lon="116.1838098631504">
        <ele>59.62176513671875</ele>
        <time>2026-09-22T01:54:28Z</time>
      </trkpt>
      <trkpt lat="39.91390740506758" lon="116.18420691463184">
        <ele>66.83404541015625</ele>
        <time>2026-09-22T01:54:52Z</time>
      </trkpt>
      <trkpt lat="39.91388906545848" lon="116.18458691704552">
        <ele>66.3780517578125</ele>
        <time>2026-09-22T01:55:16Z</time>
      </trkpt>
      <trkpt lat="39.91388737461867" lon="116.18476538599724">
        <ele>67.52886962890625</ele>
        <time>2026-09-22T01:55:25Z</time>
      </trkpt>
      <trkpt lat="39.91390967364748" lon="116.18493883816919">
        <ele>66.98162841796875</ele>
        <time>2026-09-22T01:55:34Z</time>
      </trkpt>
      <trkpt lat="39.91389777462022" lon="116.18499699206393">
        <ele>67.20697021484375</ele>
        <time>2026-09-22T01:55:37Z</time>
      </trkpt>
      <trkpt lat="39.91392156008235" lon="116.18545318228627">
        <ele>63.151611328125</ele>
        <time>2026-09-22T01:56:01Z</time>
      </trkpt>
      <trkpt lat="39.91392693902365" lon="116.18567375703662">
        <ele>60.88128662109375</ele>
        <time>2026-09-22T01:56:10Z</time>
      </trkpt>
      <trkpt lat="39.91390336313499" lon="116.18592040224438">
        <ele>59.3624267578125</ele>
        <time>2026-09-22T01:56:19Z</time>
      </trkpt>
      <trkpt lat="39.913854456237615" lon="116.18597354658942">
        <ele>58.72918701171875</ele>
        <time>2026-09-22T01:56:22Z</time>
      </trkpt>
      <trkpt lat="39.91360943394898" lon="116.18595452780806">
        <ele>54.80133056640625</ele>
        <time>2026-09-22T01:56:34Z</time>
      </trkpt>
      <trkpt lat="39.91347245691025" lon="116.18596457107628">
        <ele>58.73870849609375</ele>
        <time>2026-09-22T01:56:40Z</time>
      </trkpt>
      <trkpt lat="39.913432388174876" lon="116.1859234691902">
        <ele>59.2178955078125</ele>
        <time>2026-09-22T01:56:43Z</time>
      </trkpt>
      <trkpt lat="39.91341985709547" lon="116.1856136638605">
        <ele>61.54437255859375</ele>
        <time>2026-09-22T01:56:55Z</time>
      </trkpt>
      <trkpt lat="39.9133847448455" lon="116.18554749566499">
        <ele>61.96099853515625</ele>
        <time>2026-09-22T01:56:58Z</time>
      </trkpt>
      <trkpt lat="39.913181667225714" lon="116.18549739034032">
        <ele>64.65509033203125</ele>
        <time>2026-09-22T01:57:07Z</time>
      </trkpt>
      <trkpt lat="39.912905739248494" lon="116.18553251655933">
        <ele>65.1885986328125</ele>
        <time>2026-09-22T01:57:19Z</time>
      </trkpt>
      <trkpt lat="39.91277875669249" lon="116.18553955081333">
        <ele>66.14471435546875</ele>
        <time>2026-09-22T01:57:25Z</time>
      </trkpt>
      <trkpt lat="39.91257568425823" lon="116.18549245333132">
        <ele>66.97296142578125</ele>
        <time>2026-09-22T01:57:34Z</time>
      </trkpt>
      <trkpt lat="39.912504695889744" lon="116.18549747532776">
        <ele>66.289306640625</ele>
        <time>2026-09-22T01:57:40Z</time>
      </trkpt>
    </trkseg>
  </trk>
</gpx>