<?xml version="1.0" encoding="UTF-8"?>
<gpx xmlns="http://www.topografix.com/GPX/1/1" xmlns:gpxtpx="http://www.garmin.com/xmlschemas/TrackPointExtension/v1" xmlns:xsi="http://www.w3.org/2001/XMLSchema-instance" xsi:schemaLocation="http://www.topografix.com/GPX/1/1 http://www.topografix.com/GPX/1/1/gpx.xsd" version="1.1" creator="gpx.py -- https://github.com/tkrajina/gpxpy">
  <trk>
    <name>gpx from keep</name>
    <type>Run</type>
    <trkseg>
      <trkpt lat="39.91341517746368" lon="116.18580015039333">
        <ele>67.17474365234375</ele>
        <time>2026-08-19T11:53:22Z</time>
      </trkpt>
      <trkpt lat="39.91343844975969" lon="116.18595956230845">
        <ele>65.745849609375</ele>
        <time>2026-08-19T11:53:34Z</time>
      </trkpt>
      <trkpt lat="39.91348255435372" lon="116.18602171838955">
        <ele>65.6693115234375</ele>
        <time>2026-08-19T11:53:40Z</time>
      </trkpt>
      <trkpt lat="39.913641571667895" lon="116.18603573491205">
        <ele>66.6380615234375</ele>
        <time>2026-08-19T11:53:49Z</time>
      </trkpt>
      <trkpt lat="39.9137235235771" lon="116.18600965686713">
        <ele>66.63751220703125</ele>
        <time>2026-08-19T11:53:55Z</time>
      </trkpt>
      <trkpt lat="39.91382955858331" lon="116.18603270349733">
        <ele>67.2716064453125</ele>
        <time>2026-08-19T11:54:01Z</time>
      </trkpt>
      <trkpt lat="39.913877542826775" lon="116.18602467662643">
        <ele>66.5482177734375</ele>
        <time>2026-08-19T11:54:04Z</time>
      </trkpt>
      <trkpt lat="39.91397831529696" lon="116.18589432501498">
        <ele>65.47021484375</ele>
        <time>2026-08-19T11:54:16Z</time>
      </trkpt>
      <trkpt lat="39.91414520512155" lon="116.18583414750177">
        <ele>66.8680419921875</ele>
        <time>2026-08-19T11:54:22Z</time>
      </trkpt>
      <trkpt lat="39.91416700464724" lon="116.18571784186467">
        <ele>67.30859375</ele>
        <time>2026-08-19T11:54:25Z</time>
      </trkpt>
      <trkpt lat="39.91409069953183" lon="116.18553838349277">
        <ele>65.62860107421875</ele>
        <time>2026-08-19T11:54:34Z</time>
      </trkpt>
      <trkpt lat="39.91409424376305" lon="116.18527369168817">
        <ele>66.5460205078125</ele>
        <time>2026-08-19T11:54:46Z</time>
      </trkpt>
      <trkpt lat="39.91407645165062" lon="116.18481449117962">
        <ele>65.01690673828125</ele>
        <time>2026-08-19T11:55:07Z</time>
      </trkpt>
      <trkpt lat="39.914067814498246" lon="116.1844465254888">
        <ele>61.22430419921875</ele>
        <time>2026-08-19T11:55:22Z</time>
      </trkpt>
      <trkpt lat="39.914068539415794" lon="116.1842881083729">
        <ele>61.6856689453125</ele>
        <time>2026-08-19T11:55:28Z</time>
      </trkpt>
      <trkpt lat="39.91408741142052" lon="116.18421491316333">
        <ele>61.43865966796875</ele>
        <time>2026-08-19T11:55:31Z</time>
      </trkpt>
      <trkpt lat="39.91405969680152" lon="116.18380383167617">
        <ele>60.5648193359375</ele>
        <time>2026-08-19T11:55:49Z</time>
      </trkpt>
      <trkpt lat="39.914067038035334" lon="116.18342683296609">
        <ele>63.81396484375</ele>
        <time>2026-08-19T11:56:04Z</time>
      </trkpt>
      <trkpt lat="39.914104511484204" lon="116.18312703293132">
        <ele>61.61480712890625</ele>
        <time>2026-08-19T11:56:16Z</time>
      </trkpt>
      <trkpt lat="39.914075753889854" lon="116.18269488723774">
        <ele>62.09375</ele>
        <time>2026-08-19T11:56:34Z</time>
      </trkpt>
      <trkpt lat="39.914119109343034" lon="116.18232990855961">
        <ele>63.65264892578125</ele>
        <time>2026-08-19T11:56:49Z</time>
      </trkpt>
      <trkpt lat="39.91415369559238" lon="116.18209628001814">
        <ele>66.4466552734375</ele>
        <time>2026-08-19T11:56:58Z</time>
      </trkpt>
      <trkpt lat="39.91411200750982" lon="116.18170624106145">
        <ele>67.06317138671875</ele>
        <time>2026-08-19T11:57:13Z</time>
      </trkpt>
      <trkpt lat="39.91408136696394" lon="116.18134427358669">
        <ele>67.78564453125</ele>
        <time>2026-08-19T11:57:28Z</time>
      </trkpt>
      <trkpt lat="39.91405968165718" lon="116.18095823803262">
        <ele>65.58099365234375</ele>
        <time>2026-08-19T11:57:43Z</time>
      </trkpt>
      <trkpt lat="39.91405154811839" lon="116.18088303651162">
        <ele>64.156005859375</ele>
        <time>2026-08-19T11:57:46Z</time>
      </trkpt>
      <trkpt lat="39.91401247654949" lon="116.18084193066156">
        <ele>63.14166259765625</ele>
        <time>2026-08-19T11:57:49Z</time>
      </trkpt>
      <trkpt lat="39.91389442615657" lon="116.1808108617382">
        <ele>63.62603759765625</ele>
        <time>2026-08-19T11:57:55Z</time>
      </trkpt>
      <trkpt lat="39.91359749941742" lon="116.18084499093803">
        <ele>59.50616455078125</ele>
        <time>2026-08-19T11:58:10Z</time>
      </trkpt>
      <trkpt lat="39.91333749075481" lon="116.18083399390542">
        <ele>62.53131103515625</ele>
        <time>2026-08-19T11:58:25Z</time>
      </trkpt>
      <trkpt lat="39.91330842410343" lon="116.18079589487401">
        <ele>64.295166015625</ele>
        <time>2026-08-19T11:58:49Z</time>
      </trkpt>
      <trkpt lat="39.91329913492707" lon="116.18063345801762">
        <ele>63.82110595703125</ele>
        <time>2026-08-19T11:59:31Z</time>
      </trkpt>
      <trkpt lat="39.91328163447276" lon="116.18035270215805">
        <ele>62.9332275390625</ele>
        <time>2026-08-19T11:59:43Z</time>
      </trkpt>
      <trkpt lat="39.91329088603688" lon="116.17993456976272">
        <ele>64.0350341796875</ele>
        <time>2026-08-19T11:59:58Z</time>
      </trkpt>
      <trkpt lat="39.91329923116357" lon="116.1795695790926">
        <ele>61.39239501953125</ele>
        <time>2026-08-19T12:00:13Z</time>
      </trkpt>
      <trkpt lat="39.913298840312784" lon="116.1793519882351">
        <ele>62.79425048828125</ele>
        <time>2026-08-19T12:00:22Z</time>
      </trkpt>
      <trkpt lat="39.91330918493023" lon="116.17898799692023">
        <ele>60.6793212890625</ele>
        <time>2026-08-19T12:00:37Z</time>
      </trkpt>
      <trkpt lat="39.91331562970063" lon="116.17868015735151">
        <ele>64.49908447265625</ele>
        <time>2026-08-19T12:00:49Z</time>
      </trkpt>
      <trkpt lat="39.91332950244454" lon="116.17860996417264">
        <ele>65.21240234375</ele>
        <time>2026-08-19T12:00:52Z</time>
      </trkpt>
      <trkpt lat="39.9133188035373" lon="116.17822290868054">
        <ele>65.57830810546875</ele>
        <time>2026-08-19T12:01:07Z</time>
      </trkpt>
      <trkpt lat="39.91334642309998" lon="116.17801333213234">
        <ele>62.88995361328125</ele>
        <time>2026-08-19T12:01:16Z</time>
      </trkpt>
      <trkpt lat="39.91333464562667" lon="116.17758415823636">
        <ele>62.83978271484375</ele>
        <time>2026-08-19T12:01:31Z</time>
      </trkpt>
      <trkpt lat="39.91331635331463" lon="116.17742271778069">
        <ele>62.92071533203125</ele>
        <time>2026-08-19T12:01:37Z</time>
      </trkpt>
      <trkpt lat="39.913327698471804" lon="116.17706272789826">
        <ele>60.06146240234375</ele>
        <time>2026-08-19T12:01:52Z</time>
      </trkpt>
      <trkpt lat="39.91333301716984" lon="116.17668869853011">
        <ele>60.2652587890625</ele>
        <time>2026-08-19T12:02:07Z</time>
      </trkpt>
      <trkpt lat="39.913330318550756" lon="116.17630564361012">
        <ele>60.37255859375</ele>
        <time>2026-08-19T12:02:22Z</time>
      </trkpt>
      <trkpt lat="39.913329190427504" lon="116.17623545019335">
        <ele>60.5382080078125</ele>
        <time>2026-08-19T12:02:25Z</time>
      </trkpt>
      <trkpt lat="39.913365119314136" lon="116.17619734057138">
        <ele>62.57720947265625</ele>
        <time>2026-08-19T12:02:31Z</time>
      </trkpt>
      <trkpt lat="39.91335323336038" lon="116.17625951353592">
        <ele>67.64752197265625</ele>
        <time>2026-08-19T12:02:46Z</time>
      </trkpt>
      <trkpt lat="39.91340122217724" lon="116.17625449366797">
        <ele>66.24005126953125</ele>
        <time>2026-08-19T12:02:55Z</time>
      </trkpt>
      <trkpt lat="39.91339191232567" lon="116.17663253652748">
        <ele>69.40606689453125</ele>
        <time>2026-08-19T12:03:16Z</time>
      </trkpt>
      <trkpt lat="39.913381637809664" lon="116.17703063292338">
        <ele>70.15411376953125</ele>
        <time>2026-08-19T12:03:34Z</time>
      </trkpt>
      <trkpt lat="39.91338030325982" lon="116.17739663820016">
        <ele>68.0904541015625</ele>
        <time>2026-08-19T12:03:49Z</time>
      </trkpt>
      <trkpt lat="39.91339145211066" lon="116.1774788623702">
        <ele>68.3638916015625</ele>
        <time>2026-08-19T12:03:52Z</time>
      </trkpt>
      <trkpt lat="39.913443586429665" lon="116.17755406205066">
        <ele>68.5943603515625</ele>
        <time>2026-08-19T12:03:55Z</time>
      </trkpt>
      <trkpt lat="39.913559654318135" lon="116.17759415741006">
        <ele>66.28570556640625</ele>
        <time>2026-08-19T12:04:01Z</time>
      </trkpt>
      <trkpt lat="39.91382962290789" lon="116.17758309319736">
        <ele>67.27874755859375</ele>
        <time>2026-08-19T12:04:13Z</time>
      </trkpt>
      <trkpt lat="39.91410662032605" lon="116.17758807208337">
        <ele>65.5997314453125</ele>
        <time>2026-08-19T12:04:28Z</time>
      </trkpt>
      <trkpt lat="39.914157578144376" lon="116.17756600518956">
        <ele>68.3948974609375</ele>
        <time>2026-08-19T12:04:31Z</time>
      </trkpt>
      <trkpt lat="39.91419243288035" lon="116.17748678357006">
        <ele>69.29327392578125</ele>
        <time>2026-08-19T12:04:34Z</time>
      </trkpt>
      <trkpt lat="39.91422270266531" lon="116.17708567862472">
        <ele>66.72332763671875</ele>
        <time>2026-08-19T12:04:49Z</time>
      </trkpt>
      <trkpt lat="39.91424798404895" lon="116.17669159163468">
        <ele>64.87005615234375</ele>
        <time>2026-08-19T12:05:04Z</time>
      </trkpt>
      <trkpt lat="39.91425142612054" lon="116.17638574879011">
        <ele>65.63543701171875</ele>
        <time>2026-08-19T12:05:16Z</time>
      </trkpt>
      <trkpt lat="39.91427574741249" lon="116.17601472231908">
        <ele>62.47882080078125</ele>
        <time>2026-08-19T12:05:31Z</time>
      </trkpt>
      <trkpt lat="39.914270456077126" lon="116.17585528271341">
        <ele>62.3599853515625</ele>
        <time>2026-08-19T12:05:37Z</time>
      </trkpt>
      <trkpt lat="39.9142892259346" lon="116.17572993402436">
        <ele>60.3936767578125</ele>
        <time>2026-08-19T12:05:43Z</time>
      </trkpt>
      <trkpt lat="39.914275523029275" lon="116.17534587353427">
        <ele>59.68719482421875</ele>
        <time>2026-08-19T12:05:58Z</time>
      </trkpt>
      <trkpt lat="39.91429511761698" lon="116.1751252602002">
        <ele>60.1363525390625</ele>
        <time>2026-08-19T12:06:07Z</time>
      </trkpt>
      <trkpt lat="39.914297854330265" lon="116.17498186251846">
        <ele>60.9669189453125</ele>
        <time>2026-08-19T12:06:13Z</time>
      </trkpt>
      <trkpt lat="39.914279735421275" lon="116.17491668412244">
        <ele>63.77081298828125</ele>
        <time>2026-08-19T12:06:16Z</time>
      </trkpt>
      <trkpt lat="39.914103215945374" lon="116.17462991085934">
        <ele>63.244873046875</ele>
        <time>2026-08-19T12:06:28Z</time>
      </trkpt>
      <trkpt lat="39.91379619202264" lon="116.17460989387263">
        <ele>67.32080078125</ele>
        <time>2026-08-19T12:06:43Z</time>
      </trkpt>
      <trkpt lat="39.91354121753167" lon="116.17461794825367">
        <ele>69.53204345703125</ele>
        <time>2026-08-19T12:06:55Z</time>
      </trkpt>
      <trkpt lat="39.91348430103965" lon="116.17466207786508">
        <ele>69.78985595703125</ele>
        <time>2026-08-19T12:06:58Z</time>
      </trkpt>
      <trkpt lat="39.913422532143265" lon="116.17478643060439">
        <ele>68.57159423828125</ele>
        <time>2026-08-19T12:07:04Z</time>
      </trkpt>
      <trkpt lat="39.913430001374316" lon="116.17504213856077">
        <ele>69.2139892578125</ele>
        <time>2026-08-19T12:07:13Z</time>
      </trkpt>
      <trkpt lat="39.91340868273792" lon="116.17541316862918">
        <ele>70.1815185546875</ele>
        <time>2026-08-19T12:07:28Z</time>
      </trkpt>
      <trkpt lat="39.91341125746236" lon="116.17572703626223">
        <ele>69.27874755859375</ele>
        <time>2026-08-19T12:07:40Z</time>
      </trkpt>
      <trkpt lat="39.91345236766628" lon="116.17578820011462">
        <ele>69.15985107421875</ele>
        <time>2026-08-19T12:07:43Z</time>
      </trkpt>
      <trkpt lat="39.91350642776355" lon="116.17582228750254">
        <ele>67.53411865234375</ele>
        <time>2026-08-19T12:07:46Z</time>
      </trkpt>
      <trkpt lat="39.91352956435845" lon="116.17589749232616">
        <ele>66.77313232421875</ele>
        <time>2026-08-19T12:07:49Z</time>
      </trkpt>
      <trkpt lat="39.91353984076785" lon="116.17604890908271">
        <ele>66.47393798828125</ele>
        <time>2026-08-19T12:07:55Z</time>
      </trkpt>
      <trkpt lat="39.91353098773993" lon="116.17612913157551">
        <ele>66.0474853515625</ele>
        <time>2026-08-19T12:07:58Z</time>
      </trkpt>
      <trkpt lat="39.913436171257004" lon="116.17622741460029">
        <ele>65.427734375</ele>
        <time>2026-08-19T12:08:04Z</time>
      </trkpt>
      <trkpt lat="39.91340340698875" lon="116.17635577263017">
        <ele>65.11346435546875</ele>
        <time>2026-08-19T12:08:10Z</time>
      </trkpt>
      <trkpt lat="39.91339809665092" lon="116.17673381453399">
        <ele>65.25482177734375</ele>
        <time>2026-08-19T12:08:25Z</time>
      </trkpt>
      <trkpt lat="39.9133977775966" lon="116.17710784306779">
        <ele>63.3441162109375</ele>
        <time>2026-08-19T12:08:40Z</time>
      </trkpt>
      <trkpt lat="39.91339836077608" lon="116.1774287239664">
        <ele>64.92352294921875</ele>
        <time>2026-08-19T12:08:52Z</time>
      </trkpt>
      <trkpt lat="39.91341446206213" lon="116.17748487597642">
        <ele>64.038818359375</ele>
        <time>2026-08-19T12:08:55Z</time>
      </trkpt>
      <trkpt lat="39.913415638565176" lon="116.17758214254592">
        <ele>65.5921630859375</ele>
        <time>2026-08-19T12:08:58Z</time>
      </trkpt>
      <trkpt lat="39.913466694633776" lon="116.17761422408353">
        <ele>64.92919921875</ele>
        <time>2026-08-19T12:09:01Z</time>
      </trkpt>
      <trkpt lat="39.91364072003293" lon="116.17763225165699">
        <ele>65.517333984375</ele>
        <time>2026-08-19T12:09:10Z</time>
      </trkpt>
      <trkpt lat="39.91395463219242" lon="116.1775910994574">
        <ele>67.008544921875</ele>
        <time>2026-08-19T12:09:25Z</time>
      </trkpt>
      <trkpt lat="39.914081595905046" lon="116.17757403674551">
        <ele>67.46881103515625</ele>
        <time>2026-08-19T12:09:31Z</time>
      </trkpt>
      <trkpt lat="39.91418742762955" lon="116.17748377594903">
        <ele>66.67999267578125</ele>
        <time>2026-08-19T12:09:37Z</time>
      </trkpt>
      <trkpt lat="39.91423369672973" lon="116.1770826689748">
        <ele>65.9881591796875</ele>
        <time>2026-08-19T12:09:52Z</time>
      </trkpt>
      <trkpt lat="39.91427395919635" lon="116.17667855248152">
        <ele>63.413818359375</ele>
        <time>2026-08-19T12:10:07Z</time>
      </trkpt>
      <trkpt lat="39.91427920528305" lon="116.17626541355052">
        <ele>62.1361083984375</ele>
        <time>2026-08-19T12:10:22Z</time>
      </trkpt>
      <trkpt lat="39.91427789210968" lon="116.17609394069352">
        <ele>61.9332275390625</ele>
        <time>2026-08-19T12:10:28Z</time>
      </trkpt>
      <trkpt lat="39.91425319258022" lon="116.17571088590493">
        <ele>61.81134033203125</ele>
        <time>2026-08-19T12:10:43Z</time>
      </trkpt>
      <trkpt lat="39.91426549955402" lon="116.1753328387143">
        <ele>63.0322265625</ele>
        <time>2026-08-19T12:10:58Z</time>
      </trkpt>
      <trkpt lat="39.9142497992837" lon="116.1749507824069">
        <ele>65.47821044921875</ele>
        <time>2026-08-19T12:11:16Z</time>
      </trkpt>
      <trkpt lat="39.91420962419771" lon="116.17485452057349">
        <ele>65.87786865234375</ele>
        <time>2026-08-19T12:11:22Z</time>
      </trkpt>
      <trkpt lat="39.91417156133459" lon="116.17481942803923">
        <ele>66.13018798828125</ele>
        <time>2026-08-19T12:11:25Z</time>
      </trkpt>
      <trkpt lat="39.91412925724324" lon="116.17465297158327">
        <ele>66.72564697265625</ele>
        <time>2026-08-19T12:11:34Z</time>
      </trkpt>
      <trkpt lat="39.914091194331284" lon="116.17461787897804">
        <ele>66.73712158203125</ele>
        <time>2026-08-19T12:11:37Z</time>
      </trkpt>
      <trkpt lat="39.91379419948061" lon="116.1746139052559">
        <ele>67.7305908203125</ele>
        <time>2026-08-19T12:11:58Z</time>
      </trkpt>
      <trkpt lat="39.91355121710945" lon="116.17461794699412">
        <ele>67.8775634765625</ele>
        <time>2026-08-19T12:12:16Z</time>
      </trkpt>
      <trkpt lat="39.91345243691548" lon="116.17473528497828">
        <ele>67.96197509765625</ele>
        <time>2026-08-19T12:12:25Z</time>
      </trkpt>
      <trkpt lat="39.913415843667416" lon="116.1749559013399">
        <ele>68.03302001953125</ele>
        <time>2026-08-19T12:12:37Z</time>
      </trkpt>
      <trkpt lat="39.91341552621587" lon="116.17532793187597">
        <ele>67.954345703125</ele>
        <time>2026-08-19T12:12:55Z</time>
      </trkpt>
      <trkpt lat="39.91342425691321" lon="116.17572703462541">
        <ele>67.484375</ele>
        <time>2026-08-19T12:13:16Z</time>
      </trkpt>
      <trkpt lat="39.91349434754433" lon="116.17577816712199">
        <ele>66.59869384765625</ele>
        <time>2026-08-19T12:13:22Z</time>
      </trkpt>
      <trkpt lat="39.913524505880105" lon="116.17586540433646">
        <ele>66.01397705078125</ele>
        <time>2026-08-19T12:13:28Z</time>
      </trkpt>
      <trkpt lat="39.91353987009037" lon="116.17606495336054">
        <ele>65.40380859375</ele>
        <time>2026-08-19T12:13:40Z</time>
      </trkpt>
      <trkpt lat="39.91351305261786" lon="116.1761642306633">
        <ele>65.95440673828125</ele>
        <time>2026-08-19T12:13:46Z</time>
      </trkpt>
      <trkpt lat="39.91344416359388" lon="116.17622340253146">
        <ele>66.69635009765625</ele>
        <time>2026-08-19T12:13:52Z</time>
      </trkpt>
      <trkpt lat="39.91342626323354" lon="116.17627755411462">
        <ele>67.3076171875</ele>
        <time>2026-08-19T12:13:55Z</time>
      </trkpt>
      <trkpt lat="39.91341296261752" lon="116.17666061117693">
        <ele>68.6767578125</ele>
        <time>2026-08-19T12:14:16Z</time>
      </trkpt>
      <trkpt lat="39.91338068893534" lon="116.17705871020617">
        <ele>69.880126953125</ele>
        <time>2026-08-19T12:14:37Z</time>
      </trkpt>
      <trkpt lat="39.913387414046085" lon="116.17745780511785">
        <ele>70.0770263671875</ele>
        <time>2026-08-19T12:14:58Z</time>
      </trkpt>
      <trkpt lat="39.91340652793206" lon="116.17752097597702">
        <ele>70.487060546875</ele>
        <time>2026-08-19T12:15:01Z</time>
      </trkpt>
      <trkpt lat="39.913502642168815" lon="116.17758614259313">
        <ele>69.4434814453125</ele>
        <time>2026-08-19T12:15:07Z</time>
      </trkpt>
      <trkpt lat="39.91382563945268" lon="116.17759211843949">
        <ele>69.8677978515625</ele>
        <time>2026-08-19T12:15:25Z</time>
      </trkpt>
      <trkpt lat="39.91408560665439" lon="116.17758005273555">
        <ele>68.677001953125</ele>
        <time>2026-08-19T12:15:40Z</time>
      </trkpt>
      <trkpt lat="39.9141355572337" lon="116.17755397496862">
        <ele>68.0919189453125</ele>
        <time>2026-08-19T12:15:43Z</time>
      </trkpt>
      <trkpt lat="39.91417745353706" lon="116.1774978157077">
        <ele>67.8946533203125</ele>
        <time>2026-08-19T12:15:46Z</time>
      </trkpt>
      <trkpt lat="39.914192347307925" lon="116.1774396543028">
        <ele>67.6285400390625</ele>
        <time>2026-08-19T12:15:49Z</time>
      </trkpt>
      <trkpt lat="39.91424446891764" lon="116.17750783477466">
        <ele>69.11102294921875</ele>
        <time>2026-08-19T12:16:25Z</time>
      </trkpt>
      <trkpt lat="39.91452549530993" lon="116.177528857155">
        <ele>74.0167236328125</ele>
        <time>2026-08-19T12:16:43Z</time>
      </trkpt>
      <trkpt lat="39.9147434788581" lon="116.17752481872213">
        <ele>75.15252685546875</ele>
        <time>2026-08-19T12:16:55Z</time>
      </trkpt>
      <trkpt lat="39.91479843103917" lon="116.17749974305647">
        <ele>75.41796875</ele>
        <time>2026-08-19T12:16:58Z</time>
      </trkpt>
      <trkpt lat="39.914829325960625" lon="116.1774425823887">
        <ele>72.8525390625</ele>
        <time>2026-08-19T12:17:01Z</time>
      </trkpt>
      <trkpt lat="39.914844891665254" lon="116.17720392535864">
        <ele>74.9468994140625</ele>
        <time>2026-08-19T12:17:10Z</time>
      </trkpt>
      <trkpt lat="39.91485135502713" lon="116.1769091143578">
        <ele>77.27484130859375</ele>
        <time>2026-08-19T12:17:22Z</time>
      </trkpt>
      <trkpt lat="39.9148281953096" lon="116.1768208745605">
        <ele>73.234619140625</ele>
        <time>2026-08-19T12:17:28Z</time>
      </trkpt>
      <trkpt lat="39.91491846758959" lon="116.17642376982958">
        <ele>72.29986572265625</ele>
        <time>2026-08-19T12:17:43Z</time>
      </trkpt>
      <trkpt lat="39.915025976066914" lon="116.1761570208164">
        <ele>69.80535888671875</ele>
        <time>2026-08-19T12:17:55Z</time>
      </trkpt>
      <trkpt lat="39.91504537578375" lon="116.17582911311557">
        <ele>70.6097412109375</ele>
        <time>2026-08-19T12:18:07Z</time>
      </trkpt>
      <trkpt lat="39.91500668340459" lon="116.17545007004982">
        <ele>68.8189697265625</ele>
        <time>2026-08-19T12:18:22Z</time>
      </trkpt>
      <trkpt lat="39.91493097862137" lon="116.17506401064759">
        <ele>67.865478515625</ele>
        <time>2026-08-19T12:18:37Z</time>
      </trkpt>
      <trkpt lat="39.9148734691623" lon="116.17478524506849">
        <ele>66.78118896484375</ele>
        <time>2026-08-19T12:18:49Z</time>
      </trkpt>
      <trkpt lat="39.914884347099964" lon="116.17471906010597">
        <ele>66.0604248046875</ele>
        <time>2026-08-19T12:18:55Z</time>
      </trkpt>
      <trkpt lat="39.91494137602853" lon="116.17473610021564">
        <ele>66.37725830078125</ele>
        <time>2026-08-19T12:18:58Z</time>
      </trkpt>
      <trkpt lat="39.91498344611724" lon="116.17477520340151">
        <ele>66.28485107421875</ele>
        <time>2026-08-19T12:19:01Z</time>
      </trkpt>
      <trkpt lat="39.91509747817199" lon="116.17479524466536">
        <ele>64.7147216796875</ele>
        <time>2026-08-19T12:19:10Z</time>
      </trkpt>
      <trkpt lat="39.915133563231926" lon="116.17484237082863">
        <ele>65.3958740234375</ele>
        <time>2026-08-19T12:19:13Z</time>
      </trkpt>
      <trkpt lat="39.91514130091797" lon="116.17524448411781">
        <ele>65.0316162109375</ele>
        <time>2026-08-19T12:19:28Z</time>
      </trkpt>
      <trkpt lat="39.91512979948693" lon="116.17551623763197">
        <ele>66.49639892578125</ele>
        <time>2026-08-19T12:19:40Z</time>
      </trkpt>
      <trkpt lat="39.915223058174426" lon="116.17565962241272">
        <ele>66.132568359375</ele>
        <time>2026-08-19T12:19:49Z</time>
      </trkpt>
      <trkpt lat="39.91518970897457" lon="116.17601460724087">
        <ele>62.89178466796875</ele>
        <time>2026-08-19T12:20:04Z</time>
      </trkpt>
      <trkpt lat="39.91516140797637" lon="116.17639666462792">
        <ele>62.1036376953125</ele>
        <time>2026-08-19T12:20:19Z</time>
      </trkpt>
      <trkpt lat="39.91520311197318" lon="116.17678372528698">
        <ele>64.2259521484375</ele>
        <time>2026-08-19T12:20:34Z</time>
      </trkpt>
      <trkpt lat="39.91525177611109" lon="116.17714972541533">
        <ele>68.3067626953125</ele>
        <time>2026-08-19T12:20:49Z</time>
      </trkpt>
      <trkpt lat="39.91526250073076" lon="116.17754881939364">
        <ele>67.701416015625</ele>
        <time>2026-08-19T12:21:04Z</time>
      </trkpt>
      <trkpt lat="39.91526515703427" lon="116.17791081079342">
        <ele>65.895751953125</ele>
        <time>2026-08-19T12:21:19Z</time>
      </trkpt>
      <trkpt lat="39.91524361906112" lon="116.17816551025548">
        <ele>66.6820068359375</ele>
        <time>2026-08-19T12:21:28Z</time>
      </trkpt>
      <trkpt lat="39.91529235641584" lon="116.17857462148375">
        <ele>67.19537353515625</ele>
        <time>2026-08-19T12:21:43Z</time>
      </trkpt>
      <trkpt lat="39.91531106087243" lon="116.17896568503271">
        <ele>65.85882568359375</ele>
        <time>2026-08-19T12:21:58Z</time>
      </trkpt>
      <trkpt lat="39.915301388059554" lon="116.17914718020256">
        <ele>66.06964111328125</ele>
        <time>2026-08-19T12:22:07Z</time>
      </trkpt>
      <trkpt lat="39.915317086759075" lon="116.17953623548458">
        <ele>65.09112548828125</ele>
        <time>2026-08-19T12:22:25Z</time>
      </trkpt>
      <trkpt lat="39.91534634288391" lon="116.17967962090358">
        <ele>64.96795654296875</ele>
        <time>2026-08-19T12:22:31Z</time>
      </trkpt>
      <trkpt lat="39.915367990677176" lon="116.1800415990826">
        <ele>64.9884033203125</ele>
        <time>2026-08-19T12:22:46Z</time>
      </trkpt>
      <trkpt lat="39.915334444073" lon="116.18029428684919">
        <ele>63.09747314453125</ele>
        <time>2026-08-19T12:23:01Z</time>
      </trkpt>
      <trkpt lat="39.91529851367705" lon="116.18033239435663">
        <ele>64.480712890625</ele>
        <time>2026-08-19T12:23:07Z</time>
      </trkpt>
      <trkpt lat="39.91525743117603" lon="116.18028527213806">
        <ele>64.62261962890625</ele>
        <time>2026-08-19T12:23:13Z</time>
      </trkpt>
      <trkpt lat="39.915316378512244" lon="116.18025718882033">
        <ele>64.42462158203125</ele>
        <time>2026-08-19T12:23:19Z</time>
      </trkpt>
      <trkpt lat="39.91531122631606" lon="116.18017195896752">
        <ele>64.54693603515625</ele>
        <time>2026-08-19T12:23:25Z</time>
      </trkpt>
      <trkpt lat="39.91526613134102" lon="116.1801178181447">
        <ele>65.19158935546875</ele>
        <time>2026-08-19T12:23:31Z</time>
      </trkpt>
      <trkpt lat="39.915282448086565" lon="116.17973678394979">
        <ele>63.16339111328125</ele>
        <time>2026-08-19T12:23:52Z</time>
      </trkpt>
      <trkpt lat="39.91526994106741" lon="116.17945401815803">
        <ele>63.71295166015625</ele>
        <time>2026-08-19T12:24:07Z</time>
      </trkpt>
      <trkpt lat="39.91496893569831" lon="116.17944402878558">
        <ele>69.9114990234375</ele>
        <time>2026-08-19T12:24:22Z</time>
      </trkpt>
      <trkpt lat="39.9146949670328" lon="116.17945509320137">
        <ele>70.85833740234375</ele>
        <time>2026-08-19T12:24:37Z</time>
      </trkpt>
      <trkpt lat="39.914471958404086" lon="116.17944509401809">
        <ele>68.8809814453125</ele>
        <time>2026-08-19T12:24:49Z</time>
      </trkpt>
      <trkpt lat="39.914159915699045" lon="116.17941404883521">
        <ele>68.3106689453125</ele>
        <time>2026-08-19T12:25:04Z</time>
      </trkpt>
      <trkpt lat="39.91391790067713" lon="116.17940004114052">
        <ele>67.809814453125</ele>
        <time>2026-08-19T12:25:16Z</time>
      </trkpt>
      <trkpt lat="39.91381085473634" lon="116.17937197832694">
        <ele>66.9893798828125</ele>
        <time>2026-08-19T12:25:22Z</time>
      </trkpt>
      <trkpt lat="39.91352887565001" lon="116.1793770274148">
        <ele>70.0008544921875</ele>
        <time>2026-08-19T12:25:34Z</time>
      </trkpt>
      <trkpt lat="39.9132648777937" lon="116.17937204699717">
        <ele>72.51324462890625</ele>
        <time>2026-08-19T12:25:49Z</time>
      </trkpt>
      <trkpt lat="39.91321914273095" lon="116.17951845035105">
        <ele>70.21484375</ele>
        <time>2026-08-19T12:26:01Z</time>
      </trkpt>
      <trkpt lat="39.91325266124945" lon="116.17980823223466">
        <ele>68.945556640625</ele>
        <time>2026-08-19T12:26:22Z</time>
      </trkpt>
      <trkpt lat="39.9133564506567" lon="116.18081193207504">
        <ele>69.65411376953125</ele>
        <time>2026-08-19T12:27:31Z</time>
      </trkpt>
      <trkpt lat="39.913660491399924" lon="116.18084197491329">
        <ele>65.39453125</ele>
        <time>2026-08-19T12:27:49Z</time>
      </trkpt>
      <trkpt lat="39.91387248245378" lon="116.18084194826177">
        <ele>67.360595703125</ele>
        <time>2026-08-19T12:27:58Z</time>
      </trkpt>
      <trkpt lat="39.91388970667113" lon="116.1809682864002">
        <ele>66.40032958984375</ele>
        <time>2026-08-19T12:28:04Z</time>
      </trkpt>
      <trkpt lat="39.913874363232416" lon="116.1813372807515">
        <ele>65.175048828125</ele>
        <time>2026-08-19T12:28:19Z</time>
      </trkpt>
      <trkpt lat="39.91388662071811" lon="116.18148266963333">
        <ele>65.671875</ele>
        <time>2026-08-19T12:28:25Z</time>
      </trkpt>
      <trkpt lat="39.91387091999127" lon="116.18165112351912">
        <ele>66.82012939453125</ele>
        <time>2026-08-19T12:28:31Z</time>
      </trkpt>
      <trkpt lat="39.913885219430114" lon="116.18182057584391">
        <ele>68.98046875</ele>
        <time>2026-08-19T12:28:37Z</time>
      </trkpt>
      <trkpt lat="39.91390838873488" lon="116.18191683067857">
        <ele>66.9178466796875</ele>
        <time>2026-08-19T12:28:43Z</time>
      </trkpt>
      <trkpt lat="39.91389906911188" lon="116.18230186125068">
        <ele>68.4658203125</ele>
        <time>2026-08-19T12:28:58Z</time>
      </trkpt>
      <trkpt lat="39.9138823296337" lon="116.18244925674237">
        <ele>68.3267822265625</ele>
        <time>2026-08-19T12:29:04Z</time>
      </trkpt>
      <trkpt lat="39.91389326627492" lon="116.18259608706272">
        <ele>67.38177490234375</ele>
        <time>2026-08-19T12:29:10Z</time>
      </trkpt>
      <trkpt lat="39.91389718601775" lon="116.1829365527386">
        <ele>67.684814453125</ele>
        <time>2026-08-19T12:29:25Z</time>
      </trkpt>
      <trkpt lat="39.91388845906617" lon="116.18309196686967">
        <ele>68.41021728515625</ele>
        <time>2026-08-19T12:29:37Z</time>
      </trkpt>
    </trkseg>
  </trk>
</gpx>