<?xml version="1.0" encoding="UTF-8"?>
<gpx xmlns="http://www.topografix.com/GPX/1/1" xmlns:gpxtpx="http://www.garmin.com/xmlschemas/TrackPointExtension/v1" xmlns:xsi="http://www.w3.org/2001/XMLSchema-instance" xsi:schemaLocation="http://www.topografix.com/GPX/1/1 http://www.topografix.com/GPX/1/1/gpx.xsd" version="1.1" creator="gpx.py -- https://github.com/tkrajina/gpxpy">
  <trk>
    <name>gpx from keep</name>
    <type>Run</type>
    <trkseg>
      <trkpt lat="39.91246000507604" lon="116.18509542993803">
        <ele>69.2532958984375</ele>
        <time>2026-08-05T10:49:46Z</time>
      </trkpt>
      <trkpt lat="39.91253600877561" lon="116.18509943089535">
        <ele>70.78515625</ele>
        <time>2026-08-05T10:49:52Z</time>
      </trkpt>
      <trkpt lat="39.912608054166206" lon="116.1851274953398">
        <ele>71.56060791015625</ele>
        <time>2026-08-05T10:49:58Z</time>
      </trkpt>
      <trkpt lat="39.91261633387216" lon="116.18528991918238">
        <ele>69.0028076171875</ele>
        <time>2026-08-05T10:50:10Z</time>
      </trkpt>
      <trkpt lat="39.91265566707203" lon="116.18548442235381">
        <ele>67.04071044921875</ele>
        <time>2026-08-05T10:50:22Z</time>
      </trkpt>
      <trkpt lat="39.91292176098047" lon="116.18554554855648">
        <ele>66.7457275390625</ele>
        <time>2026-08-05T10:50:46Z</time>
      </trkpt>
      <trkpt lat="39.91299974561311" lon="116.18553852045446">
        <ele>66.07952880859375</ele>
        <time>2026-08-05T10:50:52Z</time>
      </trkpt>
      <trkpt lat="39.91307277355026" lon="116.18555655837218">
        <ele>64.88311767578125</ele>
        <time>2026-08-05T10:50:58Z</time>
      </trkpt>
      <trkpt lat="39.91310607870435" lon="116.18573501945743">
        <ele>65.26617431640625</ele>
        <time>2026-08-05T10:51:10Z</time>
      </trkpt>
      <trkpt lat="39.91310752213832" lon="116.1859936924869">
        <ele>66.57568359375</ele>
        <time>2026-08-05T10:51:19Z</time>
      </trkpt>
      <trkpt lat="39.913122645083845" lon="116.18606587821364">
        <ele>64.81561279296875</ele>
        <time>2026-08-05T10:51:22Z</time>
      </trkpt>
      <trkpt lat="39.91319172107789" lon="116.18611198935785">
        <ele>64.4984130859375</ele>
        <time>2026-08-05T10:51:28Z</time>
      </trkpt>
      <trkpt lat="39.91320297599691" lon="116.186261375735">
        <ele>64.27252197265625</ele>
        <time>2026-08-05T10:51:34Z</time>
      </trkpt>
      <trkpt lat="39.91326927100581" lon="116.18643581967493">
        <ele>62.91143798828125</ele>
        <time>2026-08-05T10:51:43Z</time>
      </trkpt>
      <trkpt lat="39.91326837875604" lon="116.1864989833777">
        <ele>62.96649169921875</ele>
        <time>2026-08-05T10:51:46Z</time>
      </trkpt>
      <trkpt lat="39.913100879152985" lon="116.18678875374776">
        <ele>62.8155517578125</ele>
        <time>2026-08-05T10:52:01Z</time>
      </trkpt>
      <trkpt lat="39.91293747493882" lon="116.18713566901646">
        <ele>64.31787109375</ele>
        <time>2026-08-05T10:52:16Z</time>
      </trkpt>
      <trkpt lat="39.912764069230015" lon="116.18748258290802">
        <ele>63.5830078125</ele>
        <time>2026-08-05T10:52:31Z</time>
      </trkpt>
      <trkpt lat="39.91259169022306" lon="116.18784653763373">
        <ele>65.033447265625</ele>
        <time>2026-08-05T10:52:46Z</time>
      </trkpt>
      <trkpt lat="39.912580394671394" lon="116.18826560983688">
        <ele>63.833251953125</ele>
        <time>2026-08-05T10:53:01Z</time>
      </trkpt>
      <trkpt lat="39.91257309600866" lon="116.1886846775258">
        <ele>63.95928955078125</ele>
        <time>2026-08-05T10:53:19Z</time>
      </trkpt>
      <trkpt lat="39.91258975500867" lon="116.18908067976562">
        <ele>61.53857421875</ele>
        <time>2026-08-05T10:53:37Z</time>
      </trkpt>
      <trkpt lat="39.91257037962283" lon="116.18945663225296">
        <ele>62.63067626953125</ele>
        <time>2026-08-05T10:53:52Z</time>
      </trkpt>
      <trkpt lat="39.912594619132015" lon="116.18960199566602">
        <ele>63.02178955078125</ele>
        <time>2026-08-05T10:53:58Z</time>
      </trkpt>
      <trkpt lat="39.91256713824948" lon="116.18991578840915">
        <ele>64.2210693359375</ele>
        <time>2026-08-05T10:54:10Z</time>
      </trkpt>
      <trkpt lat="39.91258642625664" lon="116.19009122625006">
        <ele>63.21441650390625</ele>
        <time>2026-08-05T10:54:19Z</time>
      </trkpt>
      <trkpt lat="39.91258906781453" lon="116.19048220435307">
        <ele>64.2596435546875</ele>
        <time>2026-08-05T10:54:52Z</time>
      </trkpt>
      <trkpt lat="39.912585706837895" lon="116.190873179418">
        <ele>61.298095703125</ele>
        <time>2026-08-05T10:55:22Z</time>
      </trkpt>
      <trkpt lat="39.91258009719968" lon="116.19111277550721">
        <ele>64.54180908203125</ele>
        <time>2026-08-05T10:55:34Z</time>
      </trkpt>
      <trkpt lat="39.91259081540035" lon="116.19155587141259">
        <ele>69.50762939453125</ele>
        <time>2026-08-05T10:55:58Z</time>
      </trkpt>
      <trkpt lat="39.91259544945106" lon="116.19194883973412">
        <ele>67.45147705078125</ele>
        <time>2026-08-05T10:56:19Z</time>
      </trkpt>
      <trkpt lat="39.91259003757563" lon="116.19231473896197">
        <ele>66.5311279296875</ele>
        <time>2026-08-05T10:56:37Z</time>
      </trkpt>
      <trkpt lat="39.91257050364353" lon="116.1926054528106">
        <ele>66.85321044921875</ele>
        <time>2026-08-05T10:56:52Z</time>
      </trkpt>
      <trkpt lat="39.91259864329939" lon="116.19269366471468">
        <ele>65.8642578125</ele>
        <time>2026-08-05T10:57:07Z</time>
      </trkpt>
      <trkpt lat="39.91258309906161" lon="116.19297936293141">
        <ele>68.54510498046875</ele>
        <time>2026-08-05T10:57:25Z</time>
      </trkpt>
      <trkpt lat="39.912587774507244" lon="116.19340539655272">
        <ele>69.78009033203125</ele>
        <time>2026-08-05T10:57:49Z</time>
      </trkpt>
      <trkpt lat="39.9125784121949" lon="116.19380937382246">
        <ele>69.02667236328125</ele>
        <time>2026-08-05T10:58:13Z</time>
      </trkpt>
      <trkpt lat="39.91258002254936" lon="116.19419830912707">
        <ele>69.76031494140625</ele>
        <time>2026-08-05T10:58:37Z</time>
      </trkpt>
      <trkpt lat="39.91257562534928" lon="116.19458423377144">
        <ele>70.5262451171875</ele>
        <time>2026-08-05T10:59:01Z</time>
      </trkpt>
      <trkpt lat="39.91259626124149" lon="116.19499420827374">
        <ele>69.65283203125</ele>
        <time>2026-08-05T10:59:22Z</time>
      </trkpt>
      <trkpt lat="39.91258364460734" lon="116.19524179760225">
        <ele>65.562744140625</ele>
        <time>2026-08-05T10:59:34Z</time>
      </trkpt>
      <trkpt lat="39.91256377225501" lon="116.19532399482338">
        <ele>65.68316650390625</ele>
        <time>2026-08-05T10:59:37Z</time>
      </trkpt>
      <trkpt lat="39.91256231500658" lon="116.19567682871164">
        <ele>63.61859130859375</ele>
        <time>2026-08-05T10:59:52Z</time>
      </trkpt>
      <trkpt lat="39.91258195359562" lon="116.19609480920948">
        <ele>63.00262451171875</ele>
        <time>2026-08-05T11:00:10Z</time>
      </trkpt>
      <trkpt lat="39.91257051519652" lon="116.19646367381443">
        <ele>64.03094482421875</ele>
        <time>2026-08-05T11:00:25Z</time>
      </trkpt>
      <trkpt lat="39.912575106383144" lon="116.19685458358951">
        <ele>66.7540283203125</ele>
        <time>2026-08-05T11:00:40Z</time>
      </trkpt>
      <trkpt lat="39.91257868367899" lon="116.19723847267377">
        <ele>66.83001708984375</ele>
        <time>2026-08-05T11:00:55Z</time>
      </trkpt>
      <trkpt lat="39.91259125726958" lon="116.1976223561497">
        <ele>62.991455078125</ele>
        <time>2026-08-05T11:01:10Z</time>
      </trkpt>
      <trkpt lat="39.912615824022" lon="116.19800422901181">
        <ele>60.8172607421875</ele>
        <time>2026-08-05T11:01:25Z</time>
      </trkpt>
      <trkpt lat="39.91260845226246" lon="116.19842919940811">
        <ele>61.80950927734375</ele>
        <time>2026-08-05T11:01:40Z</time>
      </trkpt>
      <trkpt lat="39.91260705551967" lon="116.19884013166124">
        <ele>60.71002197265625</ele>
        <time>2026-08-05T11:01:55Z</time>
      </trkpt>
      <trkpt lat="39.912622600175105" lon="116.19921397303612">
        <ele>57.224365234375</ele>
        <time>2026-08-05T11:02:10Z</time>
      </trkpt>
      <trkpt lat="39.912622194323255" lon="116.19962389266277">
        <ele>56.75762939453125</ele>
        <time>2026-08-05T11:02:25Z</time>
      </trkpt>
      <trkpt lat="39.91266024336623" lon="116.19965896634571">
        <ele>57.53948974609375</ele>
        <time>2026-08-05T11:02:28Z</time>
      </trkpt>
      <trkpt lat="39.91293521435181" lon="116.19964690506949">
        <ele>62.6761474609375</ele>
        <time>2026-08-05T11:02:43Z</time>
      </trkpt>
      <trkpt lat="39.91325219948831" lon="116.19964586318724">
        <ele>59.93377685546875</ele>
        <time>2026-08-05T11:03:01Z</time>
      </trkpt>
      <trkpt lat="39.91358021311313" lon="116.19966486474053">
        <ele>62.87005615234375</ele>
        <time>2026-08-05T11:03:19Z</time>
      </trkpt>
      <trkpt lat="39.913783227682735" lon="116.19968087519464">
        <ele>60.08154296875</ele>
        <time>2026-08-05T11:03:28Z</time>
      </trkpt>
      <trkpt lat="39.913859322766605" lon="116.19974901791849">
        <ele>59.8427734375</ele>
        <time>2026-08-05T11:03:34Z</time>
      </trkpt>
      <trkpt lat="39.91388843270933" lon="116.19982618648633">
        <ele>59.654052734375</ele>
        <time>2026-08-05T11:03:37Z</time>
      </trkpt>
      <trkpt lat="39.913971548875" lon="116.19990936150315">
        <ele>57.8994140625</ele>
        <time>2026-08-05T11:03:43Z</time>
      </trkpt>
      <trkpt lat="39.913957666089544" lon="116.19999054396568">
        <ele>57.31610107421875</ele>
        <time>2026-08-05T11:03:46Z</time>
      </trkpt>
      <trkpt lat="39.9139787629867" lon="116.20005869288282">
        <ele>58.6553955078125</ele>
        <time>2026-08-05T11:03:49Z</time>
      </trkpt>
      <trkpt lat="39.914020834478244" lon="116.20010980118902">
        <ele>59.35382080078125</ele>
        <time>2026-08-05T11:03:52Z</time>
      </trkpt>
      <trkpt lat="39.914075855129646" lon="116.20012582992018">
        <ele>59.9425048828125</ele>
        <time>2026-08-05T11:03:55Z</time>
      </trkpt>
      <trkpt lat="39.91412482865537" lon="116.20010878595878">
        <ele>59.535888671875</ele>
        <time>2026-08-05T11:03:58Z</time>
      </trkpt>
      <trkpt lat="39.914178846478976" lon="116.20012281036485">
        <ele>59.12213134765625</ele>
        <time>2026-08-05T11:04:01Z</time>
      </trkpt>
      <trkpt lat="39.914217910846524" lon="116.20016890782057">
        <ele>59.17242431640625</ele>
        <time>2026-08-05T11:04:04Z</time>
      </trkpt>
      <trkpt lat="39.91427809745581" lon="116.2003011935818">
        <ele>60.50823974609375</ele>
        <time>2026-08-05T11:04:13Z</time>
      </trkpt>
      <trkpt lat="39.91440018815328" lon="116.20036832696151">
        <ele>61.15850830078125</ele>
        <time>2026-08-05T11:04:25Z</time>
      </trkpt>
      <trkpt lat="39.914473200802" lon="116.20037934222238">
        <ele>61.062744140625</ele>
        <time>2026-08-05T11:04:31Z</time>
      </trkpt>
      <trkpt lat="39.91452824278316" lon="116.20041040405525">
        <ele>60.748291015625</ele>
        <time>2026-08-05T11:04:37Z</time>
      </trkpt>
      <trkpt lat="39.914799275648654" lon="116.20044143884878">
        <ele>61.36187744140625</ele>
        <time>2026-08-05T11:05:01Z</time>
      </trkpt>
      <trkpt lat="39.915095344545044" lon="116.20049852803513">
        <ele>64.307373046875</ele>
        <time>2026-08-05T11:05:19Z</time>
      </trkpt>
      <trkpt lat="39.91537735836727" lon="116.20051653260433">
        <ele>67.33294677734375</ele>
        <time>2026-08-05T11:05:34Z</time>
      </trkpt>
      <trkpt lat="39.91542936046131" lon="116.20051953273963">
        <ele>67.2318115234375</ele>
        <time>2026-08-05T11:05:37Z</time>
      </trkpt>
      <trkpt lat="39.915456476168856" lon="116.20060171066594">
        <ele>65.52978515625</ele>
        <time>2026-08-05T11:05:43Z</time>
      </trkpt>
      <trkpt lat="39.91541069140533" lon="116.20075204749058">
        <ele>64.3685302734375</ele>
        <time>2026-08-05T11:05:49Z</time>
      </trkpt>
      <trkpt lat="39.915443242044105" lon="116.20114290076964">
        <ele>60.947265625</ele>
        <time>2026-08-05T11:06:07Z</time>
      </trkpt>
      <trkpt lat="39.91545880780673" lon="116.2015467793862">
        <ele>61.78448486328125</ele>
        <time>2026-08-05T11:06:25Z</time>
      </trkpt>
      <trkpt lat="39.915486974494996" lon="116.20166703700674">
        <ele>62.86883544921875</ele>
        <time>2026-08-05T11:06:31Z</time>
      </trkpt>
      <trkpt lat="39.915468541916134" lon="116.20207492136664">
        <ele>61.08294677734375</ele>
        <time>2026-08-05T11:06:49Z</time>
      </trkpt>
      <trkpt lat="39.915452038924066" lon="116.20243469674963">
        <ele>62.0050048828125</ele>
        <time>2026-08-05T11:07:04Z</time>
      </trkpt>
      <trkpt lat="39.915461629999015" lon="116.20286661808568">
        <ele>62.01153564453125</ele>
        <time>2026-08-05T11:07:22Z</time>
      </trkpt>
      <trkpt lat="39.91545618434727" lon="116.20327448399031">
        <ele>62.8154296875</ele>
        <time>2026-08-05T11:07:37Z</time>
      </trkpt>
      <trkpt lat="39.915452770594996" lon="116.2037094006268">
        <ele>60.36749267578125</ele>
        <time>2026-08-05T11:07:52Z</time>
      </trkpt>
      <trkpt lat="39.915446012507395" lon="116.20388977951097">
        <ele>61.72100830078125</ele>
        <time>2026-08-05T11:07:58Z</time>
      </trkpt>
      <trkpt lat="39.91547024558342" lon="116.20406514291726">
        <ele>61.9803466796875</ele>
        <time>2026-08-05T11:08:04Z</time>
      </trkpt>
      <trkpt lat="39.91544559423884" lon="116.20432669047507">
        <ele>64.43060302734375</ele>
        <time>2026-08-05T11:08:13Z</time>
      </trkpt>
      <trkpt lat="39.915455134910054" lon="116.20473653758702">
        <ele>64.92987060546875</ele>
        <time>2026-08-05T11:08:28Z</time>
      </trkpt>
      <trkpt lat="39.91547863651236" lon="116.20512032354523">
        <ele>65.58538818359375</ele>
        <time>2026-08-05T11:08:43Z</time>
      </trkpt>
      <trkpt lat="39.915467191328176" lon="116.20554719615997">
        <ele>64.96142578125</ele>
        <time>2026-08-05T11:09:01Z</time>
      </trkpt>
      <trkpt lat="39.915437672572786" lon="116.20591995515085">
        <ele>60.73773193359375</ele>
        <time>2026-08-05T11:09:19Z</time>
      </trkpt>
      <trkpt lat="39.915679698387045" lon="116.20594798157025">
        <ele>63.006103515625</ele>
        <time>2026-08-05T11:10:55Z</time>
      </trkpt>
      <trkpt lat="39.915705784570875" lon="116.20601611575678">
        <ele>63.004638671875</ele>
        <time>2026-08-05T11:11:01Z</time>
      </trkpt>
      <trkpt lat="39.91573127142246" lon="116.20639888149782">
        <ele>63.86138916015625</ele>
        <time>2026-08-05T11:11:25Z</time>
      </trkpt>
      <trkpt lat="39.915845718940645" lon="116.20675658088983">
        <ele>59.49609375</ele>
        <time>2026-08-05T11:11:43Z</time>
      </trkpt>
      <trkpt lat="39.915908852426796" lon="116.20686478797003">
        <ele>59.40997314453125</ele>
        <time>2026-08-05T11:11:49Z</time>
      </trkpt>
      <trkpt lat="39.916001879991995" lon="116.20688982605223">
        <ele>57.84466552734375</ele>
        <time>2026-08-05T11:11:55Z</time>
      </trkpt>
      <trkpt lat="39.916170264150175" lon="116.20720242327327">
        <ele>56.64093017578125</ele>
        <time>2026-08-05T11:12:13Z</time>
      </trkpt>
      <trkpt lat="39.916385677082154" lon="116.20754206395242">
        <ele>54.9146728515625</ele>
        <time>2026-08-05T11:12:37Z</time>
      </trkpt>
      <trkpt lat="39.916606029928026" lon="116.20783560991026">
        <ele>53.23358154296875</ele>
        <time>2026-08-05T11:13:01Z</time>
      </trkpt>
      <trkpt lat="39.91673319551833" lon="116.20797486494293">
        <ele>52.98199462890625</ele>
        <time>2026-08-05T11:13:13Z</time>
      </trkpt>
      <trkpt lat="39.91677931008081" lon="116.20807004391303">
        <ele>52.3441162109375</ele>
        <time>2026-08-05T11:13:19Z</time>
      </trkpt>
      <trkpt lat="39.916826786033866" lon="116.2084627965561">
        <ele>51.2735595703125</ele>
        <time>2026-08-05T11:13:37Z</time>
      </trkpt>
      <trkpt lat="39.916909238053414" lon="116.20884051020494">
        <ele>53.76934814453125</ele>
        <time>2026-08-05T11:13:52Z</time>
      </trkpt>
      <trkpt lat="39.91698470410973" lon="116.20923324766808">
        <ele>52.37872314453125</ele>
        <time>2026-08-05T11:14:10Z</time>
      </trkpt>
      <trkpt lat="39.917025121106356" lon="116.2095869100531">
        <ele>51.40386962890625</ele>
        <time>2026-08-05T11:14:25Z</time>
      </trkpt>
      <trkpt lat="39.91705854409434" lon="116.20994858336374">
        <ele>51.68402099609375</ele>
        <time>2026-08-05T11:14:40Z</time>
      </trkpt>
      <trkpt lat="39.917096958381045" lon="116.21030624347141">
        <ele>52.20428466796875</ele>
        <time>2026-08-05T11:14:55Z</time>
      </trkpt>
      <trkpt lat="39.917161368939965" lon="116.21066489710344">
        <ele>53.49072265625</ele>
        <time>2026-08-05T11:15:10Z</time>
      </trkpt>
      <trkpt lat="39.91724377263765" lon="116.21102153970786">
        <ele>52.0758056640625</ele>
        <time>2026-08-05T11:15:25Z</time>
      </trkpt>
      <trkpt lat="39.91732418162713" lon="116.21138619196002">
        <ele>52.51190185546875</ele>
        <time>2026-08-05T11:15:40Z</time>
      </trkpt>
      <trkpt lat="39.91736361175611" lon="116.21177188169902">
        <ele>52.514404296875</ele>
        <time>2026-08-05T11:15:55Z</time>
      </trkpt>
      <trkpt lat="39.91740602510697" lon="116.2121465454438">
        <ele>52.55908203125</ele>
        <time>2026-08-05T11:16:10Z</time>
      </trkpt>
      <trkpt lat="39.91744547362301" lon="116.21255726738153">
        <ele>53.7161865234375</ele>
        <time>2026-08-05T11:16:31Z</time>
      </trkpt>
      <trkpt lat="39.917472902359194" lon="116.2129539594325">
        <ele>54.47882080078125</ele>
        <time>2026-08-05T11:16:49Z</time>
      </trkpt>
      <trkpt lat="39.917502344295904" lon="116.21336767417567">
        <ele>53.86920166015625</ele>
        <time>2026-08-05T11:17:10Z</time>
      </trkpt>
      <trkpt lat="39.91754174888202" lon="116.2137513291494">
        <ele>54.1751708984375</ele>
        <time>2026-08-05T11:17:28Z</time>
      </trkpt>
      <trkpt lat="39.917624114748705" lon="116.21410391994563">
        <ele>53.800537109375</ele>
        <time>2026-08-05T11:17:43Z</time>
      </trkpt>
      <trkpt lat="39.9176685391681" lon="116.2145156096293">
        <ele>53.58734130859375</ele>
        <time>2026-08-05T11:17:58Z</time>
      </trkpt>
      <trkpt lat="39.917682927938195" lon="116.21489624427124">
        <ele>53.084716796875</ele>
        <time>2026-08-05T11:18:13Z</time>
      </trkpt>
      <trkpt lat="39.91770633589208" lon="116.21530091126037">
        <ele>55.540283203125</ele>
        <time>2026-08-05T11:18:31Z</time>
      </trkpt>
      <trkpt lat="39.91776070356776" lon="116.2156715119027">
        <ele>53.4400634765625</ele>
        <time>2026-08-05T11:18:49Z</time>
      </trkpt>
      <trkpt lat="39.91782807023707" lon="116.2160461115277">
        <ele>52.75970458984375</ele>
        <time>2026-08-05T11:19:04Z</time>
      </trkpt>
      <trkpt lat="39.91791143560998" lon="116.21642470954156">
        <ele>52.6187744140625</ele>
        <time>2026-08-05T11:19:22Z</time>
      </trkpt>
      <trkpt lat="39.917950607994165" lon="116.21660499220502">
        <ele>52.1151123046875</ele>
        <time>2026-08-05T11:19:31Z</time>
      </trkpt>
      <trkpt lat="39.918009943732415" lon="116.21695854463798">
        <ele>53.46832275390625</ele>
        <time>2026-08-05T11:19:46Z</time>
      </trkpt>
      <trkpt lat="39.91802930246579" lon="116.21733913880931">
        <ele>54.86859130859375</ele>
        <time>2026-08-05T11:20:01Z</time>
      </trkpt>
      <trkpt lat="39.91805964395402" lon="116.21770670520954">
        <ele>51.861328125</ele>
        <time>2026-08-05T11:20:16Z</time>
      </trkpt>
      <trkpt lat="39.91808599674418" lon="116.21809129218724">
        <ele>51.54852294921875</ele>
        <time>2026-08-05T11:20:31Z</time>
      </trkpt>
      <trkpt lat="39.91810635393861" lon="116.21848588852498">
        <ele>52.40203857421875</ele>
        <time>2026-08-05T11:20:46Z</time>
      </trkpt>
      <trkpt lat="39.91813370569287" lon="116.21888047711674">
        <ele>50.84759521484375</ele>
        <time>2026-08-05T11:21:01Z</time>
      </trkpt>
      <trkpt lat="39.9181620268187" lon="116.21924601585475">
        <ele>52.71405029296875</ele>
        <time>2026-08-05T11:21:16Z</time>
      </trkpt>
      <trkpt lat="39.91818025379904" lon="116.21950739769584">
        <ele>54.93048095703125</ele>
        <time>2026-08-05T11:21:28Z</time>
      </trkpt>
      <trkpt lat="39.91817955050012" lon="116.21985189938576">
        <ele>54.13543701171875</ele>
        <time>2026-08-05T11:21:43Z</time>
      </trkpt>
      <trkpt lat="39.9182118477585" lon="116.22020340169261">
        <ele>55.83984375</ele>
        <time>2026-08-05T11:21:58Z</time>
      </trkpt>
      <trkpt lat="39.918252167989586" lon="116.22058794424143">
        <ele>55.2158203125</ele>
        <time>2026-08-05T11:22:13Z</time>
      </trkpt>
      <trkpt lat="39.91832840954263" lon="116.22088435227889">
        <ele>52.89410400390625</ele>
        <time>2026-08-05T11:22:25Z</time>
      </trkpt>
      <trkpt lat="39.918503663466396" lon="116.22120477736708">
        <ele>51.42755126953125</ele>
        <time>2026-08-05T11:22:40Z</time>
      </trkpt>
      <trkpt lat="39.91870381662837" lon="116.22140502939668">
        <ele>49.79571533203125</ele>
        <time>2026-08-05T11:22:52Z</time>
      </trkpt>
      <trkpt lat="39.91894988823159" lon="116.22150713929811">
        <ele>50.30963134765625</ele>
        <time>2026-08-05T11:23:04Z</time>
      </trkpt>
      <trkpt lat="39.919288893354256" lon="116.22153113008123">
        <ele>49.306884765625</ele>
        <time>2026-08-05T11:23:19Z</time>
      </trkpt>
      <trkpt lat="39.91962487701424" lon="116.22152808411577">
        <ele>50.629638671875</ele>
        <time>2026-08-05T11:23:34Z</time>
      </trkpt>
      <trkpt lat="39.919821863247776" lon="116.22152104996023">
        <ele>49.9993896484375</ele>
        <time>2026-08-05T11:23:52Z</time>
      </trkpt>
      <trkpt lat="39.919862839134545" lon="116.22149300634071">
        <ele>49.40216064453125</ele>
        <time>2026-08-05T11:24:04Z</time>
      </trkpt>
      <trkpt lat="39.919943860592255" lon="116.22152403889162">
        <ele>50.15887451171875</ele>
        <time>2026-08-05T11:24:16Z</time>
      </trkpt>
      <trkpt lat="39.92028685118768" lon="116.22153000442404">
        <ele>52.044677734375</ele>
        <time>2026-08-05T11:24:40Z</time>
      </trkpt>
      <trkpt lat="39.92059783032278" lon="116.22151995194672">
        <ele>51.87884521484375</ele>
        <time>2026-08-05T11:25:01Z</time>
      </trkpt>
      <trkpt lat="39.920911827742245" lon="116.22153293071203">
        <ele>51.7991943359375</ele>
        <time>2026-08-05T11:25:22Z</time>
      </trkpt>
      <trkpt lat="39.92121380807304" lon="116.22152388073053">
        <ele>50.56988525390625</ele>
        <time>2026-08-05T11:25:40Z</time>
      </trkpt>
      <trkpt lat="39.92140876319362" lon="116.22147779315873">
        <ele>50.2769775390625</ele>
        <time>2026-08-05T11:25:52Z</time>
      </trkpt>
      <trkpt lat="39.92158864645048" lon="116.22134158306822">
        <ele>50.101318359375</ele>
        <time>2026-08-05T11:26:04Z</time>
      </trkpt>
      <trkpt lat="39.921787429127036" lon="116.22108319994027">
        <ele>51.5888671875</ele>
        <time>2026-08-05T11:26:19Z</time>
      </trkpt>
      <trkpt lat="39.92193212425916" lon="116.22071867116384">
        <ele>52.784423828125</ele>
        <time>2026-08-05T11:26:37Z</time>
      </trkpt>
      <trkpt lat="39.921915773610834" lon="116.22029707497965">
        <ele>52.4366455078125</ele>
        <time>2026-08-05T11:26:58Z</time>
      </trkpt>
      <trkpt lat="39.92192442193025" lon="116.21988247782762">
        <ele>51.4481201171875</ele>
        <time>2026-08-05T11:27:16Z</time>
      </trkpt>
      <trkpt lat="39.92192810985224" lon="116.21951994984933">
        <ele>50.73980712890625</ele>
        <time>2026-08-05T11:27:31Z</time>
      </trkpt>
      <trkpt lat="39.921944742638956" lon="116.21910032987103">
        <ele>50.31585693359375</ele>
        <time>2026-08-05T11:27:46Z</time>
      </trkpt>
      <trkpt lat="39.921932354630485" lon="116.21866267862603">
        <ele>51.5479736328125</ele>
        <time>2026-08-05T11:28:01Z</time>
      </trkpt>
      <trkpt lat="39.921909982537066" lon="116.21824905668713">
        <ele>52.40869140625</ele>
        <time>2026-08-05T11:28:16Z</time>
      </trkpt>
      <trkpt lat="39.92188064293038" lon="116.2178764911847">
        <ele>52.19268798828125</ele>
        <time>2026-08-05T11:28:31Z</time>
      </trkpt>
      <trkpt lat="39.9218462550137" lon="116.21745684711284">
        <ele>53.0869140625</ele>
        <time>2026-08-05T11:28:46Z</time>
      </trkpt>
      <trkpt lat="39.92179392943268" lon="116.21710830929672">
        <ele>51.60784912109375</ele>
        <time>2026-08-05T11:28:58Z</time>
      </trkpt>
      <trkpt lat="39.92173060610321" lon="116.21676577709123">
        <ele>51.70928955078125</ele>
        <time>2026-08-05T11:29:10Z</time>
      </trkpt>
      <trkpt lat="39.92172544288332" lon="116.21659550737326">
        <ele>51.7911376953125</ele>
        <time>2026-08-05T11:29:16Z</time>
      </trkpt>
      <trkpt lat="39.92168030169756" lon="116.21644727660632">
        <ele>50.9931640625</ele>
        <time>2026-08-05T11:29:22Z</time>
      </trkpt>
      <trkpt lat="39.92161795237702" lon="116.21608570379699">
        <ele>53.1058349609375</ele>
        <time>2026-08-05T11:29:37Z</time>
      </trkpt>
      <trkpt lat="39.92154157461686" lon="116.21569908631928">
        <ele>52.721435546875</ele>
        <time>2026-08-05T11:29:55Z</time>
      </trkpt>
      <trkpt lat="39.9214581893477" lon="116.21530945837861">
        <ele>52.8043212890625</ele>
        <time>2026-08-05T11:30:13Z</time>
      </trkpt>
      <trkpt lat="39.92141703784463" lon="116.21515721232574">
        <ele>52.97760009765625</ele>
        <time>2026-08-05T11:30:25Z</time>
      </trkpt>
      <trkpt lat="39.921092080256436" lon="116.21233542158787">
        <ele>49.5289306640625</ele>
        <time>2026-08-05T11:42:58Z</time>
      </trkpt>
      <trkpt lat="39.92109067068365" lon="116.2119637609489">
        <ele>50.70391845703125</ele>
        <time>2026-08-05T11:43:16Z</time>
      </trkpt>
      <trkpt lat="39.921089250185354" lon="116.21158608387047">
        <ele>49.67718505859375</ele>
        <time>2026-08-05T11:43:31Z</time>
      </trkpt>
      <trkpt lat="39.92107807761238" lon="116.21143180695233">
        <ele>49.6451416015625</ele>
        <time>2026-08-05T11:43:37Z</time>
      </trkpt>
      <trkpt lat="39.921100610235214" lon="116.21101905485008">
        <ele>51.88690185546875</ele>
        <time>2026-08-05T11:43:52Z</time>
      </trkpt>
      <trkpt lat="39.921113318451816" lon="116.21076358607873">
        <ele>51.075439453125</ele>
        <time>2026-08-05T11:44:01Z</time>
      </trkpt>
      <trkpt lat="39.9211611419376" lon="116.21061130039081">
        <ele>50.32427978515625</ele>
        <time>2026-08-05T11:44:07Z</time>
      </trkpt>
      <trkpt lat="39.921406804997225" lon="116.21032774647755">
        <ele>49.715576171875</ele>
        <time>2026-08-05T11:44:22Z</time>
      </trkpt>
      <trkpt lat="39.92166950465352" lon="116.21007825066073">
        <ele>48.724365234375</ele>
        <time>2026-08-05T11:44:37Z</time>
      </trkpt>
      <trkpt lat="39.92189515468223" lon="116.20978667824565">
        <ele>51.43572998046875</ele>
        <time>2026-08-05T11:44:52Z</time>
      </trkpt>
      <trkpt lat="39.9220048850423" lon="116.20956124144166">
        <ele>52.33013916015625</ele>
        <time>2026-08-05T11:45:01Z</time>
      </trkpt>
      <trkpt lat="39.922044685662414" lon="116.20939392114474">
        <ele>52.8944091796875</ele>
        <time>2026-08-05T11:45:07Z</time>
      </trkpt>
      <trkpt lat="39.92207859638305" lon="116.209319776835">
        <ele>53.29608154296875</ele>
        <time>2026-08-05T11:45:10Z</time>
      </trkpt>
      <trkpt lat="39.922103203905536" lon="116.20899115030085">
        <ele>52.71484375</ele>
        <time>2026-08-05T11:45:22Z</time>
      </trkpt>
      <trkpt lat="39.922038833693755" lon="116.20868056523226">
        <ele>51.80712890625</ele>
        <time>2026-08-05T11:45:37Z</time>
      </trkpt>
      <trkpt lat="39.92191145599536" lon="116.2083639727145">
        <ele>51.69482421875</ele>
        <time>2026-08-05T11:46:01Z</time>
      </trkpt>
      <trkpt lat="39.9217370920613" lon="116.20805940553242">
        <ele>52.5101318359375</ele>
        <time>2026-08-05T11:46:31Z</time>
      </trkpt>
      <trkpt lat="39.92161290324914" lon="116.20790111353647">
        <ele>53.1041259765625</ele>
        <time>2026-08-05T11:46:43Z</time>
      </trkpt>
      <trkpt lat="39.92138870797481" lon="116.20773481742933">
        <ele>52.1328125</ele>
        <time>2026-08-05T11:47:01Z</time>
      </trkpt>
      <trkpt lat="39.92116762072578" lon="116.20765669238399">
        <ele>52.8653564453125</ele>
        <time>2026-08-05T11:47:19Z</time>
      </trkpt>
      <trkpt lat="39.92088665087181" lon="116.20767175684128">
        <ele>50.690673828125</ele>
        <time>2026-08-05T11:47:40Z</time>
      </trkpt>
      <trkpt lat="39.92061070675802" lon="116.20770786175866">
        <ele>50.23248291015625</ele>
        <time>2026-08-05T11:47:55Z</time>
      </trkpt>
      <trkpt lat="39.92028980642089" lon="116.20777803869392">
        <ele>51.0184326171875</ele>
        <time>2026-08-05T11:48:10Z</time>
      </trkpt>
      <trkpt lat="39.91995384005509" lon="116.20779411189919">
        <ele>49.45928955078125</ele>
        <time>2026-08-05T11:48:25Z</time>
      </trkpt>
      <trkpt lat="39.919617815750186" lon="116.20776309328328">
        <ele>50.2186279296875</ele>
        <time>2026-08-05T11:48:40Z</time>
      </trkpt>
      <trkpt lat="39.91933878412876" lon="116.20772805969196">
        <ele>50.23004150390625</ele>
        <time>2026-08-05T11:48:52Z</time>
      </trkpt>
      <trkpt lat="39.91905476998464" lon="116.20770705407206">
        <ele>50.46490478515625</ele>
        <time>2026-08-05T11:49:04Z</time>
      </trkpt>
      <trkpt lat="39.918741692745826" lon="116.20763395022831">
        <ele>49.46051025390625</ele>
        <time>2026-08-05T11:49:19Z</time>
      </trkpt>
      <trkpt lat="39.91854567614438" lon="116.20761393550667">
        <ele>49.52471923828125</ele>
        <time>2026-08-05T11:49:28Z</time>
      </trkpt>
      <trkpt lat="39.91826557007484" lon="116.20751878409567">
        <ele>49.322021484375</ele>
        <time>2026-08-05T11:49:40Z</time>
      </trkpt>
      <trkpt lat="39.91807449360776" lon="116.20745067433081">
        <ele>48.3385009765625</ele>
        <time>2026-08-05T11:49:49Z</time>
      </trkpt>
      <trkpt lat="39.917868186949335" lon="116.20719720139894">
        <ele>49.1103515625</ele>
        <time>2026-08-05T11:50:01Z</time>
      </trkpt>
      <trkpt lat="39.91776303866633" lon="116.20707497318696">
        <ele>49.9266357421875</ele>
        <time>2026-08-05T11:50:07Z</time>
      </trkpt>
      <trkpt lat="39.917580903227716" lon="116.20696076990643">
        <ele>50.935791015625</ele>
        <time>2026-08-05T11:50:16Z</time>
      </trkpt>
      <trkpt lat="39.91731482506414" lon="116.20688966211483">
        <ele>51.83050537109375</ele>
        <time>2026-08-05T11:50:28Z</time>
      </trkpt>
      <trkpt lat="39.91703579392051" lon="116.2068556293607">
        <ele>51.556640625</ele>
        <time>2026-08-05T11:50:40Z</time>
      </trkpt>
      <trkpt lat="39.91676573969133" lon="116.20680355961603">
        <ele>53.485595703125</ele>
        <time>2026-08-05T11:50:52Z</time>
      </trkpt>
      <trkpt lat="39.91663877777068" lon="116.20682962721418">
        <ele>53.0443115234375</ele>
        <time>2026-08-05T11:50:58Z</time>
      </trkpt>
      <trkpt lat="39.91651489498063" lon="116.20691881961721">
        <ele>53.14801025390625</ele>
        <time>2026-08-05T11:51:04Z</time>
      </trkpt>
      <trkpt lat="39.91642805181797" lon="116.20704107251507">
        <ele>53.30548095703125</ele>
        <time>2026-08-05T11:51:10Z</time>
      </trkpt>
      <trkpt lat="39.91640224568626" lon="116.20719538047938">
        <ele>52.10968017578125</ele>
        <time>2026-08-05T11:51:16Z</time>
      </trkpt>
      <trkpt lat="39.91640934153214" lon="116.20727253162828">
        <ele>52.10498046875</ele>
        <time>2026-08-05T11:51:19Z</time>
      </trkpt>
      <trkpt lat="39.91655980229969" lon="116.20764925201676">
        <ele>51.48480224609375</ele>
        <time>2026-08-05T11:51:34Z</time>
      </trkpt>
      <trkpt lat="39.91656787488694" lon="116.20770836650793">
        <ele>52.64996337890625</ele>
        <time>2026-08-05T11:51:37Z</time>
      </trkpt>
      <trkpt lat="39.91651387097087" lon="116.20770336346685">
        <ele>51.72186279296875</ele>
        <time>2026-08-05T11:51:43Z</time>
      </trkpt>
      <trkpt lat="39.91633051299079" lon="116.20740780748204">
        <ele>53.1820068359375</ele>
        <time>2026-08-05T11:52:16Z</time>
      </trkpt>
      <trkpt lat="39.916140100234365" lon="116.20707016592236">
        <ele>57.4169921875</ele>
        <time>2026-08-05T11:52:52Z</time>
      </trkpt>
      <trkpt lat="39.91604386942308" lon="116.20688280689653">
        <ele>60.2423095703125</ele>
        <time>2026-08-05T11:53:10Z</time>
      </trkpt>
      <trkpt lat="39.915931799822495" lon="116.20682370355004">
        <ele>60.5506591796875</ele>
        <time>2026-08-05T11:53:22Z</time>
      </trkpt>
      <trkpt lat="39.91587181241841" lon="116.20683172695816">
        <ele>61.588623046875</ele>
        <time>2026-08-05T11:53:28Z</time>
      </trkpt>
      <trkpt lat="39.91583573702479" lon="116.20677061002648">
        <ele>61.63897705078125</ele>
        <time>2026-08-05T11:53:34Z</time>
      </trkpt>
      <trkpt lat="39.91575723597946" lon="116.20637182408588">
        <ele>59.9058837890625</ele>
        <time>2026-08-05T11:54:04Z</time>
      </trkpt>
      <trkpt lat="39.91570980748383" lon="116.20603415160805">
        <ele>61.4337158203125</ele>
        <time>2026-08-05T11:54:28Z</time>
      </trkpt>
      <trkpt lat="39.91571971982315" lon="116.2059660129712">
        <ele>61.85791015625</ele>
        <time>2026-08-05T11:54:34Z</time>
      </trkpt>
      <trkpt lat="39.91570264216751" lon="116.20590489170336">
        <ele>62.4339599609375</ele>
        <time>2026-08-05T11:54:40Z</time>
      </trkpt>
      <trkpt lat="39.91568667625463" lon="116.20593094631103">
        <ele>62.62579345703125</ele>
        <time>2026-08-05T11:54:43Z</time>
      </trkpt>
      <trkpt lat="39.91567476799907" lon="116.20371438340554">
        <ele>60.9163818359375</ele>
        <time>2026-08-05T11:57:46Z</time>
      </trkpt>
      <trkpt lat="39.91571623714209" lon="116.20332155103588">
        <ele>59.27789306640625</ele>
        <time>2026-08-05T11:58:04Z</time>
      </trkpt>
      <trkpt lat="39.91573283287778" lon="116.20302391864014">
        <ele>58.34039306640625</ele>
        <time>2026-08-05T11:58:16Z</time>
      </trkpt>
      <trkpt lat="39.91571233462807" lon="116.20265814234337">
        <ele>57.36102294921875</ele>
        <time>2026-08-05T11:58:31Z</time>
      </trkpt>
      <trkpt lat="39.91572574166212" lon="116.2022272171824">
        <ele>59.9735107421875</ele>
        <time>2026-08-05T11:58:49Z</time>
      </trkpt>
      <trkpt lat="39.915714184040205" lon="116.20182434952648">
        <ele>61.5811767578125</ele>
        <time>2026-08-05T11:59:04Z</time>
      </trkpt>
      <trkpt lat="39.91570208415477" lon="116.20175219479637">
        <ele>60.91259765625</ele>
        <time>2026-08-05T11:59:07Z</time>
      </trkpt>
      <trkpt lat="39.91572247678618" lon="116.20131824891088">
        <ele>60.682373046875</ele>
        <time>2026-08-05T11:59:22Z</time>
      </trkpt>
      <trkpt lat="39.915705980958634" lon="116.2009654794451">
        <ele>61.21185302734375</ele>
        <time>2026-08-05T11:59:34Z</time>
      </trkpt>
      <trkpt lat="39.91568268850837" lon="116.20075802670962">
        <ele>61.0833740234375</ele>
        <time>2026-08-05T11:59:43Z</time>
      </trkpt>
      <trkpt lat="39.91546267217784" lon="116.20074001453068">
        <ele>60.88580322265625</ele>
        <time>2026-08-05T12:00:01Z</time>
      </trkpt>
      <trkpt lat="39.915483466491466" lon="116.20059569403152">
        <ele>61.3336181640625</ele>
        <time>2026-08-05T12:00:16Z</time>
      </trkpt>
      <trkpt lat="39.915478349847994" lon="116.20051351333802">
        <ele>61.21807861328125</ele>
        <time>2026-08-05T12:00:22Z</time>
      </trkpt>
      <trkpt lat="39.91540528300729" lon="116.20046441401065">
        <ele>61.32958984375</ele>
        <time>2026-08-05T12:00:28Z</time>
      </trkpt>
      <trkpt lat="39.915130250304536" lon="116.20043337974096">
        <ele>61.816162109375</ele>
        <time>2026-08-05T12:00:43Z</time>
      </trkpt>
      <trkpt lat="39.91480826527459" lon="116.20043442221821">
        <ele>59.17498779296875</ele>
        <time>2026-08-05T12:01:01Z</time>
      </trkpt>
      <trkpt lat="39.91461122642963" lon="116.20040137373248">
        <ele>60.20379638671875</ele>
        <time>2026-08-05T12:01:10Z</time>
      </trkpt>
      <trkpt lat="39.91456324988018" lon="116.20041641297402">
        <ele>59.13922119140625</ele>
        <time>2026-08-05T12:01:13Z</time>
      </trkpt>
      <trkpt lat="39.91448023909046" lon="116.20040640119296">
        <ele>60.1204833984375</ele>
        <time>2026-08-05T12:01:19Z</time>
      </trkpt>
      <trkpt lat="39.914488856380544" lon="116.2001388072032">
        <ele>61.59637451171875</ele>
        <time>2026-08-05T12:01:37Z</time>
      </trkpt>
      <trkpt lat="39.91438059499956" lon="116.19995340854958">
        <ele>61.32989501953125</ele>
        <time>2026-08-05T12:01:55Z</time>
      </trkpt>
      <trkpt lat="39.91437835864458" lon="116.19978904249172">
        <ele>61.72772216796875</ele>
        <time>2026-08-05T12:02:07Z</time>
      </trkpt>
      <trkpt lat="39.914345290710344" lon="116.19974093924074">
        <ele>62.40118408203125</ele>
        <time>2026-08-05T12:02:13Z</time>
      </trkpt>
      <trkpt lat="39.91403228512295" lon="116.19972794928862">
        <ele>60.20184326171875</ele>
        <time>2026-08-05T12:02:43Z</time>
      </trkpt>
      <trkpt lat="39.91374729281657" lon="116.19972497821408">
        <ele>63.705322265625</ele>
        <time>2026-08-05T12:02:58Z</time>
      </trkpt>
      <trkpt lat="39.91345424013559" lon="116.19967991409749">
        <ele>62.00592041015625</ele>
        <time>2026-08-05T12:03:16Z</time>
      </trkpt>
      <trkpt lat="39.9132842805827" lon="116.19970298686239">
        <ele>62.734130859375</ele>
        <time>2026-08-05T12:03:28Z</time>
      </trkpt>
      <trkpt lat="39.913203252196375" lon="116.19968094772527">
        <ele>61.58856201171875</ele>
        <time>2026-08-05T12:03:34Z</time>
      </trkpt>
      <trkpt lat="39.91289826510679" lon="116.19968098586564">
        <ele>62.268798828125</ele>
        <time>2026-08-05T12:03:55Z</time>
      </trkpt>
      <trkpt lat="39.91263324451072" lon="116.19965896972204">
        <ele>60.8369140625</ele>
        <time>2026-08-05T12:04:13Z</time>
      </trkpt>
      <trkpt lat="39.912586205982585" lon="116.19963091285469">
        <ele>61.0084228515625</ele>
        <time>2026-08-05T12:04:16Z</time>
      </trkpt>
      <trkpt lat="39.912622656998444" lon="116.19925306094721">
        <ele>61.80560302734375</ele>
        <time>2026-08-05T12:04:31Z</time>
      </trkpt>
      <trkpt lat="39.912645048043345" lon="116.19883611784144">
        <ele>59.77606201171875</ele>
        <time>2026-08-05T12:04:49Z</time>
      </trkpt>
      <trkpt lat="39.91264881147433" lon="116.19867475197358">
        <ele>59.8612060546875</ele>
        <time>2026-08-05T12:04:55Z</time>
      </trkpt>
      <trkpt lat="39.91262548843354" lon="116.1984542542632">
        <ele>60.4539794921875</ele>
        <time>2026-08-05T12:05:04Z</time>
      </trkpt>
      <trkpt lat="39.91264289713954" lon="116.19805434024218">
        <ele>61.61309814453125</ele>
        <time>2026-08-05T12:05:19Z</time>
      </trkpt>
      <trkpt lat="39.9126336001263" lon="116.1978538824687">
        <ele>57.12860107421875</ele>
        <time>2026-08-05T12:05:28Z</time>
      </trkpt>
      <trkpt lat="39.912645316239264" lon="116.19766344386265">
        <ele>58.14208984375</ele>
        <time>2026-08-05T12:05:34Z</time>
      </trkpt>
      <trkpt lat="39.912602678151515" lon="116.19723546272105">
        <ele>59.7034912109375</ele>
        <time>2026-08-05T12:05:49Z</time>
      </trkpt>
      <trkpt lat="39.912611050412615" lon="116.19681849525108">
        <ele>62.04864501953125</ele>
        <time>2026-08-05T12:06:07Z</time>
      </trkpt>
      <trkpt lat="39.91260843904766" lon="116.19641455436769">
        <ele>56.97528076171875</ele>
        <time>2026-08-05T12:06:25Z</time>
      </trkpt>
      <trkpt lat="39.912610820811736" lon="116.19600860329611">
        <ele>60.155517578125</ele>
        <time>2026-08-05T12:06:40Z</time>
      </trkpt>
      <trkpt lat="39.91263125362725" lon="116.1956387302535">
        <ele>59.13092041015625</ele>
        <time>2026-08-05T12:06:55Z</time>
      </trkpt>
      <trkpt lat="39.912623905628784" lon="116.1954121960601">
        <ele>58.72601318359375</ele>
        <time>2026-08-05T12:07:04Z</time>
      </trkpt>
      <trkpt lat="39.9126407828993" lon="116.19533300654341">
        <ele>57.2923583984375</ele>
        <time>2026-08-05T12:07:07Z</time>
      </trkpt>
      <trkpt lat="39.91263239935346" lon="116.19508441811244">
        <ele>60.89605712890625</ele>
        <time>2026-08-05T12:07:16Z</time>
      </trkpt>
      <trkpt lat="39.91264994491665" lon="116.19479171957862">
        <ele>61.4713134765625</ele>
        <time>2026-08-05T12:07:28Z</time>
      </trkpt>
      <trkpt lat="39.91260861770571" lon="116.19458022006077">
        <ele>61.028076171875</ele>
        <time>2026-08-05T12:07:37Z</time>
      </trkpt>
      <trkpt lat="39.91261806486741" lon="116.19422637171077">
        <ele>61.57647705078125</ele>
        <time>2026-08-05T12:07:49Z</time>
      </trkpt>
      <trkpt lat="39.91262791376284" lon="116.19413013947894">
        <ele>61.128173828125</ele>
        <time>2026-08-05T12:07:52Z</time>
      </trkpt>
      <trkpt lat="39.91259833088409" lon="116.19375824804985">
        <ele>60.38006591796875</ele>
        <time>2026-08-05T12:08:07Z</time>
      </trkpt>
      <trkpt lat="39.91260974344851" lon="116.19338634767105">
        <ele>60.049560546875</ele>
        <time>2026-08-05T12:08:23Z</time>
      </trkpt>
      <trkpt lat="39.91262427890386" lon="116.19309363566612">
        <ele>58.73480224609375</ele>
        <time>2026-08-05T12:08:35Z</time>
      </trkpt>
      <trkpt lat="39.912650105785225" lon="116.19298536917202">
        <ele>62.97601318359375</ele>
        <time>2026-08-05T12:08:41Z</time>
      </trkpt>
      <trkpt lat="39.91263078902387" lon="116.19278588568723">
        <ele>64.2186279296875</ele>
        <time>2026-08-05T12:08:56Z</time>
      </trkpt>
    </trkseg>
  </trk>
</gpx>