<?xml version="1.0" encoding="UTF-8"?>
<gpx xmlns="http://www.topografix.com/GPX/1/1" xmlns:gpxtpx="http://www.garmin.com/xmlschemas/TrackPointExtension/v1" xmlns:xsi="http://www.w3.org/2001/XMLSchema-instance" xsi:schemaLocation="http://www.topografix.com/GPX/1/1 http://www.topografix.com/GPX/1/1/gpx.xsd" version="1.1" creator="gpx.py -- https://github.com/tkrajina/gpxpy">
  <trk>
    <name>gpx from keep</name>
    <type>Run</type>
    <trkseg>
      <trkpt lat="38.86905545969948" lon="115.4765692531726">
        <ele>17.32061767578125</ele>
        <time>2026-08-29T12:24:53Z</time>
      </trkpt>
      <trkpt lat="38.86904603766103" lon="115.4767690135404">
        <ele>15.40203857421875</ele>
        <time>2026-08-29T12:25:05Z</time>
      </trkpt>
      <trkpt lat="38.86901122131714" lon="115.47682623541708">
        <ele>13.06011962890625</ele>
        <time>2026-08-29T12:25:08Z</time>
      </trkpt>
      <trkpt lat="38.86897268948139" lon="115.47698183218307">
        <ele>11.873809814453125</ele>
        <time>2026-08-29T12:25:14Z</time>
      </trkpt>
      <trkpt lat="38.86900722950448" lon="115.47717656957835">
        <ele>10.449127197265625</ele>
        <time>2026-08-29T12:25:23Z</time>
      </trkpt>
      <trkpt lat="38.869016263832016" lon="115.47753794655398">
        <ele>9.239593505859375</ele>
        <time>2026-08-29T12:25:38Z</time>
      </trkpt>
      <trkpt lat="38.86900989476259" lon="115.47775577916138">
        <ele>8.083770751953125</ele>
        <time>2026-08-29T12:25:47Z</time>
      </trkpt>
      <trkpt lat="38.86903848644436" lon="115.47796658145434">
        <ele>8.7899169921875</ele>
        <time>2026-08-29T12:25:56Z</time>
      </trkpt>
      <trkpt lat="38.86904649317832" lon="115.47831692137343">
        <ele>5.602996826171875</ele>
        <time>2026-08-29T12:26:14Z</time>
      </trkpt>
      <trkpt lat="38.869030317568175" lon="115.47859900454436">
        <ele>4.234649658203125</ele>
        <time>2026-08-29T12:26:26Z</time>
      </trkpt>
      <trkpt lat="38.86905451016686" lon="115.47867027497416">
        <ele>4.4136962890625</ele>
        <time>2026-08-29T12:26:29Z</time>
      </trkpt>
      <trkpt lat="38.86914977047291" lon="115.47877867932574">
        <ele>7.12445068359375</ele>
        <time>2026-08-29T12:26:35Z</time>
      </trkpt>
      <trkpt lat="38.86925986274331" lon="115.47883187005944">
        <ele>7.6514892578125</ele>
        <time>2026-08-29T12:26:41Z</time>
      </trkpt>
      <trkpt lat="38.869336866056706" lon="115.47884792227941">
        <ele>7.360321044921875</ele>
        <time>2026-08-29T12:26:47Z</time>
      </trkpt>
      <trkpt lat="38.86943176342377" lon="115.47883084511633">
        <ele>8.7049560546875</ele>
        <time>2026-08-29T12:26:53Z</time>
      </trkpt>
      <trkpt lat="38.86973195546584" lon="115.47895528631967">
        <ele>7.80767822265625</ele>
        <time>2026-08-29T12:27:05Z</time>
      </trkpt>
      <trkpt lat="38.86988203700275" lon="115.47901248773583">
        <ele>7.502227783203125</ele>
        <time>2026-08-29T12:27:14Z</time>
      </trkpt>
      <trkpt lat="38.87004901599808" lon="115.47903756368471">
        <ele>12.41546630859375</ele>
        <time>2026-08-29T12:27:23Z</time>
      </trkpt>
      <trkpt lat="38.87011295683802" lon="115.47902952498103">
        <ele>9.858245849609375</ele>
        <time>2026-08-29T12:27:26Z</time>
      </trkpt>
      <trkpt lat="38.87021769156686" lon="115.47895823829887">
        <ele>8.595428466796875</ele>
        <time>2026-08-29T12:27:32Z</time>
      </trkpt>
      <trkpt lat="38.87028730074671" lon="115.47883676327997">
        <ele>7.06903076171875</ele>
        <time>2026-08-29T12:27:38Z</time>
      </trkpt>
      <trkpt lat="38.87032492088392" lon="115.47836695678187">
        <ele>4.967376708984375</ele>
        <time>2026-08-29T12:27:56Z</time>
      </trkpt>
      <trkpt lat="38.87035204191582" lon="115.47806780808315">
        <ele>4.842254638671875</ele>
        <time>2026-08-29T12:28:08Z</time>
      </trkpt>
      <trkpt lat="38.87044796638201" lon="115.47771344158379">
        <ele>4.3629150390625</ele>
        <time>2026-08-29T12:28:23Z</time>
      </trkpt>
      <trkpt lat="38.87049794716068" lon="115.47736912125781">
        <ele>3.669891357421875</ele>
        <time>2026-08-29T12:28:38Z</time>
      </trkpt>
      <trkpt lat="38.8705438194141" lon="115.47698565456298">
        <ele>7.470794677734375</ele>
        <time>2026-08-29T12:28:53Z</time>
      </trkpt>
      <trkpt lat="38.87059179606897" lon="115.47663832766982">
        <ele>6.93902587890625</ele>
        <time>2026-08-29T12:29:08Z</time>
      </trkpt>
      <trkpt lat="38.870590201653634" lon="115.47643053865016">
        <ele>8.327972412109375</ele>
        <time>2026-08-29T12:29:17Z</time>
      </trkpt>
      <trkpt lat="38.870558041528064" lon="115.4763683063779">
        <ele>8.52972412109375</ele>
        <time>2026-08-29T12:29:20Z</time>
      </trkpt>
      <trkpt lat="38.87044890744732" lon="115.47630006078562">
        <ele>8.61065673828125</ele>
        <time>2026-08-29T12:29:26Z</time>
      </trkpt>
      <trkpt lat="38.870331950140105" lon="115.47629204468619">
        <ele>8.96612548828125</ele>
        <time>2026-08-29T12:29:32Z</time>
      </trkpt>
      <trkpt lat="38.87022609575178" lon="115.47632217193389">
        <ele>8.87884521484375</ele>
        <time>2026-08-29T12:29:38Z</time>
      </trkpt>
      <trkpt lat="38.87001846804709" lon="115.47641153646825">
        <ele>7.12506103515625</ele>
        <time>2026-08-29T12:29:50Z</time>
      </trkpt>
      <trkpt lat="38.86989094501654" lon="115.47655308956449">
        <ele>8.519195556640625</ele>
        <time>2026-08-29T12:29:59Z</time>
      </trkpt>
      <trkpt lat="38.8697291738671" lon="115.47660129247427">
        <ele>8.76104736328125</ele>
        <time>2026-08-29T12:30:08Z</time>
      </trkpt>
      <trkpt lat="38.86941735742931" lon="115.4766043422069">
        <ele>10.1302490234375</ele>
        <time>2026-08-29T12:30:29Z</time>
      </trkpt>
      <trkpt lat="38.86919644967923" lon="115.4765933273822">
        <ele>10.389068603515625</ele>
        <time>2026-08-29T12:30:38Z</time>
      </trkpt>
      <trkpt lat="38.869119538836486" lon="115.47660939784814">
        <ele>10.22454833984375</ele>
        <time>2026-08-29T12:30:41Z</time>
      </trkpt>
      <trkpt lat="38.869005867309944" lon="115.47670176277468">
        <ele>9.659698486328125</ele>
        <time>2026-08-29T12:30:47Z</time>
      </trkpt>
      <trkpt lat="38.86894326805439" lon="115.47682925521511">
        <ele>8.26800537109375</ele>
        <time>2026-08-29T12:30:53Z</time>
      </trkpt>
      <trkpt lat="38.868924748062454" lon="115.47699288010175">
        <ele>9.211029052734375</ele>
        <time>2026-08-29T12:30:59Z</time>
      </trkpt>
      <trkpt lat="38.86892994982164" lon="115.47706415081912">
        <ele>8.54840087890625</ele>
        <time>2026-08-29T12:31:02Z</time>
      </trkpt>
      <trkpt lat="38.8689834217341" lon="115.47723880966701">
        <ele>8.423187255859375</ele>
        <time>2026-08-29T12:31:11Z</time>
      </trkpt>
      <trkpt lat="38.86900351953363" lon="115.47762427767955">
        <ele>10.30548095703125</ele>
        <time>2026-08-29T12:31:26Z</time>
      </trkpt>
      <trkpt lat="38.868998332372044" lon="115.47790535223459">
        <ele>10.267669677734375</ele>
        <time>2026-08-29T12:31:38Z</time>
      </trkpt>
      <trkpt lat="38.86904177129463" lon="115.47806596120277">
        <ele>9.1231689453125</ele>
        <time>2026-08-29T12:31:50Z</time>
      </trkpt>
      <trkpt lat="38.86916876960453" lon="115.47809003780179">
        <ele>9.659942626953125</ele>
        <time>2026-08-29T12:31:59Z</time>
      </trkpt>
      <trkpt lat="38.869198996033575" lon="115.47817435681793">
        <ele>10.10736083984375</ele>
        <time>2026-08-29T12:32:02Z</time>
      </trkpt>
      <trkpt lat="38.86917536292635" lon="115.47829682865961">
        <ele>9.080535888671875</ele>
        <time>2026-08-29T12:32:08Z</time>
      </trkpt>
      <trkpt lat="38.86904213386739" lon="115.47853776827256">
        <ele>6.045501708984375</ele>
        <time>2026-08-29T12:32:29Z</time>
      </trkpt>
      <trkpt lat="38.869034367558186" lon="115.47861707335146">
        <ele>6.2862548828125</ele>
        <time>2026-08-29T12:32:32Z</time>
      </trkpt>
      <trkpt lat="38.86905860661816" lon="115.47870440542518">
        <ele>6.066497802734375</ele>
        <time>2026-08-29T12:32:35Z</time>
      </trkpt>
      <trkpt lat="38.86915587746569" lon="115.47881682500785">
        <ele>6.812744140625</ele>
        <time>2026-08-29T12:32:41Z</time>
      </trkpt>
      <trkpt lat="38.86943285871817" lon="115.47886397217421">
        <ele>10.496551513671875</ele>
        <time>2026-08-29T12:32:56Z</time>
      </trkpt>
      <trkpt lat="38.86975592457083" lon="115.47894926024267">
        <ele>7.582305908203125</ele>
        <time>2026-08-29T12:33:11Z</time>
      </trkpt>
      <trkpt lat="38.86992802282838" lon="115.47901649752308">
        <ele>6.82183837890625</ele>
        <time>2026-08-29T12:33:20Z</time>
      </trkpt>
      <trkpt lat="38.87009293026958" lon="115.47901647729297">
        <ele>9.864654541015625</ele>
        <time>2026-08-29T12:33:29Z</time>
      </trkpt>
      <trkpt lat="38.8702216747924" lon="115.47895321852934">
        <ele>9.960418701171875</ele>
        <time>2026-08-29T12:33:35Z</time>
      </trkpt>
      <trkpt lat="38.870269490953746" lon="115.47889900445648">
        <ele>9.025665283203125</ele>
        <time>2026-08-29T12:33:38Z</time>
      </trkpt>
      <trkpt lat="38.87029430843713" lon="115.47884077783708">
        <ele>8.412384033203125</ele>
        <time>2026-08-29T12:33:41Z</time>
      </trkpt>
      <trkpt lat="38.87031923738726" lon="115.47847537296337">
        <ele>6.55010986328125</ele>
        <time>2026-08-29T12:33:56Z</time>
      </trkpt>
      <trkpt lat="38.8703015251958" lon="115.47822541752149">
        <ele>7.641265869140625</ele>
        <time>2026-08-29T12:34:05Z</time>
      </trkpt>
      <trkpt lat="38.870390403705564" lon="115.47785398566711">
        <ele>8.635009765625</ele>
        <time>2026-08-29T12:34:20Z</time>
      </trkpt>
      <trkpt lat="38.8704832442215" lon="115.47746950598655">
        <ele>8.59442138671875</ele>
        <time>2026-08-29T12:34:35Z</time>
      </trkpt>
      <trkpt lat="38.870501014738714" lon="115.47739321276616">
        <ele>8.366607666015625</ele>
        <time>2026-08-29T12:34:38Z</time>
      </trkpt>
      <trkpt lat="38.87053483886862" lon="115.4769906747719">
        <ele>9.36688232421875</ele>
        <time>2026-08-29T12:34:53Z</time>
      </trkpt>
      <trkpt lat="38.870603717443934" lon="115.47661323084613">
        <ele>10.062042236328125</ele>
        <time>2026-08-29T12:35:08Z</time>
      </trkpt>
      <trkpt lat="38.87060727830208" lon="115.47646065088071">
        <ele>10.38494873046875</ele>
        <time>2026-08-29T12:35:14Z</time>
      </trkpt>
      <trkpt lat="38.87058807925817" lon="115.47638737507144">
        <ele>11.099334716796875</ele>
        <time>2026-08-29T12:35:17Z</time>
      </trkpt>
      <trkpt lat="38.870537949373414" lon="115.47633217171875">
        <ele>11.27703857421875</ele>
        <time>2026-08-29T12:35:20Z</time>
      </trkpt>
      <trkpt lat="38.87040990636766" lon="115.4762920351116">
        <ele>10.723388671875</ele>
        <time>2026-08-29T12:35:26Z</time>
      </trkpt>
      <trkpt lat="38.870106298044924" lon="115.47636936566865">
        <ele>7.057525634765625</ele>
        <time>2026-08-29T12:35:41Z</time>
      </trkpt>
      <trkpt lat="38.869950782021746" lon="115.47650791065259">
        <ele>8.88177490234375</ele>
        <time>2026-08-29T12:35:50Z</time>
      </trkpt>
      <trkpt lat="38.86988608006505" lon="115.4765992655783">
        <ele>8.347137451171875</ele>
        <time>2026-08-29T12:35:56Z</time>
      </trkpt>
      <trkpt lat="38.86957723897385" lon="115.47659428443534">
        <ele>10.4095458984375</ele>
        <time>2026-08-29T12:36:11Z</time>
      </trkpt>
      <trkpt lat="38.869517220864545" lon="115.47657622316159">
        <ele>10.027099609375</ele>
        <time>2026-08-29T12:36:17Z</time>
      </trkpt>
      <trkpt lat="38.86952587955524" lon="115.47645877606475">
        <ele>9.907745361328125</ele>
        <time>2026-08-29T12:36:23Z</time>
      </trkpt>
      <trkpt lat="38.86956268069797" lon="115.47639653529286">
        <ele>10.835296630859375</ele>
        <time>2026-08-29T12:36:26Z</time>
      </trkpt>
      <trkpt lat="38.869521647074386" lon="115.47602713960552">
        <ele>6.168487548828125</ele>
        <time>2026-08-29T12:36:41Z</time>
      </trkpt>
      <trkpt lat="38.86956747221122" lon="115.47562461069471">
        <ele>6.63604736328125</ele>
        <time>2026-08-29T12:36:56Z</time>
      </trkpt>
      <trkpt lat="38.8695742794818" lon="115.47555835945325">
        <ele>6.111602783203125</ele>
        <time>2026-08-29T12:36:59Z</time>
      </trkpt>
      <trkpt lat="38.869634051380885" lon="115.47549009420892">
        <ele>6.95172119140625</ele>
        <time>2026-08-29T12:37:05Z</time>
      </trkpt>
      <trkpt lat="38.86987294022223" lon="115.47549809519595">
        <ele>7.21990966796875</ele>
        <time>2026-08-29T12:37:17Z</time>
      </trkpt>
      <trkpt lat="38.86993085908444" lon="115.47548102361647">
        <ele>7.119171142578125</ele>
        <time>2026-08-29T12:37:20Z</time>
      </trkpt>
      <trkpt lat="38.87021677583706" lon="115.47550809087508">
        <ele>5.26409912109375</ele>
        <time>2026-08-29T12:37:38Z</time>
      </trkpt>
      <trkpt lat="38.870365677930714" lon="115.47550305361926">
        <ele>4.59088134765625</ele>
        <time>2026-08-29T12:37:44Z</time>
      </trkpt>
      <trkpt lat="38.87048668723143" lon="115.47553014115088">
        <ele>6.08575439453125</ele>
        <time>2026-08-29T12:37:50Z</time>
      </trkpt>
      <trkpt lat="38.87054360948444" lon="115.47551407347467">
        <ele>5.680511474609375</ele>
        <time>2026-08-29T12:37:53Z</time>
      </trkpt>
      <trkpt lat="38.87062961840464" lon="115.47553413876177">
        <ele>5.4798583984375</ele>
        <time>2026-08-29T12:37:59Z</time>
      </trkpt>
      <trkpt lat="38.870759408170244" lon="115.47548594077863">
        <ele>6.215240478515625</ele>
        <time>2026-08-29T12:38:05Z</time>
      </trkpt>
      <trkpt lat="38.87081027376001" lon="115.47544879424076">
        <ele>6.309173583984375</ele>
        <time>2026-08-29T12:38:08Z</time>
      </trkpt>
      <trkpt lat="38.87096417299606" lon="115.47544375637588">
        <ele>5.1854248046875</ele>
        <time>2026-08-29T12:38:17Z</time>
      </trkpt>
      <trkpt lat="38.87107918559826" lon="115.47547084461196">
        <ele>4.011077880859375</ele>
        <time>2026-08-29T12:38:23Z</time>
      </trkpt>
      <trkpt lat="38.87140102473751" lon="115.47547783161062">
        <ele>10.82470703125</ele>
        <time>2026-08-29T12:38:35Z</time>
      </trkpt>
      <trkpt lat="38.87173688739684" lon="115.47549585859988">
        <ele>8.45623779296875</ele>
        <time>2026-08-29T12:38:50Z</time>
      </trkpt>
      <trkpt lat="38.87202961119863" lon="115.47545667475192">
        <ele>7.534515380859375</ele>
        <time>2026-08-29T12:39:05Z</time>
      </trkpt>
      <trkpt lat="38.87208057394967" lon="115.4754536571158">
        <ele>8.89434814453125</ele>
        <time>2026-08-29T12:39:08Z</time>
      </trkpt>
      <trkpt lat="38.87214460943603" lon="115.47547874403817">
        <ele>8.83197021484375</ele>
        <time>2026-08-29T12:39:11Z</time>
      </trkpt>
      <trkpt lat="38.87219871632188" lon="115.47552691942371">
        <ele>9.218719482421875</ele>
        <time>2026-08-29T12:39:14Z</time>
      </trkpt>
      <trkpt lat="38.87227424066306" lon="115.47572566152726">
        <ele>8.358612060546875</ele>
        <time>2026-08-29T12:39:23Z</time>
      </trkpt>
      <trkpt lat="38.87245076895413" lon="115.47594547183382">
        <ele>6.245880126953125</ele>
        <time>2026-08-29T12:39:35Z</time>
      </trkpt>
      <trkpt lat="38.87250076375796" lon="115.47595349610262">
        <ele>6.7955322265625</ele>
        <time>2026-08-29T12:39:38Z</time>
      </trkpt>
      <trkpt lat="38.87252989649643" lon="115.47600569022393">
        <ele>6.4189453125</ele>
        <time>2026-08-29T12:39:41Z</time>
      </trkpt>
      <trkpt lat="38.872408863115076" lon="115.47631989622099">
        <ele>7.51416015625</ele>
        <time>2026-08-29T12:39:56Z</time>
      </trkpt>
      <trkpt lat="38.87229484444208" lon="115.47664012615138">
        <ele>8.847198486328125</ele>
        <time>2026-08-29T12:40:14Z</time>
      </trkpt>
      <trkpt lat="38.872222483954786" lon="115.47684892891981">
        <ele>8.75079345703125</ele>
        <time>2026-08-29T12:40:26Z</time>
      </trkpt>
      <trkpt lat="38.872141391401115" lon="115.47714908151713">
        <ele>5.642364501953125</ele>
        <time>2026-08-29T12:40:41Z</time>
      </trkpt>
      <trkpt lat="38.872089769554115" lon="115.47727055073676">
        <ele>6.9713134765625</ele>
        <time>2026-08-29T12:40:47Z</time>
      </trkpt>
      <trkpt lat="38.87198352235945" lon="115.47751148269334">
        <ele>5.755889892578125</ele>
        <time>2026-08-29T12:40:59Z</time>
      </trkpt>
      <trkpt lat="38.871851712741616" lon="115.47789897899334">
        <ele>6.943939208984375</ele>
        <time>2026-08-29T12:41:17Z</time>
      </trkpt>
      <trkpt lat="38.87169783049371" lon="115.47825636532785">
        <ele>6.054290771484375</ele>
        <time>2026-08-29T12:41:35Z</time>
      </trkpt>
      <trkpt lat="38.87156186428979" lon="115.47858765157488">
        <ele>9.45703125</ele>
        <time>2026-08-29T12:41:50Z</time>
      </trkpt>
      <trkpt lat="38.87145769842871" lon="115.47885569291793">
        <ele>9.550079345703125</ele>
        <time>2026-08-29T12:42:02Z</time>
      </trkpt>
      <trkpt lat="38.87134473917577" lon="115.47919300285675">
        <ele>10.1060791015625</ele>
        <time>2026-08-29T12:42:17Z</time>
      </trkpt>
      <trkpt lat="38.87122080201322" lon="115.47953533533872">
        <ele>9.430206298828125</ele>
        <time>2026-08-29T12:42:32Z</time>
      </trkpt>
      <trkpt lat="38.87108885319688" lon="115.47987164745895">
        <ele>6.821533203125</ele>
        <time>2026-08-29T12:42:47Z</time>
      </trkpt>
      <trkpt lat="38.870947989569785" lon="115.48023506711885">
        <ele>6.86614990234375</ele>
        <time>2026-08-29T12:43:02Z</time>
      </trkpt>
      <trkpt lat="38.87080906192576" lon="115.48057640316038">
        <ele>5.705810546875</ele>
        <time>2026-08-29T12:43:17Z</time>
      </trkpt>
      <trkpt lat="38.87068607676713" lon="115.48090067291629">
        <ele>4.4720458984375</ele>
        <time>2026-08-29T12:43:32Z</time>
      </trkpt>
      <trkpt lat="38.87055909495324" lon="115.4812249447045">
        <ele>5.250732421875</ele>
        <time>2026-08-29T12:43:47Z</time>
      </trkpt>
      <trkpt lat="38.87051442807742" lon="115.48133035887567">
        <ele>4.058319091796875</ele>
        <time>2026-08-29T12:43:53Z</time>
      </trkpt>
      <trkpt lat="38.87044871149475" lon="115.48141469400089">
        <ele>1.597808837890625</ele>
        <time>2026-08-29T12:43:59Z</time>
      </trkpt>
      <trkpt lat="38.87034975970337" lon="115.48175402321152">
        <ele>4.136474609375</ele>
        <time>2026-08-29T12:44:11Z</time>
      </trkpt>
      <trkpt lat="38.87023074088203" lon="115.48206625107437">
        <ele>4.6575927734375</ele>
        <time>2026-08-29T12:44:26Z</time>
      </trkpt>
      <trkpt lat="38.8700888771618" lon="115.4824266706257">
        <ele>4.744537353515625</ele>
        <time>2026-08-29T12:44:44Z</time>
      </trkpt>
      <trkpt lat="38.87000063965174" lon="115.48266962759533">
        <ele>7.8475341796875</ele>
        <time>2026-08-29T12:44:56Z</time>
      </trkpt>
      <trkpt lat="38.86999083379807" lon="115.48273387914854">
        <ele>7.96551513671875</ele>
        <time>2026-08-29T12:44:59Z</time>
      </trkpt>
      <trkpt lat="38.86991930442422" lon="115.48288045922239">
        <ele>7.910736083984375</ele>
        <time>2026-08-29T12:45:08Z</time>
      </trkpt>
      <trkpt lat="38.869883763894656" lon="115.48303004690781">
        <ele>9.779754638671875</ele>
        <time>2026-08-29T12:45:14Z</time>
      </trkpt>
      <trkpt lat="38.86983010090904" lon="115.48313446080381">
        <ele>10.279541015625</ele>
        <time>2026-08-29T12:45:20Z</time>
      </trkpt>
      <trkpt lat="38.86973491607799" lon="115.48339348351769">
        <ele>10.4716796875</ele>
        <time>2026-08-29T12:45:32Z</time>
      </trkpt>
      <trkpt lat="38.86957303824907" lon="115.48374387229947">
        <ele>9.64654541015625</ele>
        <time>2026-08-29T12:45:50Z</time>
      </trkpt>
      <trkpt lat="38.86942908034118" lon="115.48407016604237">
        <ele>7.473052978515625</ele>
        <time>2026-08-29T12:46:08Z</time>
      </trkpt>
      <trkpt lat="38.86939120220754" lon="115.48410430425142">
        <ele>7.542724609375</ele>
        <time>2026-08-29T12:46:47Z</time>
      </trkpt>
      <trkpt lat="38.869266343266915" lon="115.48412841382867">
        <ele>3.469512939453125</ele>
        <time>2026-08-29T12:46:59Z</time>
      </trkpt>
      <trkpt lat="38.86925093217359" lon="115.4843251860319">
        <ele>4.632293701171875</ele>
        <time>2026-08-29T12:47:08Z</time>
      </trkpt>
      <trkpt lat="38.8691455925507" lon="115.4845289972074">
        <ele>4.307952880859375</ele>
        <time>2026-08-29T12:47:20Z</time>
      </trkpt>
      <trkpt lat="38.86913779545308" lon="115.48459626173472">
        <ele>4.115234375</ele>
        <time>2026-08-29T12:47:23Z</time>
      </trkpt>
      <trkpt lat="38.86901486050812" lon="115.48493359931301">
        <ele>5.668060302734375</ele>
        <time>2026-08-29T12:47:38Z</time>
      </trkpt>
      <trkpt lat="38.86894952014243" lon="115.48514443450273">
        <ele>6.681915283203125</ele>
        <time>2026-08-29T12:47:47Z</time>
      </trkpt>
      <trkpt lat="38.86893888521653" lon="115.48526591263466">
        <ele>7.719879150390625</ele>
        <time>2026-08-29T12:47:53Z</time>
      </trkpt>
      <trkpt lat="38.868781531587395" lon="115.48545467304204">
        <ele>7.550445556640625</ele>
        <time>2026-08-29T12:48:05Z</time>
      </trkpt>
      <trkpt lat="38.86873066403932" lon="115.48548981728528">
        <ele>7.339935302734375</ele>
        <time>2026-08-29T12:48:08Z</time>
      </trkpt>
      <trkpt lat="38.868670021782165" lon="115.48559925461794">
        <ele>7.76715087890625</ele>
        <time>2026-08-29T12:48:14Z</time>
      </trkpt>
      <trkpt lat="38.86860067570454" lon="115.48580707986646">
        <ele>7.45074462890625</ele>
        <time>2026-08-29T12:48:23Z</time>
      </trkpt>
      <trkpt lat="38.86847513544034" lon="115.48593861232608">
        <ele>7.366943359375</ele>
        <time>2026-08-29T12:48:32Z</time>
      </trkpt>
      <trkpt lat="38.868368935384225" lon="115.48618860865855">
        <ele>9.01873779296875</ele>
        <time>2026-08-29T12:48:44Z</time>
      </trkpt>
      <trkpt lat="38.868350493122115" lon="115.48637333793344">
        <ele>9.9964599609375</ele>
        <time>2026-08-29T12:48:53Z</time>
      </trkpt>
      <trkpt lat="38.86822462035819" lon="115.48672975686193">
        <ele>10.737030029296875</ele>
        <time>2026-08-29T12:49:11Z</time>
      </trkpt>
      <trkpt lat="38.868143413441075" lon="115.48698175981644">
        <ele>10.321136474609375</ele>
        <time>2026-08-29T12:49:23Z</time>
      </trkpt>
      <trkpt lat="38.86811056888615" lon="115.48702794587858">
        <ele>9.946990966796875</ele>
        <time>2026-08-29T12:49:26Z</time>
      </trkpt>
      <trkpt lat="38.86809675837804" lon="115.48708918900465">
        <ele>10.69097900390625</ele>
        <time>2026-08-29T12:49:29Z</time>
      </trkpt>
      <trkpt lat="38.86812713474472" lon="115.48722170785383">
        <ele>10.611328125</ele>
        <time>2026-08-29T12:49:35Z</time>
      </trkpt>
      <trkpt lat="38.868017174229735" lon="115.48755102039469">
        <ele>9.66741943359375</ele>
        <time>2026-08-29T12:49:53Z</time>
      </trkpt>
      <trkpt lat="38.867941681802925" lon="115.4877076477843">
        <ele>10.311248779296875</ele>
        <time>2026-08-29T12:50:02Z</time>
      </trkpt>
      <trkpt lat="38.8679017906522" lon="115.48773676759475">
        <ele>9.34552001953125</ele>
        <time>2026-08-29T12:50:05Z</time>
      </trkpt>
      <trkpt lat="38.86759772225061" lon="115.48765648770352">
        <ele>6.5516357421875</ele>
        <time>2026-08-29T12:50:23Z</time>
      </trkpt>
      <trkpt lat="38.86732955023141" lon="115.48754809254058">
        <ele>3.09381103515625</ele>
        <time>2026-08-29T12:50:38Z</time>
      </trkpt>
      <trkpt lat="38.867057291066274" lon="115.48740957914382">
        <ele>4.038421630859375</ele>
        <time>2026-08-29T12:50:53Z</time>
      </trkpt>
      <trkpt lat="38.866750081310414" lon="115.4872811097722">
        <ele>2.04150390625</ele>
        <time>2026-08-29T12:51:11Z</time>
      </trkpt>
      <trkpt lat="38.866489884043254" lon="115.48716568625576">
        <ele>-1.098052978515625</ele>
        <time>2026-08-29T12:51:26Z</time>
      </trkpt>
      <trkpt lat="38.866176576456475" lon="115.48700308333476">
        <ele>-0.6280517578125</ele>
        <time>2026-08-29T12:51:44Z</time>
      </trkpt>
      <trkpt lat="38.86587330207017" lon="115.48685353084318">
        <ele>0.062255859375</ele>
        <time>2026-08-29T12:51:59Z</time>
      </trkpt>
      <trkpt lat="38.865598056763936" lon="115.48671903444428">
        <ele>4.824554443359375</ele>
        <time>2026-08-29T12:52:14Z</time>
      </trkpt>
      <trkpt lat="38.86530969679112" lon="115.48654337771247">
        <ele>7.28021240234375</ele>
        <time>2026-08-29T12:52:29Z</time>
      </trkpt>
      <trkpt lat="38.8650234458733" lon="115.48640486722444">
        <ele>6.13067626953125</ele>
        <time>2026-08-29T12:52:44Z</time>
      </trkpt>
      <trkpt lat="38.86474521434564" lon="115.48627438753991">
        <ele>5.77734375</ele>
        <time>2026-08-29T12:52:59Z</time>
      </trkpt>
      <trkpt lat="38.864481962622044" lon="115.4861398903844">
        <ele>6.05615234375</ele>
        <time>2026-08-29T12:53:14Z</time>
      </trkpt>
      <trkpt lat="38.864442817915204" lon="115.48608367400337">
        <ele>6.050140380859375</ele>
        <time>2026-08-29T12:53:20Z</time>
      </trkpt>
      <trkpt lat="38.864574739557206" lon="115.48574432360375">
        <ele>6.3916015625</ele>
        <time>2026-08-29T12:53:35Z</time>
      </trkpt>
      <trkpt lat="38.86459129654262" lon="115.48559774558055">
        <ele>5.6009521484375</ele>
        <time>2026-08-29T12:53:41Z</time>
      </trkpt>
      <trkpt lat="38.8647142391269" lon="115.4852634175902">
        <ele>3.240234375</ele>
        <time>2026-08-29T12:53:56Z</time>
      </trkpt>
      <trkpt lat="38.86478659040943" lon="115.48505760102867">
        <ele>3.41253662109375</ele>
        <time>2026-08-29T12:54:05Z</time>
      </trkpt>
      <trkpt lat="38.8649404814181" lon="115.4847112238814">
        <ele>5.331146240234375</ele>
        <time>2026-08-29T12:54:20Z</time>
      </trkpt>
      <trkpt lat="38.865053369541684" lon="115.48435581765501">
        <ele>6.1572265625</ele>
        <time>2026-08-29T12:54:35Z</time>
      </trkpt>
      <trkpt lat="38.86516731130767" lon="115.48401848339745">
        <ele>7.566986083984375</ele>
        <time>2026-08-29T12:54:50Z</time>
      </trkpt>
      <trkpt lat="38.865301284182074" lon="115.48369520292387">
        <ele>9.398345947265625</ele>
        <time>2026-08-29T12:55:05Z</time>
      </trkpt>
      <trkpt lat="38.86534586914122" lon="115.4835626796283">
        <ele>8.967803955078125</ele>
        <time>2026-08-29T12:55:11Z</time>
      </trkpt>
      <trkpt lat="38.865415517057826" lon="115.48345625541455">
        <ele>8.3662109375</ele>
        <time>2026-08-29T12:55:17Z</time>
      </trkpt>
      <trkpt lat="38.865536389557676" lon="115.48309583378919">
        <ele>4.577117919921875</ele>
        <time>2026-08-29T12:55:35Z</time>
      </trkpt>
      <trkpt lat="38.8656273093983" lon="115.48274545656425">
        <ele>7.470489501953125</ele>
        <time>2026-08-29T12:55:50Z</time>
      </trkpt>
      <trkpt lat="38.86573117305789" lon="115.48237801289761">
        <ele>2.91143798828125</ele>
        <time>2026-08-29T12:56:08Z</time>
      </trkpt>
      <trkpt lat="38.86580109223143" lon="115.48202262199501">
        <ele>3.256805419921875</ele>
        <time>2026-08-29T12:56:23Z</time>
      </trkpt>
      <trkpt lat="38.865855470879865" lon="115.48182083120501">
        <ele>3.696533203125</ele>
        <time>2026-08-29T12:56:32Z</time>
      </trkpt>
      <trkpt lat="38.865895367651426" lon="115.48145139215603">
        <ele>3.870269775390625</ele>
        <time>2026-08-29T12:56:47Z</time>
      </trkpt>
      <trkpt lat="38.865928785557585" lon="115.48125864056618">
        <ele>3.5108642578125</ele>
        <time>2026-08-29T12:56:56Z</time>
      </trkpt>
      <trkpt lat="38.86602876513443" lon="115.48092834869199">
        <ele>9.202850341796875</ele>
        <time>2026-08-29T12:57:11Z</time>
      </trkpt>
      <trkpt lat="38.866111571102024" lon="115.48053481597883">
        <ele>11.96661376953125</ele>
        <time>2026-08-29T12:57:32Z</time>
      </trkpt>
      <trkpt lat="38.86615195189321" lon="115.48033001959377">
        <ele>12.97857666015625</ele>
        <time>2026-08-29T12:57:44Z</time>
      </trkpt>
      <trkpt lat="38.86614277870169" lon="115.48026878418777">
        <ele>12.8563232421875</ele>
        <time>2026-08-29T12:57:47Z</time>
      </trkpt>
      <trkpt lat="38.86617314232715" lon="115.48005595887417">
        <ele>11.842559814453125</ele>
        <time>2026-08-29T12:57:59Z</time>
      </trkpt>
      <trkpt lat="38.866303054062854" lon="115.47970659582862">
        <ele>10.6546630859375</ele>
        <time>2026-08-29T12:58:17Z</time>
      </trkpt>
      <trkpt lat="38.86639591509746" lon="115.47933214270618">
        <ele>8.504302978515625</ele>
        <time>2026-08-29T12:58:35Z</time>
      </trkpt>
      <trkpt lat="38.86647488150975" lon="115.47899082082881">
        <ele>7.062255859375</ele>
        <time>2026-08-29T12:58:50Z</time>
      </trkpt>
      <trkpt lat="38.8665471028763" lon="115.47873583294827">
        <ele>7.13958740234375</ele>
        <time>2026-08-29T12:58:59Z</time>
      </trkpt>
      <trkpt lat="38.866590944748076" lon="115.47868965038397">
        <ele>5.750396728515625</ele>
        <time>2026-08-29T12:59:02Z</time>
      </trkpt>
      <trkpt lat="38.86674696354583" lon="115.47838044580202">
        <ele>3.333465576171875</ele>
        <time>2026-08-29T12:59:17Z</time>
      </trkpt>
      <trkpt lat="38.86690089201431" lon="115.47803912022762">
        <ele>1.957305908203125</ele>
        <time>2026-08-29T12:59:32Z</time>
      </trkpt>
      <trkpt lat="38.867067950542875" lon="115.47774497531258">
        <ele>2.39697265625</ele>
        <time>2026-08-29T12:59:47Z</time>
      </trkpt>
      <trkpt lat="38.86723902526782" lon="115.47745685442786">
        <ele>3.88287353515625</ele>
        <time>2026-08-29T13:00:02Z</time>
      </trkpt>
      <trkpt lat="38.86741100826721" lon="115.47713661256522">
        <ele>5.769561767578125</ele>
        <time>2026-08-29T13:00:20Z</time>
      </trkpt>
      <trkpt lat="38.867579905096434" lon="115.47678525463198">
        <ele>9.318389892578125</ele>
        <time>2026-08-29T13:00:44Z</time>
      </trkpt>
      <trkpt lat="38.867726735488304" lon="115.47640579504599">
        <ele>9.60504150390625</ele>
        <time>2026-08-29T13:01:08Z</time>
      </trkpt>
      <trkpt lat="38.867802880065" lon="115.47612170824547">
        <ele>9.62261962890625</ele>
        <time>2026-08-29T13:01:23Z</time>
      </trkpt>
      <trkpt lat="38.86782335223372" lon="115.47594102124664">
        <ele>9.4595947265625</ele>
        <time>2026-08-29T13:01:32Z</time>
      </trkpt>
      <trkpt lat="38.86784815486195" lon="115.47587677498285">
        <ele>9.18218994140625</ele>
        <time>2026-08-29T13:01:35Z</time>
      </trkpt>
      <trkpt lat="38.86791781495662" lon="115.4757713675748">
        <ele>9.380615234375</ele>
        <time>2026-08-29T13:01:41Z</time>
      </trkpt>
      <trkpt lat="38.86795525564468" lon="115.47558264939383">
        <ele>9.947113037109375</ele>
        <time>2026-08-29T13:01:50Z</time>
      </trkpt>
      <trkpt lat="38.86819003829039" lon="115.47555250674824">
        <ele>10.87042236328125</ele>
        <time>2026-08-29T13:02:05Z</time>
      </trkpt>
      <trkpt lat="38.86847684041144" lon="115.47553942220581">
        <ele>10.592132568359375</ele>
        <time>2026-08-29T13:02:20Z</time>
      </trkpt>
      <trkpt lat="38.868530704363465" lon="115.47550227526487">
        <ele>10.249969482421875</ele>
        <time>2026-08-29T13:02:23Z</time>
      </trkpt>
      <trkpt lat="38.86883949410839" lon="115.47548918803287">
        <ele>7.914825439453125</ele>
        <time>2026-08-29T13:02:38Z</time>
      </trkpt>
      <trkpt lat="38.86895042905872" lon="115.47548817061218">
        <ele>7.4766845703125</ele>
        <time>2026-08-29T13:02:44Z</time>
      </trkpt>
      <trkpt lat="38.86900652063733" lon="115.47553132679153">
        <ele>6.9486083984375</ele>
        <time>2026-08-29T13:02:47Z</time>
      </trkpt>
      <trkpt lat="38.869025727377206" lon="115.47560761274129">
        <ele>8.277496337890625</ele>
        <time>2026-08-29T13:02:50Z</time>
      </trkpt>
      <trkpt lat="38.86912481496318" lon="115.47565779030968">
        <ele>8.45892333984375</ele>
        <time>2026-08-29T13:02:56Z</time>
      </trkpt>
      <trkpt lat="38.86922108462163" lon="115.47577120748446">
        <ele>9.56781005859375</ele>
        <time>2026-08-29T13:03:02Z</time>
      </trkpt>
      <trkpt lat="38.86926803250923" lon="115.47576216753966">
        <ele>11.799774169921875</ele>
        <time>2026-08-29T13:03:05Z</time>
      </trkpt>
      <trkpt lat="38.86932706529559" lon="115.47578524763416">
        <ele>9.4376220703125</ele>
        <time>2026-08-29T13:03:08Z</time>
      </trkpt>
      <trkpt lat="38.86937018438651" lon="115.47583543225711">
        <ele>9.273712158203125</ele>
        <time>2026-08-29T13:03:11Z</time>
      </trkpt>
      <trkpt lat="38.869379277982965" lon="115.47621988757375">
        <ele>11.11163330078125</ele>
        <time>2026-08-29T13:03:26Z</time>
      </trkpt>
      <trkpt lat="38.86941589812794" lon="115.47644373240661">
        <ele>14.273681640625</ele>
        <time>2026-08-29T13:03:35Z</time>
      </trkpt>
      <trkpt lat="38.86944709913849" lon="115.47652001825368">
        <ele>15.7099609375</ele>
        <time>2026-08-29T13:03:38Z</time>
      </trkpt>
      <trkpt lat="38.86943132082893" lon="115.47659430235404">
        <ele>10.85443115234375</ele>
        <time>2026-08-29T13:03:44Z</time>
      </trkpt>
      <trkpt lat="38.86950654622907" lon="115.4766876478759">
        <ele>12.3807373046875</ele>
        <time>2026-08-29T13:03:50Z</time>
      </trkpt>
      <trkpt lat="38.8695794592787" lon="115.47667157787677">
        <ele>11.18731689453125</ele>
        <time>2026-08-29T13:03:53Z</time>
      </trkpt>
      <trkpt lat="38.86962826213205" lon="115.47661234681996">
        <ele>9.775665283203125</ele>
        <time>2026-08-29T13:03:56Z</time>
      </trkpt>
      <trkpt lat="38.86979416329201" lon="115.47661031881917">
        <ele>10.664306640625</ele>
        <time>2026-08-29T13:04:02Z</time>
      </trkpt>
      <trkpt lat="38.86993988303867" lon="115.47654103780057">
        <ele>8.63409423828125</ele>
        <time>2026-08-29T13:04:08Z</time>
      </trkpt>
      <trkpt lat="38.8700525093005" lon="115.47643261230687">
        <ele>8.13323974609375</ele>
        <time>2026-08-29T13:04:14Z</time>
      </trkpt>
      <trkpt lat="38.87030217945692" lon="115.4763663301832">
        <ele>7.406585693359375</ele>
        <time>2026-08-29T13:04:26Z</time>
      </trkpt>
      <trkpt lat="38.870499175170245" lon="115.47640344694952">
        <ele>8.11578369140625</ele>
        <time>2026-08-29T13:04:35Z</time>
      </trkpt>
      <trkpt lat="38.870556232229546" lon="115.47643455806477">
        <ele>8.05181884765625</ele>
        <time>2026-08-29T13:04:38Z</time>
      </trkpt>
      <trkpt lat="38.870575096132676" lon="115.47673971509559">
        <ele>7.42498779296875</ele>
        <time>2026-08-29T13:04:50Z</time>
      </trkpt>
      <trkpt lat="38.87049930861789" lon="115.4771472754846">
        <ele>8.5377197265625</ele>
        <time>2026-08-29T13:05:05Z</time>
      </trkpt>
      <trkpt lat="38.87044949431367" lon="115.47754981660063">
        <ele>9.106201171875</ele>
        <time>2026-08-29T13:05:20Z</time>
      </trkpt>
      <trkpt lat="38.87040618363396" lon="115.4777807036698">
        <ele>8.42950439453125</ele>
        <time>2026-08-29T13:05:29Z</time>
      </trkpt>
      <trkpt lat="38.87034068343142" lon="115.47794132566507">
        <ele>10.1077880859375</ele>
        <time>2026-08-29T13:05:35Z</time>
      </trkpt>
      <trkpt lat="38.87027593678501" lon="115.47836294740839">
        <ele>9.3035888671875</ele>
        <time>2026-08-29T13:05:50Z</time>
      </trkpt>
      <trkpt lat="38.87027309950557" lon="115.47876448756554">
        <ele>13.2686767578125</ele>
        <time>2026-08-29T13:06:05Z</time>
      </trkpt>
      <trkpt lat="38.87024449917098" lon="115.47889699981214">
        <ele>12.411376953125</ele>
        <time>2026-08-29T13:06:11Z</time>
      </trkpt>
      <trkpt lat="38.87021269727835" lon="115.4789592427678">
        <ele>11.648345947265625</ele>
        <time>2026-08-29T13:06:14Z</time>
      </trkpt>
      <trkpt lat="38.87016485499486" lon="115.47900442218447">
        <ele>11.513031005859375</ele>
        <time>2026-08-29T13:06:17Z</time>
      </trkpt>
      <trkpt lat="38.87003300753194" lon="115.47903154250365">
        <ele>10.42266845703125</ele>
        <time>2026-08-29T13:06:23Z</time>
      </trkpt>
      <trkpt lat="38.86973192059457" lon="115.47894324005148">
        <ele>6.58453369140625</ele>
        <time>2026-08-29T13:06:38Z</time>
      </trkpt>
      <trkpt lat="38.86959986967264" lon="115.47890009046166">
        <ele>7.516265869140625</ele>
        <time>2026-08-29T13:06:44Z</time>
      </trkpt>
      <trkpt lat="38.86956975286093" lon="115.47885391683481">
        <ele>6.550445556640625</ele>
        <time>2026-08-29T13:06:47Z</time>
      </trkpt>
      <trkpt lat="38.86960706378181" lon="115.4786230261885">
        <ele>4.650634765625</ele>
        <time>2026-08-29T13:06:56Z</time>
      </trkpt>
      <trkpt lat="38.86957096709317" lon="115.47823654945415">
        <ele>4.902984619140625</ele>
        <time>2026-08-29T13:07:11Z</time>
      </trkpt>
      <trkpt lat="38.869576758068746" lon="115.47816527587646">
        <ele>3.570892333984375</ele>
        <time>2026-08-29T13:07:14Z</time>
      </trkpt>
      <trkpt lat="38.86955154622384" lon="115.47808697930353">
        <ele>6.63043212890625</ele>
        <time>2026-08-29T13:07:17Z</time>
      </trkpt>
      <trkpt lat="38.86932559186213" lon="115.4780588994868">
        <ele>8.18890380859375</ele>
        <time>2026-08-29T13:07:29Z</time>
      </trkpt>
      <trkpt lat="38.86905972068068" lon="115.47805190523061">
        <ele>9.847412109375</ele>
        <time>2026-08-29T13:07:44Z</time>
      </trkpt>
      <trkpt lat="38.86901656822269" lon="115.47799067628618">
        <ele>9.722686767578125</ele>
        <time>2026-08-29T13:07:50Z</time>
      </trkpt>
      <trkpt lat="38.8690104529447" lon="115.4779495196338">
        <ele>9.86572265625</ele>
        <time>2026-08-29T13:07:53Z</time>
      </trkpt>
    </trkseg>
  </trk>
</gpx>