<?xml version="1.0" encoding="UTF-8"?>
<gpx xmlns="http://www.topografix.com/GPX/1/1" xmlns:gpxtpx="http://www.garmin.com/xmlschemas/TrackPointExtension/v1" xmlns:xsi="http://www.w3.org/2001/XMLSchema-instance" xsi:schemaLocation="http://www.topografix.com/GPX/1/1 http://www.topografix.com/GPX/1/1/gpx.xsd" version="1.1" creator="gpx.py -- https://github.com/tkrajina/gpxpy">
  <trk>
    <name>gpx from keep</name>
    <type>Run</type>
    <trkseg>
      <trkpt lat="39.90894511690997" lon="116.1448940459434">
        <ele>81.366455078125</ele>
        <time>2026-09-22T11:56:21Z</time>
      </trkpt>
      <trkpt lat="39.90915463276404" lon="116.1446142855297">
        <ele>81.24951171875</ele>
        <time>2026-09-22T11:56:39Z</time>
      </trkpt>
      <trkpt lat="39.909353179208495" lon="116.1443515726585">
        <ele>81.1048583984375</ele>
        <time>2026-09-22T11:56:57Z</time>
      </trkpt>
      <trkpt lat="39.9094958138176" lon="116.14413899915387">
        <ele>81.5103759765625</ele>
        <time>2026-09-22T11:57:09Z</time>
      </trkpt>
      <trkpt lat="39.909576646219485" lon="116.14404173507948">
        <ele>79.32659912109375</ele>
        <time>2026-09-22T11:57:33Z</time>
      </trkpt>
      <trkpt lat="39.90964641674584" lon="116.14390737592491">
        <ele>79.22100830078125</ele>
        <time>2026-09-22T11:57:39Z</time>
      </trkpt>
      <trkpt lat="39.90987898337758" lon="116.14365569124288">
        <ele>80.0579833984375</ele>
        <time>2026-09-22T11:57:54Z</time>
      </trkpt>
      <trkpt lat="39.91007651226416" lon="116.14337994991091">
        <ele>80.6695556640625</ele>
        <time>2026-09-22T11:58:09Z</time>
      </trkpt>
      <trkpt lat="39.910249994915354" lon="116.14307513800162">
        <ele>81.64691162109375</ele>
        <time>2026-09-22T11:58:27Z</time>
      </trkpt>
      <trkpt lat="39.91040546326639" lon="116.14276030451732">
        <ele>80.10528564453125</ele>
        <time>2026-09-22T11:58:42Z</time>
      </trkpt>
      <trkpt lat="39.91059999493922" lon="116.142483566338">
        <ele>79.873779296875</ele>
        <time>2026-09-22T11:58:57Z</time>
      </trkpt>
      <trkpt lat="39.91077752041472" lon="116.1422018191476">
        <ele>79.8919677734375</ele>
        <time>2026-09-22T11:59:12Z</time>
      </trkpt>
      <trkpt lat="39.91095114843089" lon="116.14198123099845">
        <ele>80.06988525390625</ele>
        <time>2026-09-22T11:59:24Z</time>
      </trkpt>
      <trkpt lat="39.91123583207088" lon="116.14179672219663">
        <ele>81.27996826171875</ele>
        <time>2026-09-22T11:59:39Z</time>
      </trkpt>
      <trkpt lat="39.91154562576851" lon="116.14167938268507">
        <ele>81.54083251953125</ele>
        <time>2026-09-22T11:59:54Z</time>
      </trkpt>
      <trkpt lat="39.91184443173389" lon="116.14156906281251">
        <ele>83.451171875</ele>
        <time>2026-09-22T12:00:09Z</time>
      </trkpt>
      <trkpt lat="39.912114260560415" lon="116.14147178016827">
        <ele>85.2374267578125</ele>
        <time>2026-09-22T12:00:24Z</time>
      </trkpt>
      <trkpt lat="39.91226011948647" lon="116.1413895518669">
        <ele>84.4010009765625</ele>
        <time>2026-09-22T12:00:33Z</time>
      </trkpt>
      <trkpt lat="39.912287009866326" lon="116.14132337974303">
        <ele>83.87322998046875</ele>
        <time>2026-09-22T12:00:36Z</time>
      </trkpt>
      <trkpt lat="39.912418826946585" lon="116.14121508713208">
        <ele>84.71734619140625</ele>
        <time>2026-09-22T12:00:45Z</time>
      </trkpt>
      <trkpt lat="39.912396038113336" lon="116.14134341698052">
        <ele>84.02630615234375</ele>
        <time>2026-09-22T12:00:57Z</time>
      </trkpt>
      <trkpt lat="39.91249285499504" lon="116.14123412621888">
        <ele>83.14263916015625</ele>
        <time>2026-09-22T12:01:06Z</time>
      </trkpt>
      <trkpt lat="39.91257577272265" lon="116.14118599313953">
        <ele>82.01953125</ele>
        <time>2026-09-22T12:01:12Z</time>
      </trkpt>
      <trkpt lat="39.91266859173802" lon="116.14107770583935">
        <ele>82.35906982421875</ele>
        <time>2026-09-22T12:01:18Z</time>
      </trkpt>
      <trkpt lat="39.91295332434111" lon="116.1409212721646">
        <ele>82.3009033203125</ele>
        <time>2026-09-22T12:01:33Z</time>
      </trkpt>
      <trkpt lat="39.91322005654896" lon="116.14076383881707">
        <ele>84.215576171875</ele>
        <time>2026-09-22T12:01:48Z</time>
      </trkpt>
      <trkpt lat="39.913498796881996" lon="116.14061141722266">
        <ele>83.26177978515625</ele>
        <time>2026-09-22T12:02:03Z</time>
      </trkpt>
      <trkpt lat="39.913766495855334" lon="116.14043293169473">
        <ele>82.67584228515625</ele>
        <time>2026-09-22T12:02:18Z</time>
      </trkpt>
      <trkpt lat="39.91404828575619" lon="116.14031058684641">
        <ele>83.3134765625</ele>
        <time>2026-09-22T12:02:33Z</time>
      </trkpt>
      <trkpt lat="39.9143111156728" lon="116.14021230545589">
        <ele>83.73822021484375</ele>
        <time>2026-09-22T12:02:48Z</time>
      </trkpt>
      <trkpt lat="39.91459899171762" lon="116.14014309438471">
        <ele>84.406494140625</ele>
        <time>2026-09-22T12:03:06Z</time>
      </trkpt>
      <trkpt lat="39.91490786860523" lon="116.14007488328083">
        <ele>84.688720703125</ele>
        <time>2026-09-22T12:03:24Z</time>
      </trkpt>
      <trkpt lat="39.91521667767517" lon="116.13996456632418">
        <ele>84.67669677734375</ele>
        <time>2026-09-22T12:03:45Z</time>
      </trkpt>
      <trkpt lat="39.91554945370482" lon="116.13983419621974">
        <ele>84.285400390625</ele>
        <time>2026-09-22T12:04:09Z</time>
      </trkpt>
      <trkpt lat="39.9154911417451" lon="116.13963871282927">
        <ele>83.75360107421875</ele>
        <time>2026-09-22T12:04:27Z</time>
      </trkpt>
      <trkpt lat="39.915820910718935" lon="116.13950333160386">
        <ele>84.4283447265625</ele>
        <time>2026-09-22T12:05:30Z</time>
      </trkpt>
      <trkpt lat="39.91608462988492" lon="116.13933487650365">
        <ele>84.8441162109375</ele>
        <time>2026-09-22T12:05:48Z</time>
      </trkpt>
      <trkpt lat="39.91602630387743" lon="116.13912937054877">
        <ele>81.72247314453125</ele>
        <time>2026-09-22T12:06:00Z</time>
      </trkpt>
      <trkpt lat="39.91606571000686" lon="116.13875743917565">
        <ele>77.9197998046875</ele>
        <time>2026-09-22T12:06:21Z</time>
      </trkpt>
      <trkpt lat="39.91607154107791" lon="116.13865117441435">
        <ele>77.638427734375</ele>
        <time>2026-09-22T12:06:27Z</time>
      </trkpt>
      <trkpt lat="39.91597806250814" lon="116.13834643076343">
        <ele>77.55609130859375</ele>
        <time>2026-09-22T12:06:45Z</time>
      </trkpt>
      <trkpt lat="39.91589402643223" lon="116.13832137944088">
        <ele>77.58807373046875</ele>
        <time>2026-09-22T12:06:51Z</time>
      </trkpt>
      <trkpt lat="39.9156414271558" lon="116.13856802266878">
        <ele>78.54815673828125</ele>
        <time>2026-09-22T12:07:06Z</time>
      </trkpt>
      <trkpt lat="39.91541289987439" lon="116.13885977664509">
        <ele>78.0225830078125</ele>
        <time>2026-09-22T12:07:21Z</time>
      </trkpt>
      <trkpt lat="39.915159279402474" lon="116.13909138591508">
        <ele>78.8216552734375</ele>
        <time>2026-09-22T12:07:36Z</time>
      </trkpt>
      <trkpt lat="39.91487451705839" lon="116.13923277502639">
        <ele>78.3592529296875</ele>
        <time>2026-09-22T12:07:51Z</time>
      </trkpt>
      <trkpt lat="39.91460260059859" lon="116.13927792236896">
        <ele>77.956787109375</ele>
        <time>2026-09-22T12:08:03Z</time>
      </trkpt>
      <trkpt lat="39.91432860089631" lon="116.1392709397209">
        <ele>78.3345947265625</ele>
        <time>2026-09-22T12:08:15Z</time>
      </trkpt>
      <trkpt lat="39.91404172201672" lon="116.13933914666318">
        <ele>77.84478759765625</ele>
        <time>2026-09-22T12:08:30Z</time>
      </trkpt>
      <trkpt lat="39.91376399066907" lon="116.13949958346053">
        <ele>78.2061767578125</ele>
        <time>2026-09-22T12:08:48Z</time>
      </trkpt>
      <trkpt lat="39.913479237595496" lon="116.1396459865873">
        <ele>77.553466796875</ele>
        <time>2026-09-22T12:09:06Z</time>
      </trkpt>
      <trkpt lat="39.91321348254549" lon="116.13979138530932">
        <ele>77.750732421875</ele>
        <time>2026-09-22T12:09:21Z</time>
      </trkpt>
      <trkpt lat="39.912915750290026" lon="116.13994982141088">
        <ele>77.09918212890625</ele>
        <time>2026-09-22T12:09:39Z</time>
      </trkpt>
      <trkpt lat="39.91266209120416" lon="116.14015436874563">
        <ele>76.44818115234375</ele>
        <time>2026-09-22T12:09:54Z</time>
      </trkpt>
      <trkpt lat="39.91241048323143" lon="116.14038999535211">
        <ele>76.5355224609375</ele>
        <time>2026-09-22T12:10:09Z</time>
      </trkpt>
      <trkpt lat="39.91214883440389" lon="116.14059955858235">
        <ele>76.61505126953125</ele>
        <time>2026-09-22T12:10:24Z</time>
      </trkpt>
      <trkpt lat="39.911864074761866" lon="116.14073995039037">
        <ele>77.1993408203125</ele>
        <time>2026-09-22T12:10:39Z</time>
      </trkpt>
      <trkpt lat="39.91157025705941" lon="116.14084425222268">
        <ele>76.5404052734375</ele>
        <time>2026-09-22T12:10:54Z</time>
      </trkpt>
      <trkpt lat="39.91129554677896" lon="116.14101471999561">
        <ele>77.17974853515625</ele>
        <time>2026-09-22T12:11:09Z</time>
      </trkpt>
      <trkpt lat="39.91101785195227" lon="116.14119421180219">
        <ele>78.26318359375</ele>
        <time>2026-09-22T12:11:27Z</time>
      </trkpt>
      <trkpt lat="39.910792002727405" lon="116.14128046011871">
        <ele>77.734619140625</ele>
        <time>2026-09-22T12:11:42Z</time>
      </trkpt>
      <trkpt lat="39.91054636835125" lon="116.14149704363803">
        <ele>76.86590576171875</ele>
        <time>2026-09-22T12:12:00Z</time>
      </trkpt>
      <trkpt lat="39.910341873444445" lon="116.14179884106083">
        <ele>76.121337890625</ele>
        <time>2026-09-22T12:12:15Z</time>
      </trkpt>
      <trkpt lat="39.91021414342986" lon="116.14195926821147">
        <ele>76.6300048828125</ele>
        <time>2026-09-22T12:12:24Z</time>
      </trkpt>
      <trkpt lat="39.910039633206544" lon="116.14225103923685">
        <ele>75.8558349609375</ele>
        <time>2026-09-22T12:13:21Z</time>
      </trkpt>
      <trkpt lat="39.90985315001872" lon="116.14255785244787">
        <ele>75.6640625</ele>
        <time>2026-09-22T12:13:36Z</time>
      </trkpt>
      <trkpt lat="39.90966071055161" lon="116.14288973326744">
        <ele>75.148193359375</ele>
        <time>2026-09-22T12:13:51Z</time>
      </trkpt>
      <trkpt lat="39.90947531130868" lon="116.14324467536032">
        <ele>75.3175048828125</ele>
        <time>2026-09-22T12:14:06Z</time>
      </trkpt>
      <trkpt lat="39.90930489508957" lon="116.14358858959373">
        <ele>75.57586669921875</ele>
        <time>2026-09-22T12:14:21Z</time>
      </trkpt>
      <trkpt lat="39.90910644492901" lon="116.14391045241373">
        <ele>77.09771728515625</ele>
        <time>2026-09-22T12:14:36Z</time>
      </trkpt>
      <trkpt lat="39.908873947149154" lon="116.14420224315195">
        <ele>76.96868896484375</ele>
        <time>2026-09-22T12:14:51Z</time>
      </trkpt>
      <trkpt lat="39.90864141002559" lon="116.14446997265865">
        <ele>76.83929443359375</ele>
        <time>2026-09-22T12:15:06Z</time>
      </trkpt>
      <trkpt lat="39.908408828117885" lon="116.14471063263238">
        <ele>76.3946533203125</ele>
        <time>2026-09-22T12:15:21Z</time>
      </trkpt>
      <trkpt lat="39.908189192008926" lon="116.1449192078461">
        <ele>75.67022705078125</ele>
        <time>2026-09-22T12:15:36Z</time>
      </trkpt>
      <trkpt lat="39.90792056726124" lon="116.14513280333682">
        <ele>75.4481201171875</ele>
        <time>2026-09-22T12:15:51Z</time>
      </trkpt>
      <trkpt lat="39.90766587587193" lon="116.14530729493865">
        <ele>74.70098876953125</ele>
        <time>2026-09-22T12:16:06Z</time>
      </trkpt>
      <trkpt lat="39.907430216735385" lon="116.14550083496088">
        <ele>74.6119384765625</ele>
        <time>2026-09-22T12:16:21Z</time>
      </trkpt>
      <trkpt lat="39.90718858766022" lon="116.14571142149072">
        <ele>74.227783203125</ele>
        <time>2026-09-22T12:16:36Z</time>
      </trkpt>
      <trkpt lat="39.907017112975296" lon="116.14601324144073">
        <ele>74.84552001953125</ele>
        <time>2026-09-22T12:16:51Z</time>
      </trkpt>
      <trkpt lat="39.90693846644712" lon="116.14621679069998">
        <ele>74.0738525390625</ele>
        <time>2026-09-22T12:17:00Z</time>
      </trkpt>
      <trkpt lat="39.90672796462328" lon="116.14650057051536">
        <ele>73.2767333984375</ele>
        <time>2026-09-22T12:17:15Z</time>
      </trkpt>
      <trkpt lat="39.90663615035981" lon="116.14660586196469">
        <ele>73.56005859375</ele>
        <time>2026-09-22T12:17:21Z</time>
      </trkpt>
      <trkpt lat="39.90636949643083" lon="116.14679941063577">
        <ele>74.927734375</ele>
        <time>2026-09-22T12:17:36Z</time>
      </trkpt>
      <trkpt lat="39.90623678340024" lon="116.14696186012698">
        <ele>72.81146240234375</ele>
        <time>2026-09-22T12:17:45Z</time>
      </trkpt>
      <trkpt lat="39.90627366544831" lon="116.14689467645572">
        <ele>68.47998046875</ele>
        <time>2026-09-22T12:17:54Z</time>
      </trkpt>
      <trkpt lat="39.906524309395465" lon="116.14669511348174">
        <ele>71.33740234375</ele>
        <time>2026-09-22T12:18:09Z</time>
      </trkpt>
      <trkpt lat="39.90676295618901" lon="116.14649655541596">
        <ele>72.47747802734375</ele>
        <time>2026-09-22T12:18:24Z</time>
      </trkpt>
      <trkpt lat="39.906943600903155" lon="116.14629499746012">
        <ele>72.88372802734375</ele>
        <time>2026-09-22T12:18:36Z</time>
      </trkpt>
      <trkpt lat="39.90702825900004" lon="116.14609846573194">
        <ele>73.190673828125</ele>
        <time>2026-09-22T12:18:45Z</time>
      </trkpt>
      <trkpt lat="39.90707520869919" lon="116.1460703854015">
        <ele>73.354736328125</ele>
        <time>2026-09-22T12:18:48Z</time>
      </trkpt>
      <trkpt lat="39.907120215374974" lon="116.14607539296215">
        <ele>74.44580078125</ele>
        <time>2026-09-22T12:18:51Z</time>
      </trkpt>
      <trkpt lat="39.907169323615626" lon="116.14613955673015">
        <ele>76.6309814453125</ele>
        <time>2026-09-22T12:18:57Z</time>
      </trkpt>
      <trkpt lat="39.907225524830984" lon="116.14625786324297">
        <ele>79.1986083984375</ele>
        <time>2026-09-22T12:19:09Z</time>
      </trkpt>
      <trkpt lat="39.9073226501824" lon="116.1463330503958">
        <ele>79.3720703125</ele>
        <time>2026-09-22T12:19:18Z</time>
      </trkpt>
      <trkpt lat="39.9073776599042" lon="116.14634006203214">
        <ele>79.09320068359375</ele>
        <time>2026-09-22T12:19:21Z</time>
      </trkpt>
      <trkpt lat="39.90743061960957" lon="116.14631799677294">
        <ele>78.74615478515625</ele>
        <time>2026-09-22T12:19:24Z</time>
      </trkpt>
      <trkpt lat="39.90765222518352" lon="116.14609437583532">
        <ele>78.54779052734375</ele>
        <time>2026-09-22T12:19:39Z</time>
      </trkpt>
      <trkpt lat="39.90790686452129" lon="116.14589080467803">
        <ele>79.1976318359375</ele>
        <time>2026-09-22T12:19:54Z</time>
      </trkpt>
      <trkpt lat="39.90805366554002" lon="116.14577848908945">
        <ele>79.34417724609375</ele>
        <time>2026-09-22T12:20:03Z</time>
      </trkpt>
      <trkpt lat="39.908144747608354" lon="116.14582861004787">
        <ele>77.58203125</ele>
        <time>2026-09-22T12:20:09Z</time>
      </trkpt>
      <trkpt lat="39.908195709297665" lon="116.1458075479036">
        <ele>78.10198974609375</ele>
        <time>2026-09-22T12:20:12Z</time>
      </trkpt>
      <trkpt lat="39.90836540814544" lon="116.14563607335056">
        <ele>79.34100341796875</ele>
        <time>2026-09-22T12:20:24Z</time>
      </trkpt>
      <trkpt lat="39.90843354951159" lon="116.14572028714362">
        <ele>78.96051025390625</ele>
        <time>2026-09-22T12:20:33Z</time>
      </trkpt>
      <trkpt lat="39.9086561622723" lon="116.1454996765334">
        <ele>80.27362060546875</ele>
        <time>2026-09-22T12:20:48Z</time>
      </trkpt>
      <trkpt lat="39.90874804345911" lon="116.14543248770015">
        <ele>79.970703125</ele>
        <time>2026-09-22T12:20:54Z</time>
      </trkpt>
      <trkpt lat="39.90882615326247" lon="116.14549865228695">
        <ele>79.01715087890625</ele>
        <time>2026-09-22T12:21:06Z</time>
      </trkpt>
    </trkseg>
  </trk>
</gpx>