<?xml version="1.0" encoding="UTF-8"?>
<gpx xmlns="http://www.topografix.com/GPX/1/1" xmlns:gpxtpx="http://www.garmin.com/xmlschemas/TrackPointExtension/v1" xmlns:xsi="http://www.w3.org/2001/XMLSchema-instance" xsi:schemaLocation="http://www.topografix.com/GPX/1/1 http://www.topografix.com/GPX/1/1/gpx.xsd" version="1.1" creator="gpx.py -- https://github.com/tkrajina/gpxpy">
  <trk>
    <name>gpx from keep</name>
    <type>Run</type>
    <trkseg>
      <trkpt lat="39.91308322417574" lon="116.18581924166308">
        <ele>63.30517578125</ele>
        <time>2026-07-30T10:51:55Z</time>
      </trkpt>
      <trkpt lat="39.91306760450979" lon="116.18604081998717">
        <ele>65.16229248046875</ele>
        <time>2026-07-30T10:52:04Z</time>
      </trkpt>
      <trkpt lat="39.913101692294234" lon="116.18609295117501">
        <ele>65.2559814453125</ele>
        <time>2026-07-30T10:52:07Z</time>
      </trkpt>
      <trkpt lat="39.91320575650027" lon="116.18613304227941">
        <ele>65.1685791015625</ele>
        <time>2026-07-30T10:52:13Z</time>
      </trkpt>
      <trkpt lat="39.91322993202937" lon="116.18623630731888">
        <ele>65.8470458984375</ele>
        <time>2026-07-30T10:52:19Z</time>
      </trkpt>
      <trkpt lat="39.91321814828049" lon="116.18636263642804">
        <ele>66.6998291015625</ele>
        <time>2026-07-30T10:52:25Z</time>
      </trkpt>
      <trkpt lat="39.91324753682035" lon="116.18659122473545">
        <ele>64.84326171875</ele>
        <time>2026-07-30T10:52:37Z</time>
      </trkpt>
      <trkpt lat="39.91305909558585" lon="116.18691508513211">
        <ele>65.62969970703125</ele>
        <time>2026-07-30T10:52:55Z</time>
      </trkpt>
      <trkpt lat="39.91288766046478" lon="116.18724395402069">
        <ele>67.987060546875</ele>
        <time>2026-07-30T10:53:13Z</time>
      </trkpt>
      <trkpt lat="39.91275519488599" lon="116.18755677447965">
        <ele>67.6990966796875</ele>
        <time>2026-07-30T10:53:28Z</time>
      </trkpt>
      <trkpt lat="39.91261369941571" lon="116.18785255027082">
        <ele>70.48388671875</ele>
        <time>2026-07-30T10:53:40Z</time>
      </trkpt>
      <trkpt lat="39.91259283018985" lon="116.1879297504271">
        <ele>69.6649169921875</ele>
        <time>2026-07-30T10:53:43Z</time>
      </trkpt>
      <trkpt lat="39.91260693073677" lon="116.18798990249093">
        <ele>68.24847412109375</ele>
        <time>2026-07-30T10:53:46Z</time>
      </trkpt>
      <trkpt lat="39.91257961472344" lon="116.18839694469325">
        <ele>68.40869140625</ele>
        <time>2026-07-30T10:54:04Z</time>
      </trkpt>
      <trkpt lat="39.912579328201055" lon="116.18882403058436">
        <ele>69.552734375</ele>
        <time>2026-07-30T10:54:22Z</time>
      </trkpt>
      <trkpt lat="39.91258896324672" lon="116.18920599692329">
        <ele>69.283935546875</ele>
        <time>2026-07-30T10:54:40Z</time>
      </trkpt>
      <trkpt lat="39.912582267848975" lon="116.18938946126511">
        <ele>70.21044921875</ele>
        <time>2026-07-30T10:54:49Z</time>
      </trkpt>
      <trkpt lat="39.91258691588201" lon="116.18978144831068">
        <ele>67.79949951171875</ele>
        <time>2026-07-30T10:55:07Z</time>
      </trkpt>
      <trkpt lat="39.91257055877923" lon="116.19017142925031">
        <ele>70.146240234375</ele>
        <time>2026-07-30T10:55:22Z</time>
      </trkpt>
      <trkpt lat="39.912566159054" lon="116.1905373449054">
        <ele>70.755615234375</ele>
        <time>2026-07-30T10:55:37Z</time>
      </trkpt>
      <trkpt lat="39.91256477472596" lon="116.19091428428196">
        <ele>69.14434814453125</ele>
        <time>2026-07-30T10:55:52Z</time>
      </trkpt>
      <trkpt lat="39.91255301682004" lon="116.19106265446364">
        <ele>68.9093017578125</ele>
        <time>2026-07-30T10:55:58Z</time>
      </trkpt>
      <trkpt lat="39.91257766992498" lon="116.1914656500454">
        <ele>68.02581787109375</ele>
        <time>2026-07-30T10:56:16Z</time>
      </trkpt>
      <trkpt lat="39.91258523987362" lon="116.19181852013732">
        <ele>66.41070556640625</ele>
        <time>2026-07-30T10:56:31Z</time>
      </trkpt>
      <trkpt lat="39.91259182358049" lon="116.19218141172813">
        <ele>68.29095458984375</ele>
        <time>2026-07-30T10:56:46Z</time>
      </trkpt>
      <trkpt lat="39.91259041629384" lon="116.1925513180178">
        <ele>69.43975830078125</ele>
        <time>2026-07-30T10:57:01Z</time>
      </trkpt>
      <trkpt lat="39.9125870367129" lon="116.19294026728856">
        <ele>68.96441650390625</ele>
        <time>2026-07-30T10:57:16Z</time>
      </trkpt>
      <trkpt lat="39.91259462033171" lon="116.19330816008657">
        <ele>67.309814453125</ele>
        <time>2026-07-30T10:57:31Z</time>
      </trkpt>
      <trkpt lat="39.9126062042212" lon="116.1936780535414">
        <ele>65.88153076171875</ele>
        <time>2026-07-30T10:57:46Z</time>
      </trkpt>
      <trkpt lat="39.91260279539813" lon="116.1940539595677">
        <ele>63.77294921875</ele>
        <time>2026-07-30T10:58:01Z</time>
      </trkpt>
      <trkpt lat="39.91260142268612" lon="116.19445492137633">
        <ele>63.17144775390625</ele>
        <time>2026-07-30T10:58:16Z</time>
      </trkpt>
      <trkpt lat="39.91262505489852" lon="116.19486188984804">
        <ele>65.28790283203125</ele>
        <time>2026-07-30T10:58:31Z</time>
      </trkpt>
      <trkpt lat="39.91260649190222" lon="116.19514356175654">
        <ele>67.1568603515625</ele>
        <time>2026-07-30T10:58:43Z</time>
      </trkpt>
      <trkpt lat="39.912634874286894" lon="116.19539214726008">
        <ele>66.66876220703125</ele>
        <time>2026-07-30T10:58:55Z</time>
      </trkpt>
      <trkpt lat="39.91262546294212" lon="116.19577505227352">
        <ele>66.02447509765625</ele>
        <time>2026-07-30T10:59:10Z</time>
      </trkpt>
      <trkpt lat="39.9126130974146" lon="116.19619002852744">
        <ele>62.73846435546875</ele>
        <time>2026-07-30T10:59:25Z</time>
      </trkpt>
      <trkpt lat="39.91260971862711" lon="116.19659898454685">
        <ele>66.55078125</ele>
        <time>2026-07-30T10:59:40Z</time>
      </trkpt>
      <trkpt lat="39.91260130164354" lon="116.19698488274112">
        <ele>67.5679931640625</ele>
        <time>2026-07-30T10:59:55Z</time>
      </trkpt>
      <trkpt lat="39.912598861564135" lon="116.19735774562025">
        <ele>67.34222412109375</ele>
        <time>2026-07-30T11:00:10Z</time>
      </trkpt>
      <trkpt lat="39.91258742767296" lon="116.1977366191915">
        <ele>67.39398193359375</ele>
        <time>2026-07-30T11:00:28Z</time>
      </trkpt>
      <trkpt lat="39.91255882049506" lon="116.19800022697058">
        <ele>65.7808837890625</ele>
        <time>2026-07-30T11:00:46Z</time>
      </trkpt>
      <trkpt lat="39.91259236286365" lon="116.19836806229192">
        <ele>67.75091552734375</ele>
        <time>2026-07-30T11:01:10Z</time>
      </trkpt>
      <trkpt lat="39.91259191381089" lon="116.19874291352012">
        <ele>64.28326416015625</ele>
        <time>2026-07-30T11:01:34Z</time>
      </trkpt>
      <trkpt lat="39.912586487945845" lon="116.19913580156981">
        <ele>62.67742919921875</ele>
        <time>2026-07-30T11:01:58Z</time>
      </trkpt>
      <trkpt lat="39.912586045161405" lon="116.19951966386706">
        <ele>62.23822021484375</ele>
        <time>2026-07-30T11:02:22Z</time>
      </trkpt>
      <trkpt lat="39.91259217822129" lon="116.1996118695132">
        <ele>63.0455322265625</ele>
        <time>2026-07-30T11:02:28Z</time>
      </trkpt>
      <trkpt lat="39.9126352849277" lon="116.19968703219118">
        <ele>63.59051513671875</ele>
        <time>2026-07-30T11:02:34Z</time>
      </trkpt>
      <trkpt lat="39.91296527094692" lon="116.19968699092506">
        <ele>66.11474609375</ele>
        <time>2026-07-30T11:03:04Z</time>
      </trkpt>
      <trkpt lat="39.91328629929104" lon="116.19971601571679">
        <ele>67.1715087890625</ele>
        <time>2026-07-30T11:03:34Z</time>
      </trkpt>
      <trkpt lat="39.91346127888159" lon="116.19970697368412">
        <ele>70.262451171875</ele>
        <time>2026-07-30T11:03:52Z</time>
      </trkpt>
      <trkpt lat="39.91376228062051" lon="116.19971695843067">
        <ele>68.10162353515625</ele>
        <time>2026-07-30T11:04:22Z</time>
      </trkpt>
      <trkpt lat="39.91386231541639" lon="116.19974400635522">
        <ele>65.8447265625</ele>
        <time>2026-07-30T11:04:34Z</time>
      </trkpt>
      <trkpt lat="39.91387644187217" lon="116.19983220139657">
        <ele>65.750244140625</ele>
        <time>2026-07-30T11:04:43Z</time>
      </trkpt>
      <trkpt lat="39.91395458416415" lon="116.19993341719557">
        <ele>62.7569580078125</ele>
        <time>2026-07-30T11:04:55Z</time>
      </trkpt>
      <trkpt lat="39.913949803004954" lon="116.2000857566386">
        <ele>64.49981689453125</ele>
        <time>2026-07-30T11:05:07Z</time>
      </trkpt>
      <trkpt lat="39.91397687222511" lon="116.20013486232538">
        <ele>64.7352294921875</ele>
        <time>2026-07-30T11:05:13Z</time>
      </trkpt>
      <trkpt lat="39.91402591607516" lon="116.20016692738066">
        <ele>64.64129638671875</ele>
        <time>2026-07-30T11:05:19Z</time>
      </trkpt>
      <trkpt lat="39.914136907089365" lon="116.20016390682922">
        <ele>66.841796875</ele>
        <time>2026-07-30T11:05:34Z</time>
      </trkpt>
      <trkpt lat="39.914225983636044" lon="116.20022002019452">
        <ele>68.6424560546875</ele>
        <time>2026-07-30T11:05:52Z</time>
      </trkpt>
      <trkpt lat="39.91424108040719" lon="116.20028816935162">
        <ele>67.59417724609375</ele>
        <time>2026-07-30T11:06:01Z</time>
      </trkpt>
      <trkpt lat="39.91428314160218" lon="116.200332261746">
        <ele>66.5504150390625</ele>
        <time>2026-07-30T11:06:07Z</time>
      </trkpt>
      <trkpt lat="39.914445253422045" lon="116.20041542551246">
        <ele>64.4622802734375</ele>
        <time>2026-07-30T11:06:25Z</time>
      </trkpt>
      <trkpt lat="39.91450932925421" lon="116.20047053932764">
        <ele>64.9593505859375</ele>
        <time>2026-07-30T11:06:31Z</time>
      </trkpt>
      <trkpt lat="39.91474633639911" lon="116.20048253625961">
        <ele>66.15460205078125</ele>
        <time>2026-07-30T11:06:52Z</time>
      </trkpt>
      <trkpt lat="39.914930294406815" lon="116.20045846011794">
        <ele>65.35491943359375</ele>
        <time>2026-07-30T11:07:10Z</time>
      </trkpt>
      <trkpt lat="39.91522734327632" lon="116.2005015181693">
        <ele>64.38037109375</ele>
        <time>2026-07-30T11:07:40Z</time>
      </trkpt>
      <trkpt lat="39.9153563464145" lon="116.20050751531664">
        <ele>64.1392822265625</ele>
        <time>2026-07-30T11:07:52Z</time>
      </trkpt>
      <trkpt lat="39.91546532329441" lon="116.20049447291888">
        <ele>62.9312744140625</ele>
        <time>2026-07-30T11:08:04Z</time>
      </trkpt>
      <trkpt lat="39.915443401214276" lon="116.20054859513367">
        <ele>65.44903564453125</ele>
        <time>2026-07-30T11:08:19Z</time>
      </trkpt>
      <trkpt lat="39.91545151908421" lon="116.20063177756555">
        <ele>63.70428466796875</ele>
        <time>2026-07-30T11:09:01Z</time>
      </trkpt>
      <trkpt lat="39.91543568751508" lon="116.20075003995544">
        <ele>61.95263671875</ele>
        <time>2026-07-30T11:09:07Z</time>
      </trkpt>
      <trkpt lat="39.915394822628954" lon="116.20084425217888">
        <ele>62.2713623046875</ele>
        <time>2026-07-30T11:09:10Z</time>
      </trkpt>
      <trkpt lat="39.915430138145695" lon="116.20106874012265">
        <ele>64.13714599609375</ele>
        <time>2026-07-30T11:09:19Z</time>
      </trkpt>
      <trkpt lat="39.915445669591705" lon="116.20144756521962">
        <ele>67.26605224609375</ele>
        <time>2026-07-30T11:09:37Z</time>
      </trkpt>
      <trkpt lat="39.91545027311049" lon="116.20188050391576">
        <ele>68.6527099609375</ele>
        <time>2026-07-30T11:10:01Z</time>
      </trkpt>
      <trkpt lat="39.91544576862757" lon="116.20223827588">
        <ele>69.01019287109375</ele>
        <time>2026-07-30T11:10:19Z</time>
      </trkpt>
      <trkpt lat="39.91545426583264" lon="116.20260005040662">
        <ele>68.9918212890625</ele>
        <time>2026-07-30T11:10:37Z</time>
      </trkpt>
      <trkpt lat="39.91546174744001" lon="116.20295280137726">
        <ele>69.30975341796875</ele>
        <time>2026-07-30T11:10:55Z</time>
      </trkpt>
      <trkpt lat="39.91545924521965" lon="116.20331957891503">
        <ele>72.09063720703125</ele>
        <time>2026-07-30T11:11:13Z</time>
      </trkpt>
      <trkpt lat="39.91545675025351" lon="116.20369436857436">
        <ele>69.0142822265625</ele>
        <time>2026-07-30T11:11:31Z</time>
      </trkpt>
      <trkpt lat="39.91545129310043" lon="116.20410021844083">
        <ele>65.85791015625</ele>
        <time>2026-07-30T11:11:49Z</time>
      </trkpt>
      <trkpt lat="39.91545485105517" lon="116.20452109244373">
        <ele>65.8150634765625</ele>
        <time>2026-07-30T11:12:07Z</time>
      </trkpt>
      <trkpt lat="39.91544635359843" lon="116.20490288126014">
        <ele>66.0784912109375</ele>
        <time>2026-07-30T11:12:22Z</time>
      </trkpt>
      <trkpt lat="39.91546689787276" lon="116.20532073484512">
        <ele>66.20843505859375</ele>
        <time>2026-07-30T11:12:40Z</time>
      </trkpt>
      <trkpt lat="39.91546336741523" lon="116.20568347336153">
        <ele>64.98968505859375</ele>
        <time>2026-07-30T11:12:55Z</time>
      </trkpt>
      <trkpt lat="39.9154436607532" lon="116.20591093618978">
        <ele>62.7528076171875</ele>
        <time>2026-07-30T11:13:04Z</time>
      </trkpt>
      <trkpt lat="39.91546773296904" lon="116.20596804848348">
        <ele>60.99200439453125</ele>
        <time>2026-07-30T11:13:10Z</time>
      </trkpt>
      <trkpt lat="39.91561770997921" lon="116.2059550034681">
        <ele>61.00860595703125</ele>
        <time>2026-07-30T11:14:07Z</time>
      </trkpt>
      <trkpt lat="39.91568174067304" lon="116.20598104803746">
        <ele>61.640869140625</ele>
        <time>2026-07-30T11:14:13Z</time>
      </trkpt>
      <trkpt lat="39.915709944501465" lon="116.20614136744524">
        <ele>63.18133544921875</ele>
        <time>2026-07-30T11:14:22Z</time>
      </trkpt>
      <trkpt lat="39.91573638430379" lon="116.20648805922616">
        <ele>65.72119140625</ele>
        <time>2026-07-30T11:14:37Z</time>
      </trkpt>
      <trkpt lat="39.915834738328286" lon="116.20677161214306">
        <ele>66.415771484375</ele>
        <time>2026-07-30T11:14:52Z</time>
      </trkpt>
      <trkpt lat="39.91590087038459" lon="116.20687881680014">
        <ele>65.7777099609375</ele>
        <time>2026-07-30T11:14:58Z</time>
      </trkpt>
      <trkpt lat="39.915989856583614" lon="116.20687078978547">
        <ele>63.9444580078125</ele>
        <time>2026-07-30T11:15:04Z</time>
      </trkpt>
      <trkpt lat="39.91618327110167" lon="116.20720843350266">
        <ele>59.72113037109375</ele>
        <time>2026-07-30T11:15:25Z</time>
      </trkpt>
      <trkpt lat="39.91636765055232" lon="116.20752002301197">
        <ele>55.0216064453125</ele>
        <time>2026-07-30T11:15:49Z</time>
      </trkpt>
      <trkpt lat="39.916567977304275" lon="116.2077915287518">
        <ele>53.4892578125</ele>
        <time>2026-07-30T11:16:10Z</time>
      </trkpt>
      <trkpt lat="39.91668416318581" lon="116.20794681655202">
        <ele>53.22430419921875</ele>
        <time>2026-07-30T11:16:22Z</time>
      </trkpt>
      <trkpt lat="39.91680559968554" lon="116.20830850189749">
        <ele>52.5257568359375</ele>
        <time>2026-07-30T11:16:43Z</time>
      </trkpt>
      <trkpt lat="39.91687803689952" lon="116.20867219217536">
        <ele>53.2119140625</ele>
        <time>2026-07-30T11:17:01Z</time>
      </trkpt>
      <trkpt lat="39.916959449569454" lon="116.20901884382647">
        <ele>53.42291259765625</ele>
        <time>2026-07-30T11:17:16Z</time>
      </trkpt>
      <trkpt lat="39.91701889765195" lon="116.2093975540894">
        <ele>57.03399658203125</ele>
        <time>2026-07-30T11:17:31Z</time>
      </trkpt>
      <trkpt lat="39.917055364832656" lon="116.2097952972567">
        <ele>57.24822998046875</ele>
        <time>2026-07-30T11:17:46Z</time>
      </trkpt>
      <trkpt lat="39.91709667455069" lon="116.21006178961179">
        <ele>54.6414794921875</ele>
        <time>2026-07-30T11:17:58Z</time>
      </trkpt>
      <trkpt lat="39.91709803365139" lon="116.21037136385246">
        <ele>54.2017822265625</ele>
        <time>2026-07-30T11:18:10Z</time>
      </trkpt>
      <trkpt lat="39.917159479183525" lon="116.21076107389877">
        <ele>52.66259765625</ele>
        <time>2026-07-30T11:18:25Z</time>
      </trkpt>
      <trkpt lat="39.9172558926229" lon="116.21112773161009">
        <ele>52.267822265625</ele>
        <time>2026-07-30T11:18:40Z</time>
      </trkpt>
      <trkpt lat="39.91733730490214" lon="116.21149638941004">
        <ele>54.24462890625</ele>
        <time>2026-07-30T11:18:55Z</time>
      </trkpt>
      <trkpt lat="39.91738064895935" lon="116.21180594063088">
        <ele>54.1146240234375</ele>
        <time>2026-07-30T11:19:07Z</time>
      </trkpt>
      <trkpt lat="39.917407113302886" lon="116.21222668767528">
        <ele>53.035888671875</ele>
        <time>2026-07-30T11:19:25Z</time>
      </trkpt>
      <trkpt lat="39.917429524472624" lon="116.21260335048973">
        <ele>53.33050537109375</ele>
        <time>2026-07-30T11:19:40Z</time>
      </trkpt>
      <trkpt lat="39.917468929501396" lon="116.21297900361662">
        <ele>54.83367919921875</ele>
        <time>2026-07-30T11:19:55Z</time>
      </trkpt>
      <trkpt lat="39.91749332973631" lon="116.21335365106275">
        <ele>52.94268798828125</ele>
        <time>2026-07-30T11:20:10Z</time>
      </trkpt>
      <trkpt lat="39.9175257337267" lon="116.21373630541743">
        <ele>50.66192626953125</ele>
        <time>2026-07-30T11:20:25Z</time>
      </trkpt>
      <trkpt lat="39.917541897273416" lon="116.21389257052235">
        <ele>51.2274169921875</ele>
        <time>2026-07-30T11:20:31Z</time>
      </trkpt>
      <trkpt lat="39.91761723068527" lon="116.21421510926601">
        <ele>53.71588134765625</ele>
        <time>2026-07-30T11:20:43Z</time>
      </trkpt>
      <trkpt lat="39.91764665942626" lon="116.21463180728578">
        <ele>52.89398193359375</ele>
        <time>2026-07-30T11:20:58Z</time>
      </trkpt>
      <trkpt lat="39.917684986879536" lon="116.2149543406162">
        <ele>54.81072998046875</ele>
        <time>2026-07-30T11:21:10Z</time>
      </trkpt>
      <trkpt lat="39.91767315066389" lon="116.21511560949513">
        <ele>56.76458740234375</ele>
        <time>2026-07-30T11:21:16Z</time>
      </trkpt>
      <trkpt lat="39.91773253231472" lon="116.21549823213353">
        <ele>57.32666015625</ele>
        <time>2026-07-30T11:21:34Z</time>
      </trkpt>
      <trkpt lat="39.91780295223966" lon="116.21592491860332">
        <ele>55.5439453125</ele>
        <time>2026-07-30T11:21:58Z</time>
      </trkpt>
      <trkpt lat="39.91789135001771" lon="116.21633556935157">
        <ele>52.9854736328125</ele>
        <time>2026-07-30T11:22:22Z</time>
      </trkpt>
      <trkpt lat="39.917973725337596" lon="116.21672818500578">
        <ele>53.554931640625</ele>
        <time>2026-07-30T11:22:43Z</time>
      </trkpt>
      <trkpt lat="39.91801009852739" lon="116.21712180129325">
        <ele>53.9229736328125</ele>
        <time>2026-07-30T11:23:04Z</time>
      </trkpt>
      <trkpt lat="39.91803344665644" lon="116.21749337826998">
        <ele>54.145751953125</ele>
        <time>2026-07-30T11:23:22Z</time>
      </trkpt>
      <trkpt lat="39.91806583138308" lon="116.21791001728613">
        <ele>54.46612548828125</ele>
        <time>2026-07-30T11:23:40Z</time>
      </trkpt>
      <trkpt lat="39.91811116627003" lon="116.21827857414374">
        <ele>50.366455078125</ele>
        <time>2026-07-30T11:23:55Z</time>
      </trkpt>
      <trkpt lat="39.91813453254346" lon="116.2186861863826">
        <ele>49.096435546875</ele>
        <time>2026-07-30T11:24:10Z</time>
      </trkpt>
      <trkpt lat="39.91816890078912" lon="116.2191028032563">
        <ele>48.6131591796875</ele>
        <time>2026-07-30T11:24:25Z</time>
      </trkpt>
      <trkpt lat="39.918187259583775" lon="116.21951440708303">
        <ele>48.93505859375</ele>
        <time>2026-07-30T11:24:40Z</time>
      </trkpt>
      <trkpt lat="39.91821361323445" lon="116.21992700379866">
        <ele>50.630615234375</ele>
        <time>2026-07-30T11:24:55Z</time>
      </trkpt>
      <trkpt lat="39.91823595713349" lon="116.22033458623956">
        <ele>49.895751953125</ele>
        <time>2026-07-30T11:25:10Z</time>
      </trkpt>
      <trkpt lat="39.91826222986064" lon="116.22066304915752">
        <ele>49.65899658203125</ele>
        <time>2026-07-30T11:25:22Z</time>
      </trkpt>
      <trkpt lat="39.918379531111405" lon="116.2210355573796">
        <ele>50.8201904296875</ele>
        <time>2026-07-30T11:25:37Z</time>
      </trkpt>
      <trkpt lat="39.91860777554398" lon="116.22134896399315">
        <ele>50.80145263671875</ele>
        <time>2026-07-30T11:26:04Z</time>
      </trkpt>
      <trkpt lat="39.918777864135066" lon="116.22146810703879">
        <ele>50.43798828125</ele>
        <time>2026-07-30T11:26:19Z</time>
      </trkpt>
      <trkpt lat="39.91908090598931" lon="116.22153616285449">
        <ele>52.13775634765625</ele>
        <time>2026-07-30T11:26:34Z</time>
      </trkpt>
      <trkpt lat="39.919364892598644" lon="116.22153412473995">
        <ele>51.73193359375</ele>
        <time>2026-07-30T11:26:49Z</time>
      </trkpt>
      <trkpt lat="39.919650879134934" lon="116.2215320863757">
        <ele>51.4288330078125</ele>
        <time>2026-07-30T11:27:04Z</time>
      </trkpt>
      <trkpt lat="39.91995087789223" lon="116.22154606825256">
        <ele>51.2154541015625</ele>
        <time>2026-07-30T11:27:22Z</time>
      </trkpt>
      <trkpt lat="39.920245856882865" lon="116.22153501640162">
        <ele>51.9674072265625</ele>
        <time>2026-07-30T11:27:40Z</time>
      </trkpt>
      <trkpt lat="39.920564841285646" lon="116.22153197255203">
        <ele>52.29595947265625</ele>
        <time>2026-07-30T11:27:58Z</time>
      </trkpt>
      <trkpt lat="39.920878821107834" lon="116.2215229210763">
        <ele>52.2305908203125</ele>
        <time>2026-07-30T11:28:16Z</time>
      </trkpt>
      <trkpt lat="39.92116280777845" lon="116.22152088295763">
        <ele>51.1368408203125</ele>
        <time>2026-07-30T11:28:31Z</time>
      </trkpt>
      <trkpt lat="39.92128680506007" lon="116.2215238716391">
        <ele>52.7630615234375</ele>
        <time>2026-07-30T11:28:37Z</time>
      </trkpt>
      <trkpt lat="39.92139676929829" lon="116.22148480429">
        <ele>53.112060546875</ele>
        <time>2026-07-30T11:28:43Z</time>
      </trkpt>
      <trkpt lat="39.921637600848754" lon="116.2212875022144">
        <ele>51.1700439453125</ele>
        <time>2026-07-30T11:28:58Z</time>
      </trkpt>
      <trkpt lat="39.92181639122508" lon="116.2210381335163">
        <ele>54.0228271484375</ele>
        <time>2026-07-30T11:29:10Z</time>
      </trkpt>
      <trkpt lat="39.92194207414676" lon="116.22065858515727">
        <ele>51.3243408203125</ele>
        <time>2026-07-30T11:29:28Z</time>
      </trkpt>
      <trkpt lat="39.9219427666067" lon="116.22029006160271">
        <ele>49.05902099609375</ele>
        <time>2026-07-30T11:29:43Z</time>
      </trkpt>
      <trkpt lat="39.921956456515666" lon="116.21992453465973">
        <ele>48.74114990234375</ele>
        <time>2026-07-30T11:30:01Z</time>
      </trkpt>
      <trkpt lat="39.921940076360485" lon="116.21948189264285">
        <ele>50.71514892578125</ele>
        <time>2026-07-30T11:30:19Z</time>
      </trkpt>
      <trkpt lat="39.921931778417246" lon="116.21914039081341">
        <ele>52.6888427734375</ele>
        <time>2026-07-30T11:30:34Z</time>
      </trkpt>
      <trkpt lat="39.921884469277025" lon="116.21878887368204">
        <ele>55.8680419921875</ele>
        <time>2026-07-30T11:30:58Z</time>
      </trkpt>
      <trkpt lat="39.92188412787787" lon="116.21840830131495">
        <ele>55.1983642578125</ele>
        <time>2026-07-30T11:31:22Z</time>
      </trkpt>
      <trkpt lat="39.92187687902919" lon="116.21813388551438">
        <ele>55.32476806640625</ele>
        <time>2026-07-30T11:31:40Z</time>
      </trkpt>
      <trkpt lat="39.92185153599436" lon="116.21775931454285">
        <ele>53.99847412109375</ele>
        <time>2026-07-30T11:32:04Z</time>
      </trkpt>
      <trkpt lat="39.921795202769694" lon="116.21739876312027">
        <ele>56.32989501953125</ele>
        <time>2026-07-30T11:32:28Z</time>
      </trkpt>
      <trkpt lat="39.921747855429935" lon="116.21702818915686">
        <ele>58.92523193359375</ele>
        <time>2026-07-30T11:32:52Z</time>
      </trkpt>
      <trkpt lat="39.92169150303367" lon="116.21665660876009">
        <ele>55.60552978515625</ele>
        <time>2026-07-30T11:33:16Z</time>
      </trkpt>
      <trkpt lat="39.92164216340837" lon="116.21630305044586">
        <ele>55.1282958984375</ele>
        <time>2026-07-30T11:33:40Z</time>
      </trkpt>
      <trkpt lat="39.921571824559194" lon="116.2159534958539">
        <ele>52.31964111328125</ele>
        <time>2026-07-30T11:34:04Z</time>
      </trkpt>
      <trkpt lat="39.921568740857765" lon="116.2158683582359">
        <ele>52.82421875</ele>
        <time>2026-07-30T11:34:10Z</time>
      </trkpt>
      <trkpt lat="39.92149439530223" lon="116.21551679435089">
        <ele>52.42510986328125</ele>
        <time>2026-07-30T11:34:34Z</time>
      </trkpt>
      <trkpt lat="39.92146929729415" lon="116.21541763486715">
        <ele>51.46075439453125</ele>
        <time>2026-07-30T11:34:40Z</time>
      </trkpt>
      <trkpt lat="39.921464202168146" lon="116.21532247906603">
        <ele>50.86968994140625</ele>
        <time>2026-07-30T11:34:46Z</time>
      </trkpt>
      <trkpt lat="39.92138095232765" lon="116.21507107427185">
        <ele>52.51715087890625</ele>
        <time>2026-07-30T11:35:04Z</time>
      </trkpt>
      <trkpt lat="39.92131159764577" lon="116.2147194978444">
        <ele>53.657958984375</ele>
        <time>2026-07-30T11:35:28Z</time>
      </trkpt>
      <trkpt lat="39.921228243778025" lon="116.21437192470054">
        <ele>54.66278076171875</ele>
        <time>2026-07-30T11:35:52Z</time>
      </trkpt>
      <trkpt lat="39.92120515662603" lon="116.21428678386287">
        <ele>54.6146240234375</ele>
        <time>2026-07-30T11:35:58Z</time>
      </trkpt>
      <trkpt lat="39.92113580164913" lon="116.21394320948441">
        <ele>54.76416015625</ele>
        <time>2026-07-30T11:36:22Z</time>
      </trkpt>
      <trkpt lat="39.921095353751795" lon="116.2135164835527">
        <ele>51.735107421875</ele>
        <time>2026-07-30T11:36:52Z</time>
      </trkpt>
      <trkpt lat="39.921110281912995" lon="116.21344936603539">
        <ele>49.61004638671875</ele>
        <time>2026-07-30T11:36:55Z</time>
      </trkpt>
      <trkpt lat="39.921106859321476" lon="116.2130536808166">
        <ele>51.49151611328125</ele>
        <time>2026-07-30T11:37:13Z</time>
      </trkpt>
      <trkpt lat="39.9211004483431" lon="116.21267301590547">
        <ele>51.22784423828125</ele>
        <time>2026-07-30T11:37:31Z</time>
      </trkpt>
      <trkpt lat="39.92109003417908" lon="116.21229334731676">
        <ele>51.29571533203125</ele>
        <time>2026-07-30T11:37:49Z</time>
      </trkpt>
      <trkpt lat="39.921068903966045" lon="116.21217413840216">
        <ele>52.2344970703125</ele>
        <time>2026-07-30T11:37:55Z</time>
      </trkpt>
      <trkpt lat="39.92106941773555" lon="116.21173535470459">
        <ele>50.76727294921875</ele>
        <time>2026-07-30T11:38:25Z</time>
      </trkpt>
      <trkpt lat="39.92106697435709" lon="116.21133964161493">
        <ele>51.07550048828125</ele>
        <time>2026-07-30T11:38:49Z</time>
      </trkpt>
      <trkpt lat="39.921083510648884" lon="116.21093089605417">
        <ele>49.91497802734375</ele>
        <time>2026-07-30T11:39:10Z</time>
      </trkpt>
      <trkpt lat="39.921141217483495" lon="116.21067642260758">
        <ele>49.37896728515625</ele>
        <time>2026-07-30T11:39:22Z</time>
      </trkpt>
      <trkpt lat="39.92127595619303" lon="116.210453996171">
        <ele>49.7095947265625</ele>
        <time>2026-07-30T11:39:34Z</time>
      </trkpt>
      <trkpt lat="39.92150367914302" lon="116.21022253943424">
        <ele>49.4246826171875</ele>
        <time>2026-07-30T11:39:49Z</time>
      </trkpt>
      <trkpt lat="39.921725413617764" lon="116.21000210186526">
        <ele>50.04486083984375</ele>
        <time>2026-07-30T11:40:04Z</time>
      </trkpt>
      <trkpt lat="39.9218781929658" lon="116.20981874037574">
        <ele>49.65936279296875</ele>
        <time>2026-07-30T11:40:22Z</time>
      </trkpt>
      <trkpt lat="39.92201983240683" lon="116.20951715660163">
        <ele>49.416748046875</ele>
        <time>2026-07-30T11:40:46Z</time>
      </trkpt>
      <trkpt lat="39.922094322757424" lon="116.20909034003178">
        <ele>51.14056396484375</ele>
        <time>2026-07-30T11:41:16Z</time>
      </trkpt>
      <trkpt lat="39.92204990441691" lon="116.20873967701917">
        <ele>51.91241455078125</ele>
        <time>2026-07-30T11:41:40Z</time>
      </trkpt>
      <trkpt lat="39.9219265149445" lon="116.20841306543096">
        <ele>54.37445068359375</ele>
        <time>2026-07-30T11:42:04Z</time>
      </trkpt>
      <trkpt lat="39.921724093822" lon="116.20806040909852">
        <ele>54.429443359375</ele>
        <time>2026-07-30T11:42:34Z</time>
      </trkpt>
      <trkpt lat="39.921579878781095" lon="116.20788007671744">
        <ele>54.21417236328125</ele>
        <time>2026-07-30T11:42:52Z</time>
      </trkpt>
      <trkpt lat="39.92134069143602" lon="116.20771979408686">
        <ele>53.82647705078125</ele>
        <time>2026-07-30T11:43:16Z</time>
      </trkpt>
      <trkpt lat="39.921020624320064" lon="116.2076547068216">
        <ele>53.92864990234375</ele>
        <time>2026-07-30T11:43:46Z</time>
      </trkpt>
      <trkpt lat="39.920692703369106" lon="116.20770785152042">
        <ele>53.86114501953125</ele>
        <time>2026-07-30T11:44:16Z</time>
      </trkpt>
      <trkpt lat="39.92036778346057" lon="116.20776199769034">
        <ele>53.593505859375</ele>
        <time>2026-07-30T11:44:46Z</time>
      </trkpt>
      <trkpt lat="39.92011785175189" lon="116.20780912071649">
        <ele>55.65972900390625</ele>
        <time>2026-07-30T11:45:10Z</time>
      </trkpt>
      <trkpt lat="39.91979084927229" lon="116.20779613615592">
        <ele>56.00323486328125</ele>
        <time>2026-07-30T11:45:40Z</time>
      </trkpt>
      <trkpt lat="39.91945481757439" lon="116.2077591058161">
        <ele>56.1318359375</ele>
        <time>2026-07-30T11:46:10Z</time>
      </trkpt>
      <trkpt lat="39.91929079599588" lon="116.20773608132859">
        <ele>54.35919189453125</ele>
        <time>2026-07-30T11:46:25Z</time>
      </trkpt>
      <trkpt lat="39.917811376182854" lon="116.20654992419759">
        <ele>64.95947265625</ele>
        <time>2026-07-30T12:08:04Z</time>
      </trkpt>
      <trkpt lat="39.9175203020484" lon="116.20648182444666">
        <ele>65.29254150390625</ele>
        <time>2026-07-30T12:08:25Z</time>
      </trkpt>
      <trkpt lat="39.91722127261586" lon="116.20644879567845">
        <ele>64.47967529296875</ele>
        <time>2026-07-30T12:08:49Z</time>
      </trkpt>
      <trkpt lat="39.9168862408551" lon="116.20641276534981">
        <ele>64.05157470703125</ele>
        <time>2026-07-30T12:09:19Z</time>
      </trkpt>
      <trkpt lat="39.91655420767508" lon="116.20637573259178">
        <ele>65.4991455078125</ele>
        <time>2026-07-30T12:09:49Z</time>
      </trkpt>
      <trkpt lat="39.91642422584056" lon="116.20638576888808">
        <ele>63.341552734375</ele>
        <time>2026-07-30T12:10:01Z</time>
      </trkpt>
      <trkpt lat="39.916179337795256" lon="116.20646595985127">
        <ele>63.31787109375</ele>
        <time>2026-07-30T12:10:25Z</time>
      </trkpt>
      <trkpt lat="39.91597348976784" lon="116.20657921168866">
        <ele>62.835693359375</ele>
        <time>2026-07-30T12:10:43Z</time>
      </trkpt>
      <trkpt lat="39.91592357668453" lon="116.20664635177431">
        <ele>62.573974609375</ele>
        <time>2026-07-30T12:10:49Z</time>
      </trkpt>
      <trkpt lat="39.91591569454758" lon="116.20673953827585">
        <ele>62.4134521484375</ele>
        <time>2026-07-30T12:10:55Z</time>
      </trkpt>
      <trkpt lat="39.91589979864416" lon="116.20682170356582">
        <ele>62.80364990234375</ele>
        <time>2026-07-30T12:11:32Z</time>
      </trkpt>
      <trkpt lat="39.91585276405948" lon="116.2067926517132">
        <ele>62.1221923828125</ele>
        <time>2026-07-30T12:11:38Z</time>
      </trkpt>
      <trkpt lat="39.915794584624976" lon="116.20664837187388">
        <ele>62.021484375</ele>
        <time>2026-07-30T12:11:47Z</time>
      </trkpt>
      <trkpt lat="39.91571017937896" lon="116.20632573761023">
        <ele>62.36212158203125</ele>
        <time>2026-07-30T12:12:02Z</time>
      </trkpt>
      <trkpt lat="39.91568774555496" lon="116.20598505537237">
        <ele>62.7247314453125</ele>
        <time>2026-07-30T12:12:29Z</time>
      </trkpt>
      <trkpt lat="39.915671244911294" lon="116.2055952684201">
        <ele>64.31317138671875</ele>
        <time>2026-07-30T12:12:53Z</time>
      </trkpt>
      <trkpt lat="39.9156727537155" lon="116.2052164962017">
        <ele>64.970703125</ele>
        <time>2026-07-30T12:13:11Z</time>
      </trkpt>
      <trkpt lat="39.915680271525865" lon="116.20484773864693">
        <ele>63.8316650390625</ele>
        <time>2026-07-30T12:13:29Z</time>
      </trkpt>
      <trkpt lat="39.9156707638755" lon="116.20446194301407">
        <ele>62.6158447265625</ele>
        <time>2026-07-30T12:13:47Z</time>
      </trkpt>
      <trkpt lat="39.91564623685977" lon="116.20406411883869">
        <ele>62.6090087890625</ele>
        <time>2026-07-30T12:14:05Z</time>
      </trkpt>
      <trkpt lat="39.91564368992436" lon="116.20365526313567">
        <ele>63.94451904296875</ele>
        <time>2026-07-30T12:14:23Z</time>
      </trkpt>
      <trkpt lat="39.915643134445226" lon="116.20324339493142">
        <ele>63.557373046875</ele>
        <time>2026-07-30T12:14:41Z</time>
      </trkpt>
      <trkpt lat="39.91564459087582" lon="116.20284354615312">
        <ele>64.92724609375</ele>
        <time>2026-07-30T12:14:59Z</time>
      </trkpt>
      <trkpt lat="39.915635042263744" lon="116.20244269105925">
        <ele>64.77313232421875</ele>
        <time>2026-07-30T12:15:17Z</time>
      </trkpt>
      <trkpt lat="39.91565463390809" lon="116.2021470535563">
        <ele>65.00103759765625</ele>
        <time>2026-07-30T12:15:29Z</time>
      </trkpt>
      <trkpt lat="39.915640530534894" lon="116.20207189338785">
        <ele>64.5953369140625</ele>
        <time>2026-07-30T12:15:32Z</time>
      </trkpt>
      <trkpt lat="39.91567002548036" lon="116.20170910540824">
        <ele>63.71728515625</ele>
        <time>2026-07-30T12:15:47Z</time>
      </trkpt>
      <trkpt lat="39.9156844488467" lon="116.20129720775327">
        <ele>63.7894287109375</ele>
        <time>2026-07-30T12:16:05Z</time>
      </trkpt>
      <trkpt lat="39.915690862649065" lon="116.20088129660716">
        <ele>63.060791015625</ele>
        <time>2026-07-30T12:16:35Z</time>
      </trkpt>
      <trkpt lat="39.915673769787496" lon="116.20081515343556">
        <ele>62.62359619140625</ele>
        <time>2026-07-30T12:16:41Z</time>
      </trkpt>
      <trkpt lat="39.91563271758253" lon="116.20077707484006">
        <ele>62.1300048828125</ele>
        <time>2026-07-30T12:16:50Z</time>
      </trkpt>
      <trkpt lat="39.91557576964417" lon="116.20081215908058">
        <ele>63.109619140625</ele>
        <time>2026-07-30T12:16:56Z</time>
      </trkpt>
      <trkpt lat="39.91546075886479" lon="116.20080114922757">
        <ele>62.87835693359375</ele>
        <time>2026-07-30T12:17:02Z</time>
      </trkpt>
      <trkpt lat="39.91539358269219" lon="116.20067487975867">
        <ele>63.0958251953125</ele>
        <time>2026-07-30T12:17:08Z</time>
      </trkpt>
      <trkpt lat="39.915417482078055" lon="116.20060472217108">
        <ele>63.32244873046875</ele>
        <time>2026-07-30T12:17:14Z</time>
      </trkpt>
      <trkpt lat="39.91540936415294" lon="116.20052153966503">
        <ele>62.34405517578125</ele>
        <time>2026-07-30T12:17:20Z</time>
      </trkpt>
      <trkpt lat="39.91538326537482" lon="116.2004513879744">
        <ele>61.4967041015625</ele>
        <time>2026-07-30T12:17:26Z</time>
      </trkpt>
      <trkpt lat="39.915111306777206" lon="116.20047246848416">
        <ele>63.37554931640625</ele>
        <time>2026-07-30T12:17:50Z</time>
      </trkpt>
      <trkpt lat="39.91504231110509" lon="116.2004734793256">
        <ele>64.58441162109375</ele>
        <time>2026-07-30T12:17:56Z</time>
      </trkpt>
      <trkpt lat="39.91504231110509" lon="116.2004734793256">
        <ele>64.58441162109375</ele>
        <time>2026-07-30T12:18:01Z</time>
      </trkpt>
    </trkseg>
  </trk>
</gpx>