<?xml version="1.0" encoding="UTF-8"?>
<gpx xmlns="http://www.topografix.com/GPX/1/1" xmlns:gpxtpx="http://www.garmin.com/xmlschemas/TrackPointExtension/v1" xmlns:xsi="http://www.w3.org/2001/XMLSchema-instance" xsi:schemaLocation="http://www.topografix.com/GPX/1/1 http://www.topografix.com/GPX/1/1/gpx.xsd" version="1.1" creator="gpx.py -- https://github.com/tkrajina/gpxpy">
  <trk>
    <name>gpx from keep</name>
    <type>Run</type>
    <trkseg>
      <trkpt lat="38.86900211292428" lon="115.47643776035743">
        <ele>2.4541015625</ele>
        <time>2026-09-12T09:04:41Z</time>
      </trkpt>
      <trkpt lat="38.86891399365591" lon="115.47672787327181">
        <ele>6.25201416015625</ele>
        <time>2026-09-12T09:04:53Z</time>
      </trkpt>
      <trkpt lat="38.86891558605062" lon="115.47693465962594">
        <ele>6.901824951171875</ele>
        <time>2026-09-12T09:05:02Z</time>
      </trkpt>
      <trkpt lat="38.86900265050588" lon="115.47732212491447">
        <ele>7.91943359375</ele>
        <time>2026-09-12T09:05:17Z</time>
      </trkpt>
      <trkpt lat="38.86899466327075" lon="115.47767246276625">
        <ele>5.265899658203125</ele>
        <time>2026-09-12T09:05:32Z</time>
      </trkpt>
      <trkpt lat="38.8690093724951" lon="115.47792141228899">
        <ele>4.43597412109375</ele>
        <time>2026-09-12T09:05:41Z</time>
      </trkpt>
      <trkpt lat="38.86903680304606" lon="115.47807600022131">
        <ele>3.4873046875</ele>
        <time>2026-09-12T09:05:47Z</time>
      </trkpt>
      <trkpt lat="38.86898856335493" lon="115.47832997847082">
        <ele>3.41668701171875</ele>
        <time>2026-09-12T09:05:56Z</time>
      </trkpt>
      <trkpt lat="38.86898779001823" lon="115.47840827856152">
        <ele>2.427703857421875</ele>
        <time>2026-09-12T09:05:59Z</time>
      </trkpt>
      <trkpt lat="38.868964241396185" lon="115.47855986251203">
        <ele>3.181121826171875</ele>
        <time>2026-09-12T09:06:05Z</time>
      </trkpt>
      <trkpt lat="38.86898346868611" lon="115.47864217586097">
        <ele>4.740509033203125</ele>
        <time>2026-09-12T09:06:08Z</time>
      </trkpt>
      <trkpt lat="38.86904172065831" lon="115.47874054617508">
        <ele>7.357635498046875</ele>
        <time>2026-09-12T09:06:11Z</time>
      </trkpt>
      <trkpt lat="38.86910384271535" lon="115.47879474661258">
        <ele>8.0902099609375</ele>
        <time>2026-09-12T09:06:14Z</time>
      </trkpt>
      <trkpt lat="38.869231948148766" lon="115.4788559659858">
        <ele>8.39599609375</ele>
        <time>2026-09-12T09:06:20Z</time>
      </trkpt>
      <trkpt lat="38.86948086085797" lon="115.47887400483205">
        <ele>9.902069091796875</ele>
        <time>2026-09-12T09:06:32Z</time>
      </trkpt>
      <trkpt lat="38.869751090126535" lon="115.4790054768004">
        <ele>13.10479736328125</ele>
        <time>2026-09-12T09:06:47Z</time>
      </trkpt>
      <trkpt lat="38.869809153524045" lon="115.47903859696711">
        <ele>12.81634521484375</ele>
        <time>2026-09-12T09:06:50Z</time>
      </trkpt>
      <trkpt lat="38.870054126575695" lon="115.47907671351433">
        <ele>11.9971923828125</ele>
        <time>2026-09-12T09:07:02Z</time>
      </trkpt>
      <trkpt lat="38.870179895993026" lon="115.47902148591051">
        <ele>10.691986083984375</ele>
        <time>2026-09-12T09:07:08Z</time>
      </trkpt>
      <trkpt lat="38.87027244569185" lon="115.4788839462675">
        <ele>9.695587158203125</ele>
        <time>2026-09-12T09:07:14Z</time>
      </trkpt>
      <trkpt lat="38.8703039485542" lon="115.47871830656271">
        <ele>7.83721923828125</ele>
        <time>2026-09-12T09:07:20Z</time>
      </trkpt>
      <trkpt lat="38.8703893924394" lon="115.4785426222108">
        <ele>7.2945556640625</ele>
        <time>2026-09-12T09:07:26Z</time>
      </trkpt>
      <trkpt lat="38.87036143069335" lon="115.47820432945676">
        <ele>5.974212646484375</ele>
        <time>2026-09-12T09:07:38Z</time>
      </trkpt>
      <trkpt lat="38.87040841095708" lon="115.47786000647987">
        <ele>5.199249267578125</ele>
        <time>2026-09-12T09:07:50Z</time>
      </trkpt>
      <trkpt lat="38.870483394368215" lon="115.47752170516102">
        <ele>4.74871826171875</ele>
        <time>2026-09-12T09:08:02Z</time>
      </trkpt>
      <trkpt lat="38.870559338364856" lon="115.47716935225172">
        <ele>3.40631103515625</ele>
        <time>2026-09-12T09:08:14Z</time>
      </trkpt>
      <trkpt lat="38.870603797257836" lon="115.47698966248356">
        <ele>3.11346435546875</ele>
        <time>2026-09-12T09:08:20Z</time>
      </trkpt>
      <trkpt lat="38.870597789825304" lon="115.47663732311915">
        <ele>8.38507080078125</ele>
        <time>2026-09-12T09:08:32Z</time>
      </trkpt>
      <trkpt lat="38.87059830921381" lon="115.47646968628396">
        <ele>9.3514404296875</ele>
        <time>2026-09-12T09:08:38Z</time>
      </trkpt>
      <trkpt lat="38.870551140238845" lon="115.47640143294723">
        <ele>9.636138916015625</ele>
        <time>2026-09-12T09:08:41Z</time>
      </trkpt>
      <trkpt lat="38.87048305490517" lon="115.47635827749426">
        <ele>9.3316650390625</ele>
        <time>2026-09-12T09:08:44Z</time>
      </trkpt>
      <trkpt lat="38.870330094822954" lon="115.47634223533527">
        <ele>9.231964111328125</ele>
        <time>2026-09-12T09:08:50Z</time>
      </trkpt>
      <trkpt lat="38.870063517494" lon="115.4764376300084">
        <ele>8.49560546875</ele>
        <time>2026-09-12T09:09:02Z</time>
      </trkpt>
      <trkpt lat="38.86995190217755" lon="115.47655007063992">
        <ele>8.453887939453125</ele>
        <time>2026-09-12T09:09:08Z</time>
      </trkpt>
      <trkpt lat="38.86981912626873" lon="115.47660228524192">
        <ele>10.13800048828125</ele>
        <time>2026-09-12T09:09:14Z</time>
      </trkpt>
      <trkpt lat="38.86957930973496" lon="115.47661937953028">
        <ele>10.231048583984375</ele>
        <time>2026-09-12T09:09:26Z</time>
      </trkpt>
      <trkpt lat="38.86950327183837" lon="115.4765912820774">
        <ele>7.30206298828125</ele>
        <time>2026-09-12T09:09:32Z</time>
      </trkpt>
      <trkpt lat="38.86948505484243" lon="115.47651198309482">
        <ele>6.607696533203125</ele>
        <time>2026-09-12T09:09:35Z</time>
      </trkpt>
      <trkpt lat="38.869515807590126" lon="115.47643167440842">
        <ele>8.740509033203125</ele>
        <time>2026-09-12T09:09:38Z</time>
      </trkpt>
      <trkpt lat="38.8695367648286" lon="115.47607130508672">
        <ele>11.170806884765625</ele>
        <time>2026-09-12T09:09:50Z</time>
      </trkpt>
      <trkpt lat="38.86952352554978" lon="115.47598497967876">
        <ele>12.2081298828125</ele>
        <time>2026-09-12T09:09:53Z</time>
      </trkpt>
      <trkpt lat="38.869546051346745" lon="115.4758233650684">
        <ele>10.36669921875</ele>
        <time>2026-09-12T09:09:59Z</time>
      </trkpt>
      <trkpt lat="38.86956884372709" lon="115.47575510400563">
        <ele>9.730712890625</ele>
        <time>2026-09-12T09:10:02Z</time>
      </trkpt>
      <trkpt lat="38.86961865251974" lon="115.47569788147315">
        <ele>10.201904296875</ele>
        <time>2026-09-12T09:10:05Z</time>
      </trkpt>
      <trkpt lat="38.869742474230776" lon="115.4756597220222">
        <ele>9.46771240234375</ele>
        <time>2026-09-12T09:10:11Z</time>
      </trkpt>
      <trkpt lat="38.869810433233376" lon="115.47565870987806">
        <ele>8.886688232421875</ele>
        <time>2026-09-12T09:10:14Z</time>
      </trkpt>
      <trkpt lat="38.86987033376737" lon="115.4756356152307">
        <ele>9.66595458984375</ele>
        <time>2026-09-12T09:10:17Z</time>
      </trkpt>
      <trkpt lat="38.86994993420474" lon="115.47551113503623">
        <ele>8.70208740234375</ele>
        <time>2026-09-12T09:10:23Z</time>
      </trkpt>
      <trkpt lat="38.87000285586571" lon="115.47549406406617">
        <ele>8.53216552734375</ele>
        <time>2026-09-12T09:10:26Z</time>
      </trkpt>
      <trkpt lat="38.87013979902352" lon="115.47550107378639">
        <ele>10.37786865234375</ele>
        <time>2026-09-12T09:10:35Z</time>
      </trkpt>
      <trkpt lat="38.870212700882014" lon="115.4754809889892">
        <ele>9.604522705078125</ele>
        <time>2026-09-12T09:10:38Z</time>
      </trkpt>
      <trkpt lat="38.87046156401104" lon="115.4754819622052">
        <ele>8.502197265625</ele>
        <time>2026-09-12T09:10:50Z</time>
      </trkpt>
      <trkpt lat="38.870628653284975" lon="115.47554618439682">
        <ele>2.3167724609375</ele>
        <time>2026-09-12T09:11:02Z</time>
      </trkpt>
      <trkpt lat="38.87074643548284" lon="115.47549296891665">
        <ele>3.6043701171875</ele>
        <time>2026-09-12T09:11:08Z</time>
      </trkpt>
      <trkpt lat="38.87101938513481" lon="115.4755290719098">
        <ele>6.805450439453125</ele>
        <time>2026-09-12T09:11:20Z</time>
      </trkpt>
      <trkpt lat="38.871064451382594" lon="115.47556118775405">
        <ele>5.004364013671875</ele>
        <time>2026-09-12T09:11:23Z</time>
      </trkpt>
      <trkpt lat="38.87113244179466" lon="115.47557121733654">
        <ele>5.339080810546875</ele>
        <time>2026-09-12T09:11:26Z</time>
      </trkpt>
      <trkpt lat="38.87133320590776" lon="115.47552802955963">
        <ele>8.660736083984375</ele>
        <time>2026-09-12T09:11:35Z</time>
      </trkpt>
      <trkpt lat="38.87147700776918" lon="115.47548685640196">
        <ele>9.886505126953125</ele>
        <time>2026-09-12T09:11:41Z</time>
      </trkpt>
      <trkpt lat="38.871800791385084" lon="115.4754747711162">
        <ele>11.16436767578125</ele>
        <time>2026-09-12T09:11:56Z</time>
      </trkpt>
      <trkpt lat="38.87204165591074" lon="115.47547474152091">
        <ele>5.570648193359375</ele>
        <time>2026-09-12T09:12:08Z</time>
      </trkpt>
      <trkpt lat="38.87215068612033" lon="115.47550684947213">
        <ele>6.826324462890625</ele>
        <time>2026-09-12T09:12:14Z</time>
      </trkpt>
      <trkpt lat="38.872220022033886" lon="115.47563833793804">
        <ele>9.3748779296875</ele>
        <time>2026-09-12T09:12:23Z</time>
      </trkpt>
      <trkpt lat="38.87226807802795" lon="115.4756674421003">
        <ele>9.738250732421875</ele>
        <time>2026-09-12T09:12:26Z</time>
      </trkpt>
      <trkpt lat="38.87246908233043" lon="115.47570857304501">
        <ele>6.881072998046875</ele>
        <time>2026-09-12T09:12:35Z</time>
      </trkpt>
      <trkpt lat="38.87253116482726" lon="115.47574972109217">
        <ele>5.783935546875</ele>
        <time>2026-09-12T09:12:38Z</time>
      </trkpt>
      <trkpt lat="38.8725713341812" lon="115.47581697062502">
        <ele>5.34979248046875</ele>
        <time>2026-09-12T09:12:41Z</time>
      </trkpt>
      <trkpt lat="38.87257851070422" lon="115.47588020910123">
        <ele>4.4373779296875</ele>
        <time>2026-09-12T09:12:44Z</time>
      </trkpt>
      <trkpt lat="38.87243062682744" lon="115.47624159653695">
        <ele>6.25787353515625</ele>
        <time>2026-09-12T09:12:59Z</time>
      </trkpt>
      <trkpt lat="38.87231163361257" lon="115.47656985710358">
        <ele>9.662628173828125</ele>
        <time>2026-09-12T09:13:11Z</time>
      </trkpt>
      <trkpt lat="38.87218961478955" lon="115.47688808190057">
        <ele>8.861724853515625</ele>
        <time>2026-09-12T09:13:23Z</time>
      </trkpt>
      <trkpt lat="38.87211848793945" lon="115.47717819524301">
        <ele>7.459136962890625</ele>
        <time>2026-09-12T09:13:35Z</time>
      </trkpt>
      <trkpt lat="38.87206689498818" lon="115.47730970279629">
        <ele>7.062744140625</ele>
        <time>2026-09-12T09:13:41Z</time>
      </trkpt>
      <trkpt lat="38.872045796230005" lon="115.47741429780535">
        <ele>4.741424560546875</ele>
        <time>2026-09-12T09:13:47Z</time>
      </trkpt>
      <trkpt lat="38.87193012473075" lon="115.47771024814439">
        <ele>5.047637939453125</ele>
        <time>2026-09-12T09:13:59Z</time>
      </trkpt>
      <trkpt lat="38.871807913954356" lon="115.47796021851956">
        <ele>6.970458984375</ele>
        <time>2026-09-12T09:14:08Z</time>
      </trkpt>
      <trkpt lat="38.8716809298709" lon="115.4782874865832">
        <ele>9.32733154296875</ele>
        <time>2026-09-12T09:14:20Z</time>
      </trkpt>
      <trkpt lat="38.871554092237034" lon="115.47866494903028">
        <ele>8.43212890625</ele>
        <time>2026-09-12T09:14:35Z</time>
      </trkpt>
      <trkpt lat="38.87142806394793" lon="115.4789761592226">
        <ele>8.37994384765625</ele>
        <time>2026-09-12T09:14:47Z</time>
      </trkpt>
      <trkpt lat="38.8712912234414" lon="115.47934961181126">
        <ele>8.623077392578125</ele>
        <time>2026-09-12T09:15:02Z</time>
      </trkpt>
      <trkpt lat="38.871152420672274" lon="115.47973511333424">
        <ele>7.3714599609375</ele>
        <time>2026-09-12T09:15:17Z</time>
      </trkpt>
      <trkpt lat="38.87100258198117" lon="115.48010556044396">
        <ele>7.186981201171875</ele>
        <time>2026-09-12T09:15:32Z</time>
      </trkpt>
      <trkpt lat="38.87086370647594" lon="115.48046496564919">
        <ele>6.678009033203125</ele>
        <time>2026-09-12T09:15:47Z</time>
      </trkpt>
      <trkpt lat="38.87072289203735" lon="115.4808444507622">
        <ele>7.797882080078125</ele>
        <time>2026-09-12T09:16:02Z</time>
      </trkpt>
      <trkpt lat="38.87057400445526" lon="115.48119683391822">
        <ele>5.403289794921875</ele>
        <time>2026-09-12T09:16:17Z</time>
      </trkpt>
      <trkpt lat="38.87046513090895" lon="115.48156126070954">
        <ele>5.80194091796875</ele>
        <time>2026-09-12T09:16:32Z</time>
      </trkpt>
      <trkpt lat="38.87036054797407" lon="115.48168374898856">
        <ele>2.83905029296875</ele>
        <time>2026-09-12T09:16:38Z</time>
      </trkpt>
      <trkpt lat="38.87025143809438" lon="115.4819668621734">
        <ele>1.573699951171875</ele>
        <time>2026-09-12T09:16:50Z</time>
      </trkpt>
      <trkpt lat="38.8701643548835" lon="115.48226302452461">
        <ele>2.49688720703125</ele>
        <time>2026-09-12T09:17:02Z</time>
      </trkpt>
      <trkpt lat="38.87006000234098" lon="115.48246381877394">
        <ele>1.80230712890625</ele>
        <time>2026-09-12T09:17:11Z</time>
      </trkpt>
      <trkpt lat="38.87002469688555" lon="115.48269371852466">
        <ele>3.984222412109375</ele>
        <time>2026-09-12T09:17:20Z</time>
      </trkpt>
      <trkpt lat="38.86999591054353" lon="115.48276098416">
        <ele>3.347137451171875</ele>
        <time>2026-09-12T09:17:23Z</time>
      </trkpt>
      <trkpt lat="38.86993810219807" lon="115.48281520253464">
        <ele>2.557159423828125</ele>
        <time>2026-09-12T09:17:26Z</time>
      </trkpt>
      <trkpt lat="38.86990229922209" lon="115.48287544173496">
        <ele>3.30865478515625</ele>
        <time>2026-09-12T09:17:29Z</time>
      </trkpt>
      <trkpt lat="38.86987075349318" lon="115.48302402500573">
        <ele>4.104278564453125</ele>
        <time>2026-09-12T09:17:35Z</time>
      </trkpt>
      <trkpt lat="38.86980515917754" lon="115.48314952261794">
        <ele>4.931732177734375</ele>
        <time>2026-09-12T09:17:41Z</time>
      </trkpt>
      <trkpt lat="38.86969423136107" lon="115.4834928766803">
        <ele>8.00970458984375</ele>
        <time>2026-09-12T09:17:56Z</time>
      </trkpt>
      <trkpt lat="38.86955242241482" lon="115.48387036941894">
        <ele>8.90338134765625</ele>
        <time>2026-09-12T09:18:11Z</time>
      </trkpt>
      <trkpt lat="38.86951662588703" lon="115.48393261724185">
        <ele>8.5609130859375</ele>
        <time>2026-09-12T09:18:14Z</time>
      </trkpt>
      <trkpt lat="38.869402595193506" lon="115.48390050554809">
        <ele>8.211700439453125</ele>
        <time>2026-09-12T09:18:26Z</time>
      </trkpt>
      <trkpt lat="38.86935649682439" lon="115.4838583462907">
        <ele>9.575592041015625</ele>
        <time>2026-09-12T09:18:29Z</time>
      </trkpt>
      <trkpt lat="38.8692706810105" lon="115.4839045374018">
        <ele>9.398284912109375</ele>
        <time>2026-09-12T09:18:35Z</time>
      </trkpt>
      <trkpt lat="38.86922686236674" lon="115.48395775088586">
        <ele>9.016693115234375</ele>
        <time>2026-09-12T09:18:38Z</time>
      </trkpt>
      <trkpt lat="38.869218136506056" lon="115.48404910936854">
        <ele>10.529388427734375</ele>
        <time>2026-09-12T09:18:41Z</time>
      </trkpt>
      <trkpt lat="38.86927076411349" lon="115.48427197526163">
        <ele>8.6920166015625</ele>
        <time>2026-09-12T09:18:50Z</time>
      </trkpt>
      <trkpt lat="38.86927100975651" lon="115.48435530151869">
        <ele>8.584442138671875</ele>
        <time>2026-09-12T09:18:53Z</time>
      </trkpt>
      <trkpt lat="38.86920069202745" lon="115.48457316355187">
        <ele>5.447601318359375</ele>
        <time>2026-09-12T09:19:02Z</time>
      </trkpt>
      <trkpt lat="38.86914610791861" lon="115.48470368174985">
        <ele>4.414215087890625</ele>
        <time>2026-09-12T09:19:08Z</time>
      </trkpt>
      <trkpt lat="38.86912058473756" lon="115.484860298937">
        <ele>4.85467529296875</ele>
        <time>2026-09-12T09:19:14Z</time>
      </trkpt>
      <trkpt lat="38.86908880600012" lon="115.48491188227844">
        <ele>5.6634521484375</ele>
        <time>2026-09-12T09:19:17Z</time>
      </trkpt>
      <trkpt lat="38.86900978016955" lon="115.48524381725377">
        <ele>6.083984375</ele>
        <time>2026-09-12T09:19:29Z</time>
      </trkpt>
      <trkpt lat="38.86897397537603" lon="115.48530305417984">
        <ele>4.341827392578125</ele>
        <time>2026-09-12T09:19:32Z</time>
      </trkpt>
      <trkpt lat="38.8688253259059" lon="115.48539342716343">
        <ele>4.502960205078125</ele>
        <time>2026-09-12T09:19:41Z</time>
      </trkpt>
      <trkpt lat="38.868783503755715" lon="115.48544563731167">
        <ele>4.93505859375</ele>
        <time>2026-09-12T09:19:44Z</time>
      </trkpt>
      <trkpt lat="38.86867071669811" lon="115.48583417786578">
        <ele>2.62957763671875</ele>
        <time>2026-09-12T09:19:59Z</time>
      </trkpt>
      <trkpt lat="38.86857444847366" lon="115.48606308980622">
        <ele>4.72064208984375</ele>
        <time>2026-09-12T09:20:08Z</time>
      </trkpt>
      <trkpt lat="38.868488859268105" lon="115.48618558214282">
        <ele>4.778778076171875</ele>
        <time>2026-09-12T09:20:14Z</time>
      </trkpt>
      <trkpt lat="38.86846132688177" lon="115.48633818606544">
        <ele>5.484100341796875</ele>
        <time>2026-09-12T09:20:20Z</time>
      </trkpt>
      <trkpt lat="38.868397829670414" lon="115.48649581436196">
        <ele>5.59210205078125</ele>
        <time>2026-09-12T09:20:26Z</time>
      </trkpt>
      <trkpt lat="38.86832024522791" lon="115.48662131806041">
        <ele>6.310211181640625</ele>
        <time>2026-09-12T09:20:32Z</time>
      </trkpt>
      <trkpt lat="38.86821220808094" lon="115.48692552980819">
        <ele>8.41986083984375</ele>
        <time>2026-09-12T09:20:44Z</time>
      </trkpt>
      <trkpt lat="38.86816397105347" lon="115.48717351331206">
        <ele>10.392547607421875</ele>
        <time>2026-09-12T09:20:53Z</time>
      </trkpt>
      <trkpt lat="38.86818710711369" lon="115.48722370844237">
        <ele>9.460113525390625</ele>
        <time>2026-09-12T09:20:56Z</time>
      </trkpt>
      <trkpt lat="38.868175307469045" lon="115.4872889672609">
        <ele>9.779022216796875</ele>
        <time>2026-09-12T09:20:59Z</time>
      </trkpt>
      <trkpt lat="38.86810828539263" lon="115.4872688962562">
        <ele>8.50909423828125</ele>
        <time>2026-09-12T09:21:02Z</time>
      </trkpt>
      <trkpt lat="38.86784599714294" lon="115.4871223502823">
        <ele>7.043487548828125</ele>
        <time>2026-09-12T09:21:14Z</time>
      </trkpt>
      <trkpt lat="38.86755879739376" lon="115.48700090646923">
        <ele>8.730377197265625</ele>
        <time>2026-09-12T09:21:29Z</time>
      </trkpt>
      <trkpt lat="38.86729245197477" lon="115.48683428220292">
        <ele>5.871612548828125</ele>
        <time>2026-09-12T09:21:44Z</time>
      </trkpt>
      <trkpt lat="38.86701732596911" lon="115.48673994400552">
        <ele>6.6484375</ele>
        <time>2026-09-12T09:21:59Z</time>
      </trkpt>
      <trkpt lat="38.866753092653404" lon="115.48661147011211">
        <ele>10.67633056640625</ele>
        <time>2026-09-12T09:22:11Z</time>
      </trkpt>
      <trkpt lat="38.866472847509904" lon="115.48647597065452">
        <ele>8.732147216796875</ele>
        <time>2026-09-12T09:22:26Z</time>
      </trkpt>
      <trkpt lat="38.86616170003687" lon="115.48636758184001">
        <ele>8.13616943359375</ele>
        <time>2026-09-12T09:22:41Z</time>
      </trkpt>
      <trkpt lat="38.865872474881094" lon="115.486237103538">
        <ele>8.35498046875</ele>
        <time>2026-09-12T09:22:56Z</time>
      </trkpt>
      <trkpt lat="38.865577259072495" lon="115.48610863402743">
        <ele>7.90399169921875</ele>
        <time>2026-09-12T09:23:11Z</time>
      </trkpt>
      <trkpt lat="38.86530310291207" lon="115.48600425685926">
        <ele>6.92449951171875</ele>
        <time>2026-09-12T09:23:26Z</time>
      </trkpt>
      <trkpt lat="38.86504288251752" lon="115.48588080309285">
        <ele>6.28143310546875</ele>
        <time>2026-09-12T09:23:41Z</time>
      </trkpt>
      <trkpt lat="38.86477061541293" lon="115.48573927992112">
        <ele>3.984893798828125</ele>
        <time>2026-09-12T09:23:56Z</time>
      </trkpt>
      <trkpt lat="38.86455340680098" lon="115.48562786855288">
        <ele>4.193389892578125</ele>
        <time>2026-09-12T09:24:08Z</time>
      </trkpt>
      <trkpt lat="38.86450040369022" lon="115.48561683164296">
        <ele>6.460479736328125</ele>
        <time>2026-09-12T09:24:11Z</time>
      </trkpt>
      <trkpt lat="38.86422898778845" lon="115.48542511159027">
        <ele>9.274017333984375</ele>
        <time>2026-09-12T09:24:26Z</time>
      </trkpt>
      <trkpt lat="38.863953630684975" lon="115.48525246727014">
        <ele>8.578704833984375</ele>
        <time>2026-09-12T09:24:41Z</time>
      </trkpt>
      <trkpt lat="38.863741336510195" lon="115.48511294554358">
        <ele>9.891632080078125</ele>
        <time>2026-09-12T09:24:53Z</time>
      </trkpt>
      <trkpt lat="38.86348386000577" lon="115.48490315391209">
        <ele>3.475982666015625</ele>
        <time>2026-09-12T09:25:08Z</time>
      </trkpt>
      <trkpt lat="38.86320243861727" lon="115.48470742077238">
        <ele>4.62518310546875</ele>
        <time>2026-09-12T09:25:23Z</time>
      </trkpt>
      <trkpt lat="38.863037252014166" lon="115.48461307112282">
        <ele>3.10107421875</ele>
        <time>2026-09-12T09:25:32Z</time>
      </trkpt>
      <trkpt lat="38.86289196253932" lon="115.4844875972166">
        <ele>2.00628662109375</ele>
        <time>2026-09-12T09:25:41Z</time>
      </trkpt>
      <trkpt lat="38.862625696093254" lon="115.48434707931833">
        <ele>4.898223876953125</ele>
        <time>2026-09-12T09:25:56Z</time>
      </trkpt>
      <trkpt lat="38.86237425277903" lon="115.48414933586275">
        <ele>3.412841796875</ele>
        <time>2026-09-12T09:26:11Z</time>
      </trkpt>
      <trkpt lat="38.86209588092443" lon="115.48397067075994">
        <ele>5.407928466796875</ele>
        <time>2026-09-12T09:26:26Z</time>
      </trkpt>
      <trkpt lat="38.86199467690647" lon="115.48388233762611">
        <ele>6.113128662109375</ele>
        <time>2026-09-12T09:26:32Z</time>
      </trkpt>
      <trkpt lat="38.86185256962218" lon="115.4838191077129">
        <ele>10.06195068359375</ele>
        <time>2026-09-12T09:26:41Z</time>
      </trkpt>
      <trkpt lat="38.86182433694485" lon="115.48373478150319">
        <ele>9.70489501953125</ele>
        <time>2026-09-12T09:26:47Z</time>
      </trkpt>
      <trkpt lat="38.86174258343867" lon="115.48414238565125">
        <ele>11.476104736328125</ele>
        <time>2026-09-12T09:27:08Z</time>
      </trkpt>
      <trkpt lat="38.861716784271" lon="115.48420563634593">
        <ele>10.646148681640625</ele>
        <time>2026-09-12T09:27:11Z</time>
      </trkpt>
      <trkpt lat="38.86167871367258" lon="115.48417451919404">
        <ele>7.569427490234375</ele>
        <time>2026-09-12T09:27:20Z</time>
      </trkpt>
      <trkpt lat="38.861623265603704" lon="115.48435121768911">
        <ele>5.36328125</ele>
        <time>2026-09-12T09:27:29Z</time>
      </trkpt>
      <trkpt lat="38.86164465358519" lon="115.48448674588226">
        <ele>5.740570068359375</ele>
        <time>2026-09-12T09:27:35Z</time>
      </trkpt>
      <trkpt lat="38.86164289455474" lon="115.48456806468063">
        <ele>8.297943115234375</ele>
        <time>2026-09-12T09:27:38Z</time>
      </trkpt>
      <trkpt lat="38.86162111114306" lon="115.48463733878805">
        <ele>7.79412841796875</ele>
        <time>2026-09-12T09:27:41Z</time>
      </trkpt>
      <trkpt lat="38.86158826574238" lon="115.48468352379662">
        <ele>9.233367919921875</ele>
        <time>2026-09-12T09:27:44Z</time>
      </trkpt>
      <trkpt lat="38.86149823280491" lon="115.48465542463933">
        <ele>9.276458740234375</ele>
        <time>2026-09-12T09:27:50Z</time>
      </trkpt>
      <trkpt lat="38.86129981565309" lon="115.48447674874295">
        <ele>6.422210693359375</ele>
        <time>2026-09-12T09:28:02Z</time>
      </trkpt>
      <trkpt lat="38.86101091102168" lon="115.48445469757355">
        <ele>7.08892822265625</ele>
        <time>2026-09-12T09:28:14Z</time>
      </trkpt>
      <trkpt lat="38.86093390936792" lon="115.4844396480107">
        <ele>8.93505859375</ele>
        <time>2026-09-12T09:28:17Z</time>
      </trkpt>
      <trkpt lat="38.86070275639448" lon="115.4843443027898">
        <ele>12.281005859375</ele>
        <time>2026-09-12T09:28:26Z</time>
      </trkpt>
      <trkpt lat="38.86058172884589" lon="115.48431219180911">
        <ele>12.8343505859375</ele>
        <time>2026-09-12T09:28:32Z</time>
      </trkpt>
      <trkpt lat="38.86042251229271" lon="115.4842088064895">
        <ele>9.12109375</ele>
        <time>2026-09-12T09:28:41Z</time>
      </trkpt>
      <trkpt lat="38.860132472013" lon="115.48414057479646">
        <ele>8.897064208984375</ele>
        <time>2026-09-12T09:28:53Z</time>
      </trkpt>
      <trkpt lat="38.85987521527162" lon="115.4840050760029">
        <ele>7.13458251953125</ele>
        <time>2026-09-12T09:29:05Z</time>
      </trkpt>
      <trkpt lat="38.85957704344225" lon="115.48389066486953">
        <ele>7.908172607421875</ele>
        <time>2026-09-12T09:29:20Z</time>
      </trkpt>
      <trkpt lat="38.85929784931157" lon="115.48377223587183">
        <ele>8.2052001953125</ele>
        <time>2026-09-12T09:29:35Z</time>
      </trkpt>
      <trkpt lat="38.85926566906492" lon="115.48370497690249">
        <ele>6.004638671875</ele>
        <time>2026-09-12T09:29:41Z</time>
      </trkpt>
      <trkpt lat="38.859439789392155" lon="115.48343891626405">
        <ele>6.1932373046875</ele>
        <time>2026-09-12T09:29:53Z</time>
      </trkpt>
      <trkpt lat="38.85949960262138" lon="115.48338670509928">
        <ele>6.405181884765625</ele>
        <time>2026-09-12T09:29:56Z</time>
      </trkpt>
      <trkpt lat="38.85967054834416" lon="115.48306041090186">
        <ele>5.023468017578125</ele>
        <time>2026-09-12T09:30:11Z</time>
      </trkpt>
      <trkpt lat="38.85978271038294" lon="115.48279636776842">
        <ele>6.91204833984375</ele>
        <time>2026-09-12T09:30:23Z</time>
      </trkpt>
      <trkpt lat="38.85981894463139" lon="115.4825423739079">
        <ele>3.39752197265625</ele>
        <time>2026-09-12T09:30:35Z</time>
      </trkpt>
      <trkpt lat="38.85997985422972" lon="115.48220102586862">
        <ele>2.847137451171875</ele>
        <time>2026-09-12T09:30:50Z</time>
      </trkpt>
      <trkpt lat="38.86006929268541" lon="115.4820263357192">
        <ele>2.413818359375</ele>
        <time>2026-09-12T09:30:59Z</time>
      </trkpt>
      <trkpt lat="38.860071074077005" lon="115.48195204677197">
        <ele>1.01416015625</ele>
        <time>2026-09-12T09:31:02Z</time>
      </trkpt>
      <trkpt lat="38.86009486682402" lon="115.48188578640641">
        <ele>1.033111572265625</ele>
        <time>2026-09-12T09:31:05Z</time>
      </trkpt>
      <trkpt lat="38.860170489778206" lon="115.48177133259684">
        <ele>-2.774932861328125</ele>
        <time>2026-09-12T09:31:11Z</time>
      </trkpt>
      <trkpt lat="38.860192272005115" lon="115.48170105705043">
        <ele>-0.933135986328125</ele>
        <time>2026-09-12T09:31:14Z</time>
      </trkpt>
      <trkpt lat="38.860315886143155" lon="115.48159262103138">
        <ele>2.788665771484375</ele>
        <time>2026-09-12T09:31:20Z</time>
      </trkpt>
      <trkpt lat="38.86035563796382" lon="115.48151531619162">
        <ele>5.669189453125</ele>
        <time>2026-09-12T09:31:26Z</time>
      </trkpt>
      <trkpt lat="38.86047931976114" lon="115.48142997000235">
        <ele>5.166351318359375</ele>
        <time>2026-09-12T09:31:35Z</time>
      </trkpt>
      <trkpt lat="38.86072131160054" lon="115.48147310781384">
        <ele>8.215789794921875</ele>
        <time>2026-09-12T09:31:50Z</time>
      </trkpt>
      <trkpt lat="38.86082052368351" lon="115.48156445012879">
        <ele>9.73590087890625</ele>
        <time>2026-09-12T09:31:56Z</time>
      </trkpt>
      <trkpt lat="38.861107769447216" lon="115.4817029527137">
        <ele>9.1705322265625</ele>
        <time>2026-09-12T09:32:11Z</time>
      </trkpt>
      <trkpt lat="38.86119289550286" lon="115.481762172285">
        <ele>8.75152587890625</ele>
        <time>2026-09-12T09:32:17Z</time>
      </trkpt>
      <trkpt lat="38.86125585170022" lon="115.48175915287798">
        <ele>7.925537109375</ele>
        <time>2026-09-12T09:32:20Z</time>
      </trkpt>
      <trkpt lat="38.86156316881299" lon="115.48192576260553">
        <ele>10.49334716796875</ele>
        <time>2026-09-12T09:32:35Z</time>
      </trkpt>
      <trkpt lat="38.8616939711135" lon="115.48198664499272">
        <ele>10.9373779296875</ele>
        <time>2026-09-12T09:32:41Z</time>
      </trkpt>
      <trkpt lat="38.86191965591138" lon="115.48215962824368">
        <ele>19.23992919921875</ele>
        <time>2026-09-12T09:32:53Z</time>
      </trkpt>
      <trkpt lat="38.86197564536746" lon="115.48216664871639">
        <ele>16.05511474609375</ele>
        <time>2026-09-12T09:32:56Z</time>
      </trkpt>
      <trkpt lat="38.862009494136046" lon="115.48212146889324">
        <ele>9.38079833984375</ele>
        <time>2026-09-12T09:32:59Z</time>
      </trkpt>
      <trkpt lat="38.86216141844859" lon="115.48212446199842">
        <ele>8.41729736328125</ele>
        <time>2026-09-12T09:33:05Z</time>
      </trkpt>
      <trkpt lat="38.86229237815524" lon="115.48179416238158">
        <ele>6.956634521484375</ele>
        <time>2026-09-12T09:33:23Z</time>
      </trkpt>
      <trkpt lat="38.86231990449131" lon="115.48163755090647">
        <ele>8.38385009765625</ele>
        <time>2026-09-12T09:33:29Z</time>
      </trkpt>
      <trkpt lat="38.86231950826204" lon="115.4815020249877">
        <ele>7.1832275390625</ele>
        <time>2026-09-12T09:33:35Z</time>
      </trkpt>
      <trkpt lat="38.862407297565376" lon="115.48110447289686">
        <ele>10.019775390625</ele>
        <time>2026-09-12T09:33:50Z</time>
      </trkpt>
      <trkpt lat="38.86244030346038" lon="115.4807701744997">
        <ele>11.0211181640625</ele>
        <time>2026-09-12T09:34:02Z</time>
      </trkpt>
      <trkpt lat="38.862430939782584" lon="115.4806436863225">
        <ele>7.469573974609375</ele>
        <time>2026-09-12T09:34:08Z</time>
      </trkpt>
      <trkpt lat="38.86251092410421" lon="115.48031038834021">
        <ele>8.67822265625</ele>
        <time>2026-09-12T09:34:20Z</time>
      </trkpt>
      <trkpt lat="38.86261683974161" lon="115.47995801530584">
        <ele>5.7105712890625</ele>
        <time>2026-09-12T09:34:35Z</time>
      </trkpt>
      <trkpt lat="38.862663914902434" lon="115.47964881769946">
        <ele>5.882110595703125</ele>
        <time>2026-09-12T09:34:47Z</time>
      </trkpt>
      <trkpt lat="38.862667539749474" lon="115.47952032239462">
        <ele>4.268310546875</ele>
        <time>2026-09-12T09:34:53Z</time>
      </trkpt>
      <trkpt lat="38.862762304737856" lon="115.47911274290962">
        <ele>5.1490478515625</ele>
        <time>2026-09-12T09:35:08Z</time>
      </trkpt>
      <trkpt lat="38.862826112183924" lon="115.47871320077718">
        <ele>8.3955078125</ele>
        <time>2026-09-12T09:35:23Z</time>
      </trkpt>
      <trkpt lat="38.86282690554234" lon="115.47864192725412">
        <ele>8.535919189453125</ele>
        <time>2026-09-12T09:35:26Z</time>
      </trkpt>
      <trkpt lat="38.862894165743896" lon="115.47839898769668">
        <ele>7.849517822265625</ele>
        <time>2026-09-12T09:35:35Z</time>
      </trkpt>
      <trkpt lat="38.86290663687118" lon="115.47821829411846">
        <ele>10.432891845703125</ele>
        <time>2026-09-12T09:35:41Z</time>
      </trkpt>
      <trkpt lat="38.86294133356387" lon="115.47811991331886">
        <ele>10.750762939453125</ele>
        <time>2026-09-12T09:35:44Z</time>
      </trkpt>
      <trkpt lat="38.86293590794084" lon="115.47797134564985">
        <ele>8.058380126953125</ele>
        <time>2026-09-12T09:35:50Z</time>
      </trkpt>
      <trkpt lat="38.862979400390905" lon="115.47780369948586">
        <ele>5.94158935546875</ele>
        <time>2026-09-12T09:35:56Z</time>
      </trkpt>
      <trkpt lat="38.86303018697694" lon="115.47773944780022">
        <ele>4.97723388671875</ele>
        <time>2026-09-12T09:35:59Z</time>
      </trkpt>
      <trkpt lat="38.86307807065608" lon="115.47770832305935">
        <ele>4.562530517578125</ele>
        <time>2026-09-12T09:36:02Z</time>
      </trkpt>
      <trkpt lat="38.863149051366754" lon="115.47771534118858">
        <ele>6.57049560546875</ele>
        <time>2026-09-12T09:36:08Z</time>
      </trkpt>
      <trkpt lat="38.86319404943947" lon="115.47772336634132">
        <ele>6.136444091796875</ele>
        <time>2026-09-12T09:36:32Z</time>
      </trkpt>
      <trkpt lat="38.86319404943947" lon="115.47772336634132">
        <ele>6.136444091796875</ele>
        <time>2026-09-12T09:36:44Z</time>
      </trkpt>
      <trkpt lat="38.86330757934685" lon="115.47723448723701">
        <ele>4.040435791015625</ele>
        <time>2026-09-12T09:37:20Z</time>
      </trkpt>
      <trkpt lat="38.86342154132504" lon="115.47689518131656">
        <ele>3.58697509765625</ele>
        <time>2026-09-12T09:37:35Z</time>
      </trkpt>
      <trkpt lat="38.86352554206541" lon="115.476566920717">
        <ele>2.080596923828125</ele>
        <time>2026-09-12T09:37:50Z</time>
      </trkpt>
      <trkpt lat="38.86363054948881" lon="115.47624066966195">
        <ele>2.38983154296875</ele>
        <time>2026-09-12T09:38:05Z</time>
      </trkpt>
      <trkpt lat="38.86371554090787" lon="115.47590438512904">
        <ele>1.906829833984375</ele>
        <time>2026-09-12T09:38:20Z</time>
      </trkpt>
      <trkpt lat="38.86371723951982" lon="115.47576953871082">
        <ele>1.819671630859375</ele>
        <time>2026-09-12T09:38:26Z</time>
      </trkpt>
      <trkpt lat="38.863888401512234" lon="115.47574737855614">
        <ele>0.806488037109375</ele>
        <time>2026-09-12T09:38:32Z</time>
      </trkpt>
      <trkpt lat="38.8640300985527" lon="115.47558908610276">
        <ele>-3.769287109375</ele>
        <time>2026-09-12T09:38:41Z</time>
      </trkpt>
      <trkpt lat="38.86423742830974" lon="115.47536120914992">
        <ele>-10.22589111328125</ele>
        <time>2026-09-12T09:38:50Z</time>
      </trkpt>
      <trkpt lat="38.86387367772841" lon="115.47316206195659">
        <ele>73.18212890625</ele>
        <time>2026-09-12T09:39:21Z</time>
      </trkpt>
      <trkpt lat="38.864252148433984" lon="115.47411256894554">
        <ele>16.441650390625</ele>
        <time>2026-09-12T09:39:33Z</time>
      </trkpt>
      <trkpt lat="38.864310979346165" lon="115.47406438112445">
        <ele>11.46746826171875</ele>
        <time>2026-09-12T09:39:39Z</time>
      </trkpt>
      <trkpt lat="38.864459077020236" lon="115.47377427667695">
        <ele>8.874114990234375</ele>
        <time>2026-09-12T09:39:57Z</time>
      </trkpt>
      <trkpt lat="38.864596015364434" lon="115.47342495428254">
        <ele>8.101654052734375</ele>
        <time>2026-09-12T09:40:15Z</time>
      </trkpt>
      <trkpt lat="38.86467248082037" lon="115.47325029311465">
        <ele>8.283172607421875</ele>
        <time>2026-09-12T09:40:24Z</time>
      </trkpt>
      <trkpt lat="38.864752365615836" lon="115.47322518970425">
        <ele>7.139617919921875</ele>
        <time>2026-09-12T09:40:30Z</time>
      </trkpt>
      <trkpt lat="38.864895486369214" lon="115.47329643793748">
        <ele>6.7435302734375</ele>
        <time>2026-09-12T09:40:39Z</time>
      </trkpt>
      <trkpt lat="38.86513299861139" lon="115.47352526315521">
        <ele>7.156524658203125</ele>
        <time>2026-09-12T09:40:57Z</time>
      </trkpt>
      <trkpt lat="38.865398524370164" lon="115.47376412364535">
        <ele>3.375213623046875</ele>
        <time>2026-09-12T09:41:15Z</time>
      </trkpt>
      <trkpt lat="38.865584862594794" lon="115.47392068683469">
        <ele>4.312530517578125</ele>
        <time>2026-09-12T09:41:27Z</time>
      </trkpt>
      <trkpt lat="38.86569292138286" lon="115.47396283143864">
        <ele>6.209136962890625</ele>
        <time>2026-09-12T09:41:33Z</time>
      </trkpt>
      <trkpt lat="38.86594040199769" lon="115.47418162114462">
        <ele>4.584259033203125</ele>
        <time>2026-09-12T09:41:48Z</time>
      </trkpt>
      <trkpt lat="38.86616783197309" lon="115.47437833143316">
        <ele>6.18756103515625</ele>
        <time>2026-09-12T09:42:03Z</time>
      </trkpt>
      <trkpt lat="38.86641632761681" lon="115.47460214183565">
        <ele>6.349212646484375</ele>
        <time>2026-09-12T09:42:18Z</time>
      </trkpt>
      <trkpt lat="38.86660449581858" lon="115.47469848105865">
        <ele>7.381256103515625</ele>
        <time>2026-09-12T09:42:27Z</time>
      </trkpt>
      <trkpt lat="38.86665659774274" lon="115.47474464834974">
        <ele>7.00494384765625</ele>
        <time>2026-09-12T09:42:30Z</time>
      </trkpt>
      <trkpt lat="38.86671407304968" lon="115.47492331382539">
        <ele>5.553131103515625</ele>
        <time>2026-09-12T09:42:39Z</time>
      </trkpt>
      <trkpt lat="38.86694870961395" lon="115.4751933026173">
        <ele>4.97808837890625</ele>
        <time>2026-09-12T09:42:54Z</time>
      </trkpt>
      <trkpt lat="38.867200997088055" lon="115.47534383972035">
        <ele>6.3336181640625</ele>
        <time>2026-09-12T09:43:06Z</time>
      </trkpt>
      <trkpt lat="38.86731624427408" lon="115.47545323867048">
        <ele>3.434234619140625</ele>
        <time>2026-09-12T09:43:15Z</time>
      </trkpt>
      <trkpt lat="38.86744827908033" lon="115.47549136652704">
        <ele>5.973480224609375</ele>
        <time>2026-09-12T09:43:21Z</time>
      </trkpt>
      <trkpt lat="38.86776320292683" lon="115.47552646056846">
        <ele>6.882171630859375</ele>
        <time>2026-09-12T09:43:33Z</time>
      </trkpt>
      <trkpt lat="38.867901139998715" lon="115.47553146258674">
        <ele>5.847808837890625</ele>
        <time>2026-09-12T09:43:39Z</time>
      </trkpt>
      <trkpt lat="38.86796419053928" lon="115.4755615686319">
        <ele>5.903533935546875</ele>
        <time>2026-09-12T09:43:42Z</time>
      </trkpt>
      <trkpt lat="38.868240081804814" lon="115.47557759543588">
        <ele>4.337127685546875</ele>
        <time>2026-09-12T09:43:54Z</time>
      </trkpt>
      <trkpt lat="38.86845396483919" lon="115.47557857295482">
        <ele>2.828887939453125</ele>
        <time>2026-09-12T09:44:03Z</time>
      </trkpt>
      <trkpt lat="38.86867568319949" lon="115.47552333709397">
        <ele>2.669647216796875</ele>
        <time>2026-09-12T09:44:15Z</time>
      </trkpt>
      <trkpt lat="38.868811655631305" lon="115.47554038486673">
        <ele>2.029571533203125</ele>
        <time>2026-09-12T09:44:21Z</time>
      </trkpt>
      <trkpt lat="38.86897654030716" lon="115.47553233426747">
        <ele>2.813751220703125</ele>
        <time>2026-09-12T09:44:30Z</time>
      </trkpt>
      <trkpt lat="38.86921393394698" lon="115.47571700332142">
        <ele>3.23443603515625</ele>
        <time>2026-09-12T09:44:45Z</time>
      </trkpt>
      <trkpt lat="38.8693910265561" lon="115.47578423597922">
        <ele>2.953216552734375</ele>
        <time>2026-09-12T09:44:54Z</time>
      </trkpt>
      <trkpt lat="38.869424211403086" lon="115.47585550160247">
        <ele>4.155792236328125</ele>
        <time>2026-09-12T09:44:57Z</time>
      </trkpt>
      <trkpt lat="38.86937124516106" lon="115.47620683907779">
        <ele>7.21209716796875</ele>
        <time>2026-09-12T09:45:09Z</time>
      </trkpt>
      <trkpt lat="38.869408973881676" lon="115.47646882853364">
        <ele>7.57037353515625</ele>
        <time>2026-09-12T09:45:18Z</time>
      </trkpt>
      <trkpt lat="38.86943915248482" lon="115.4765370840414">
        <ele>6.2474365234375</ele>
        <time>2026-09-12T09:45:21Z</time>
      </trkpt>
      <trkpt lat="38.86940535553071" lon="115.47660133223907">
        <ele>4.633026123046875</ele>
        <time>2026-09-12T09:45:27Z</time>
      </trkpt>
      <trkpt lat="38.86913255742965" lon="115.47661843057622">
        <ele>6.194366455078125</ele>
        <time>2026-09-12T09:45:39Z</time>
      </trkpt>
      <trkpt lat="38.8690795785048" lon="115.47661542563944">
        <ele>6.581878662109375</ele>
        <time>2026-09-12T09:45:42Z</time>
      </trkpt>
      <trkpt lat="38.86903149039718" lon="115.47657527899567">
        <ele>6.98858642578125</ele>
        <time>2026-09-12T09:45:45Z</time>
      </trkpt>
      <trkpt lat="38.86892704865975" lon="115.47640062859365">
        <ele>6.326446533203125</ele>
        <time>2026-09-12T09:45:54Z</time>
      </trkpt>
      <trkpt lat="38.86891575329996" lon="115.47629523004167">
        <ele>7.667449951171875</ele>
        <time>2026-09-12T09:46:03Z</time>
      </trkpt>
    </trkseg>
  </trk>
</gpx>