<?xml version="1.0" encoding="UTF-8"?>
<gpx xmlns="http://www.topografix.com/GPX/1/1" xmlns:gpxtpx="http://www.garmin.com/xmlschemas/TrackPointExtension/v1" xmlns:xsi="http://www.w3.org/2001/XMLSchema-instance" xsi:schemaLocation="http://www.topografix.com/GPX/1/1 http://www.topografix.com/GPX/1/1/gpx.xsd" version="1.1" creator="gpx.py -- https://github.com/tkrajina/gpxpy">
  <trk>
    <name>gpx from keep</name>
    <type>Run</type>
    <trkseg>
      <trkpt lat="38.86915957105337" lon="115.4766284654017">
        <ele>16.14056396484375</ele>
        <time>2026-08-01T23:46:30Z</time>
      </trkpt>
      <trkpt lat="38.86916276206894" lon="115.47669572061506">
        <ele>16.489990234375</ele>
        <time>2026-08-01T23:46:33Z</time>
      </trkpt>
      <trkpt lat="38.86914597874358" lon="115.47676799745177">
        <ele>16.32904052734375</ele>
        <time>2026-08-01T23:46:36Z</time>
      </trkpt>
      <trkpt lat="38.86900652354264" lon="115.47693063318025">
        <ele>11.059783935546875</ele>
        <time>2026-08-01T23:46:45Z</time>
      </trkpt>
      <trkpt lat="38.86898478646428" lon="115.47701796826763">
        <ele>11.956573486328125</ele>
        <time>2026-08-01T23:46:51Z</time>
      </trkpt>
      <trkpt lat="38.86898403195845" lon="115.4771032932744">
        <ele>12.6158447265625</ele>
        <time>2026-08-01T23:46:57Z</time>
      </trkpt>
      <trkpt lat="38.86903178718584" lon="115.47737532421439">
        <ele>14.1343994140625</ele>
        <time>2026-08-01T23:47:15Z</time>
      </trkpt>
      <trkpt lat="38.86899489449515" lon="115.47775276949676">
        <ele>14.551025390625</ele>
        <time>2026-08-01T23:47:33Z</time>
      </trkpt>
      <trkpt lat="38.86899543530979" lon="115.47794048692903">
        <ele>13.8013916015625</ele>
        <time>2026-08-01T23:47:42Z</time>
      </trkpt>
      <trkpt lat="38.86903169295169" lon="115.47803685106403">
        <ele>12.67498779296875</ele>
        <time>2026-08-01T23:47:48Z</time>
      </trkpt>
      <trkpt lat="38.868991955954584" lon="115.47846650119276">
        <ele>10.202301025390625</ele>
        <time>2026-08-01T23:48:09Z</time>
      </trkpt>
      <trkpt lat="38.86898429982086" lon="115.47858395244137">
        <ele>9.5443115234375</ele>
        <time>2026-08-01T23:48:15Z</time>
      </trkpt>
      <trkpt lat="38.869044739301216" lon="115.47874757277253">
        <ele>10.052642822265625</ele>
        <time>2026-08-01T23:48:27Z</time>
      </trkpt>
      <trkpt lat="38.86908281092428" lon="115.47877969139368">
        <ele>9.47442626953125</ele>
        <time>2026-08-01T23:48:39Z</time>
      </trkpt>
      <trkpt lat="38.869037754837755" lon="115.47875158903993">
        <ele>12.16290283203125</ele>
        <time>2026-08-01T23:49:06Z</time>
      </trkpt>
      <trkpt lat="38.86932285938094" lon="115.4788429047264">
        <ele>14.47418212890625</ele>
        <time>2026-08-01T23:49:24Z</time>
      </trkpt>
      <trkpt lat="38.86945681331029" lon="115.47885292683597">
        <ele>13.84954833984375</ele>
        <time>2026-08-01T23:49:33Z</time>
      </trkpt>
      <trkpt lat="38.86974901277381" lon="115.47897837292284">
        <ele>14.29962158203125</ele>
        <time>2026-08-01T23:49:51Z</time>
      </trkpt>
      <trkpt lat="38.86984606010086" lon="115.4790134960064">
        <ele>14.55853271484375</ele>
        <time>2026-08-01T23:49:57Z</time>
      </trkpt>
      <trkpt lat="38.86990402756987" lon="115.47901348889525">
        <ele>14.81036376953125</ele>
        <time>2026-08-01T23:50:00Z</time>
      </trkpt>
      <trkpt lat="38.869966913755206" lon="115.47898637704435">
        <ele>17.07000732421875</ele>
        <time>2026-08-01T23:50:03Z</time>
      </trkpt>
      <trkpt lat="38.87011904359195" lon="115.4790606438219">
        <ele>18.00457763671875</ele>
        <time>2026-08-01T23:50:12Z</time>
      </trkpt>
      <trkpt lat="38.8701689632105" lon="115.47904256825812">
        <ele>15.79010009765625</ele>
        <time>2026-08-01T23:50:15Z</time>
      </trkpt>
      <trkpt lat="38.87023875534519" lon="115.47898433598213">
        <ele>14.2861328125</ele>
        <time>2026-08-01T23:50:21Z</time>
      </trkpt>
      <trkpt lat="38.87030223714509" lon="115.47881768822116">
        <ele>13.37860107421875</ele>
        <time>2026-08-01T23:50:30Z</time>
      </trkpt>
      <trkpt lat="38.87033720698607" lon="115.47846834382274">
        <ele>11.462615966796875</ele>
        <time>2026-08-01T23:50:51Z</time>
      </trkpt>
      <trkpt lat="38.870360130070466" lon="115.47809993000836">
        <ele>12.849853515625</ele>
        <time>2026-08-01T23:51:15Z</time>
      </trkpt>
      <trkpt lat="38.87043305862514" lon="115.47774255462409">
        <ele>15.37103271484375</ele>
        <time>2026-08-01T23:51:39Z</time>
      </trkpt>
      <trkpt lat="38.8704792378053" lon="115.477466494988">
        <ele>15.08380126953125</ele>
        <time>2026-08-01T23:51:57Z</time>
      </trkpt>
      <trkpt lat="38.870468747043844" lon="115.47729383777076">
        <ele>14.166748046875</ele>
        <time>2026-08-01T23:52:09Z</time>
      </trkpt>
      <trkpt lat="38.870492329843486" lon="115.47715329928705">
        <ele>14.115478515625</ele>
        <time>2026-08-01T23:52:21Z</time>
      </trkpt>
      <trkpt lat="38.870567857795066" lon="115.47700372039613">
        <ele>11.182281494140625</ele>
        <time>2026-08-01T23:52:33Z</time>
      </trkpt>
      <trkpt lat="38.87060383822271" lon="115.47665539104244">
        <ele>11.042999267578125</ele>
        <time>2026-08-01T23:52:57Z</time>
      </trkpt>
      <trkpt lat="38.87059657762127" lon="115.47656304103955">
        <ele>11.636962890625</ele>
        <time>2026-08-01T23:53:03Z</time>
      </trkpt>
      <trkpt lat="38.8705401780104" lon="115.47641247620551">
        <ele>12.365234375</ele>
        <time>2026-08-01T23:53:15Z</time>
      </trkpt>
      <trkpt lat="38.87049521763079" lon="115.47641750077895">
        <ele>12.52325439453125</ele>
        <time>2026-08-01T23:53:21Z</time>
      </trkpt>
      <trkpt lat="38.87043621914602" lon="115.47640646611185">
        <ele>10.8359375</ele>
        <time>2026-08-01T23:56:39Z</time>
      </trkpt>
      <trkpt lat="38.87033813915236" lon="115.47635929910159">
        <ele>10.601959228515625</ele>
        <time>2026-08-01T23:56:51Z</time>
      </trkpt>
      <trkpt lat="38.87017429435843" lon="115.47638140303222">
        <ele>11.49871826171875</ele>
        <time>2026-08-01T23:57:09Z</time>
      </trkpt>
      <trkpt lat="38.87000067351067" lon="115.4764797977945">
        <ele>12.7802734375</ele>
        <time>2026-08-01T23:57:39Z</time>
      </trkpt>
      <trkpt lat="38.86992692769867" lon="115.47655408895864">
        <ele>12.8167724609375</ele>
        <time>2026-08-01T23:57:45Z</time>
      </trkpt>
      <trkpt lat="38.86978820978881" lon="115.47662537676315">
        <ele>13.57867431640625</ele>
        <time>2026-08-01T23:57:54Z</time>
      </trkpt>
      <trkpt lat="38.869612207848704" lon="115.47659026488637">
        <ele>13.033935546875</ele>
        <time>2026-08-01T23:58:09Z</time>
      </trkpt>
      <trkpt lat="38.86935443300083" lon="115.47661840333056">
        <ele>19.34588623046875</ele>
        <time>2026-08-01T23:58:33Z</time>
      </trkpt>
      <trkpt lat="38.869137534499636" lon="115.47661140326636">
        <ele>15.6007080078125</ele>
        <time>2026-08-01T23:58:45Z</time>
      </trkpt>
      <trkpt lat="38.86905563796248" lon="115.4766314896074">
        <ele>15.960205078125</ele>
        <time>2026-08-01T23:58:48Z</time>
      </trkpt>
      <trkpt lat="38.8689459958657" lon="115.47673489605644">
        <ele>15.1673583984375</ele>
        <time>2026-08-01T23:58:54Z</time>
      </trkpt>
      <trkpt lat="38.86891726535197" lon="115.47682323549918">
        <ele>14.56866455078125</ele>
        <time>2026-08-01T23:58:57Z</time>
      </trkpt>
      <trkpt lat="38.86891052261917" lon="115.47691157238908">
        <ele>14.309326171875</ele>
        <time>2026-08-01T23:59:00Z</time>
      </trkpt>
      <trkpt lat="38.86895317327372" lon="115.4771464614827">
        <ele>14.89630126953125</ele>
        <time>2026-08-01T23:59:09Z</time>
      </trkpt>
      <trkpt lat="38.86899127883537" lon="115.47719062508389">
        <ele>14.5526123046875</ele>
        <time>2026-08-01T23:59:12Z</time>
      </trkpt>
      <trkpt lat="38.86900349416892" lon="115.47726791815982">
        <ele>14.92431640625</ele>
        <time>2026-08-01T23:59:15Z</time>
      </trkpt>
      <trkpt lat="38.86897967167571" lon="115.47767246460633">
        <ele>16.53802490234375</ele>
        <time>2026-08-01T23:59:30Z</time>
      </trkpt>
      <trkpt lat="38.86901277596547" lon="115.47806194939805">
        <ele>19.56793212890625</ele>
        <time>2026-08-01T23:59:45Z</time>
      </trkpt>
      <trkpt lat="38.869024870767" lon="115.47844340865961">
        <ele>14.91790771484375</ele>
        <time>2026-08-02T00:00:00Z</time>
      </trkpt>
      <trkpt lat="38.86903750227822" lon="115.47866425395344">
        <ele>13.22967529296875</ele>
        <time>2026-08-02T00:00:09Z</time>
      </trkpt>
      <trkpt lat="38.86910287812526" lon="115.47880679297296">
        <ele>12.22100830078125</ele>
        <time>2026-08-02T00:00:15Z</time>
      </trkpt>
      <trkpt lat="38.86943684485624" lon="115.47885995626697">
        <ele>21.35302734375</ele>
        <time>2026-08-02T00:00:45Z</time>
      </trkpt>
      <trkpt lat="38.86969697799916" lon="115.47895629446677">
        <ele>17.5426025390625</ele>
        <time>2026-08-02T00:01:15Z</time>
      </trkpt>
      <trkpt lat="38.86990702298048" lon="115.47901248467068">
        <ele>16.412353515625</ele>
        <time>2026-08-02T00:01:51Z</time>
      </trkpt>
      <trkpt lat="38.86996102757239" lon="115.47902452433217">
        <ele>17.51934814453125</ele>
        <time>2026-08-02T00:03:03Z</time>
      </trkpt>
      <trkpt lat="38.870063080823215" lon="115.47906265840291">
        <ele>15.531494140625</ele>
        <time>2026-08-02T00:03:54Z</time>
      </trkpt>
      <trkpt lat="38.870180904152456" lon="115.47902449735874">
        <ele>13.0814208984375</ele>
        <time>2026-08-02T00:04:12Z</time>
      </trkpt>
      <trkpt lat="38.87027454044601" lon="115.4789170732338">
        <ele>13.02215576171875</ele>
        <time>2026-08-02T00:04:30Z</time>
      </trkpt>
      <trkpt lat="38.87032339466669" lon="115.47853058412008">
        <ele>11.510498046875</ele>
        <time>2026-08-02T00:05:06Z</time>
      </trkpt>
      <trkpt lat="38.87034038454718" lon="115.47818425517706">
        <ele>11.224884033203125</ele>
        <time>2026-08-02T00:05:27Z</time>
      </trkpt>
      <trkpt lat="38.87040179677374" lon="115.47799251395921">
        <ele>11.480560302734375</ele>
        <time>2026-08-02T00:05:36Z</time>
      </trkpt>
      <trkpt lat="38.870434659612634" lon="115.47795135251849">
        <ele>10.84649658203125</ele>
        <time>2026-08-02T00:05:39Z</time>
      </trkpt>
      <trkpt lat="38.87049060128313" lon="115.47759498399594">
        <ele>11.21173095703125</ele>
        <time>2026-08-02T00:06:03Z</time>
      </trkpt>
      <trkpt lat="38.87050432482874" lon="115.47750162597313">
        <ele>10.83013916015625</ele>
        <time>2026-08-02T00:06:09Z</time>
      </trkpt>
      <trkpt lat="38.87049579247246" lon="115.47731491482008">
        <ele>10.55859375</ele>
        <time>2026-08-02T00:06:21Z</time>
      </trkpt>
      <trkpt lat="38.8705897302253" lon="115.4769635648639">
        <ele>9.76312255859375</ele>
        <time>2026-08-02T00:06:45Z</time>
      </trkpt>
      <trkpt lat="38.87060268062637" lon="115.47660018139115">
        <ele>9.96343994140625</ele>
        <time>2026-08-02T00:07:09Z</time>
      </trkpt>
      <trkpt lat="38.8706064282913" lon="115.47651284919456">
        <ele>12.676025390625</ele>
        <time>2026-08-02T00:07:15Z</time>
      </trkpt>
      <trkpt lat="38.87058317972806" lon="115.47642150521762">
        <ele>11.7706298828125</ele>
        <time>2026-08-02T00:07:21Z</time>
      </trkpt>
      <trkpt lat="38.87037115509632" lon="115.47637134075902">
        <ele>9.15496826171875</ele>
        <time>2026-08-02T00:07:39Z</time>
      </trkpt>
      <trkpt lat="38.87037115509632" lon="115.47637134075902">
        <ele>9.15496826171875</ele>
        <time>2026-08-02T00:07:42Z</time>
      </trkpt>
    </trkseg>
  </trk>
</gpx>