<?xml version="1.0" encoding="UTF-8"?>
<gpx xmlns="http://www.topografix.com/GPX/1/1" xmlns:gpxtpx="http://www.garmin.com/xmlschemas/TrackPointExtension/v1" xmlns:xsi="http://www.w3.org/2001/XMLSchema-instance" xsi:schemaLocation="http://www.topografix.com/GPX/1/1 http://www.topografix.com/GPX/1/1/gpx.xsd" version="1.1" creator="gpx.py -- https://github.com/tkrajina/gpxpy">
  <trk>
    <name>gpx from keep</name>
    <type>Run</type>
    <trkseg>
      <trkpt lat="38.868864977955916" lon="115.47671282204895">
        <ele>-1.42974853515625</ele>
        <time>2026-08-07T23:54:16Z</time>
      </trkpt>
      <trkpt lat="38.869048220732715" lon="115.47683325760137">
        <ele>37.70111083984375</ele>
        <time>2026-08-07T23:54:19Z</time>
      </trkpt>
      <trkpt lat="38.86897060131325" lon="115.47695071399616">
        <ele>27.8448486328125</ele>
        <time>2026-08-07T23:54:22Z</time>
      </trkpt>
      <trkpt lat="38.86893600697695" lon="115.47708523035382">
        <ele>19.014404296875</ele>
        <time>2026-08-07T23:54:28Z</time>
      </trkpt>
      <trkpt lat="38.8689805705164" lon="115.47729000515861">
        <ele>16.2138671875</ele>
        <time>2026-08-07T23:54:40Z</time>
      </trkpt>
      <trkpt lat="38.8689557313615" lon="115.47768852888724">
        <ele>18.9381103515625</ele>
        <time>2026-08-07T23:54:55Z</time>
      </trkpt>
      <trkpt lat="38.86895238707581" lon="115.47791539625365">
        <ele>20.15203857421875</ele>
        <time>2026-08-07T23:55:04Z</time>
      </trkpt>
      <trkpt lat="38.868985121750896" lon="115.47817639074893">
        <ele>21.043212890625</ele>
        <time>2026-08-07T23:55:16Z</time>
      </trkpt>
      <trkpt lat="38.86900220559812" lon="115.47855483860732">
        <ele>21.6859130859375</ele>
        <time>2026-08-07T23:55:31Z</time>
      </trkpt>
      <trkpt lat="38.86902665648294" lon="115.47871545171658">
        <ele>18.61822509765625</ele>
        <time>2026-08-07T23:55:37Z</time>
      </trkpt>
      <trkpt lat="38.86906582916248" lon="115.47878270503658">
        <ele>18.8018798828125</ele>
        <time>2026-08-07T23:55:40Z</time>
      </trkpt>
      <trkpt lat="38.86917996567389" lon="115.47885195694535">
        <ele>19.4884033203125</ele>
        <time>2026-08-07T23:55:46Z</time>
      </trkpt>
      <trkpt lat="38.869477897401026" lon="115.47888605145396">
        <ele>18.92529296875</ele>
        <time>2026-08-07T23:56:04Z</time>
      </trkpt>
      <trkpt lat="38.86977106728397" lon="115.47900145892191">
        <ele>14.9674072265625</ele>
        <time>2026-08-07T23:56:34Z</time>
      </trkpt>
      <trkpt lat="38.87006905710635" lon="115.47905563066452">
        <ele>18.48516845703125</ele>
        <time>2026-08-07T23:56:49Z</time>
      </trkpt>
      <trkpt lat="38.87024066703753" lon="115.47895422005551">
        <ele>16.220703125</ele>
        <time>2026-08-07T23:56:58Z</time>
      </trkpt>
      <trkpt lat="38.8702814493572" lon="115.47888695672789">
        <ele>15.25775146484375</ele>
        <time>2026-08-07T23:57:01Z</time>
      </trkpt>
      <trkpt lat="38.870314974316564" lon="115.47872934758486">
        <ele>14.075439453125</ele>
        <time>2026-08-07T23:57:07Z</time>
      </trkpt>
      <trkpt lat="38.8703088371095" lon="115.47833483568814">
        <ele>16.567626953125</ele>
        <time>2026-08-07T23:57:22Z</time>
      </trkpt>
      <trkpt lat="38.870376703736355" lon="115.4779553749871">
        <ele>15.955810546875</ele>
        <time>2026-08-07T23:57:43Z</time>
      </trkpt>
      <trkpt lat="38.870453639382035" lon="115.47760101152807">
        <ele>16.74871826171875</ele>
        <time>2026-08-07T23:58:01Z</time>
      </trkpt>
      <trkpt lat="38.870477410337486" lon="115.47717839673285">
        <ele>19.31585693359375</ele>
        <time>2026-08-07T23:58:22Z</time>
      </trkpt>
      <trkpt lat="38.87055339050943" lon="115.47683809187512">
        <ele>19.49908447265625</ele>
        <time>2026-08-07T23:58:37Z</time>
      </trkpt>
      <trkpt lat="38.87059765468163" lon="115.47659014387034">
        <ele>14.09173583984375</ele>
        <time>2026-08-07T23:58:49Z</time>
      </trkpt>
      <trkpt lat="38.87059345570675" lon="115.47651987747375">
        <ele>14.69207763671875</ele>
        <time>2026-08-07T23:58:52Z</time>
      </trkpt>
      <trkpt lat="38.870544103955595" lon="115.47638738047233">
        <ele>14.97894287109375</ele>
        <time>2026-08-07T23:58:58Z</time>
      </trkpt>
      <trkpt lat="38.870504982252875" lon="115.4763371948116">
        <ele>13.3427734375</ele>
        <time>2026-08-07T23:59:01Z</time>
      </trkpt>
      <trkpt lat="38.87044494414489" lon="115.476312106971">
        <ele>13.354736328125</ele>
        <time>2026-08-07T23:59:04Z</time>
      </trkpt>
      <trkpt lat="38.87019121302161" lon="115.47635630571887">
        <ele>15.4305419921875</ele>
        <time>2026-08-07T23:59:16Z</time>
      </trkpt>
      <trkpt lat="38.86994477389175" lon="115.47650389614222">
        <ele>17.057373046875</ele>
        <time>2026-08-07T23:59:28Z</time>
      </trkpt>
      <trkpt lat="38.86980011392323" lon="115.47659425706613">
        <ele>15.56158447265625</ele>
        <time>2026-08-07T23:59:37Z</time>
      </trkpt>
      <trkpt lat="38.86968822848727" lon="115.47661233945612">
        <ele>14.5118408203125</ele>
        <time>2026-08-07T23:59:43Z</time>
      </trkpt>
      <trkpt lat="38.8696342300146" lon="115.47660230794729">
        <ele>14.1759033203125</ele>
        <time>2026-08-07T23:59:46Z</time>
      </trkpt>
      <trkpt lat="38.86954152085301" lon="115.47668563595022">
        <ele>16.236572265625</ele>
        <time>2026-08-07T23:59:58Z</time>
      </trkpt>
      <trkpt lat="38.86924255041586" lon="115.4766374895422">
        <ele>15.03741455078125</ele>
        <time>2026-08-08T00:00:07Z</time>
      </trkpt>
      <trkpt lat="38.86914962842086" lon="115.4766465352842">
        <ele>16.83294677734375</ele>
        <time>2026-08-08T00:00:10Z</time>
      </trkpt>
      <trkpt lat="38.869009888082026" lon="115.47670979280758">
        <ele>19.72662353515625</ele>
        <time>2026-08-08T00:00:16Z</time>
      </trkpt>
      <trkpt lat="38.86893512000134" lon="115.4767760538794">
        <ele>19.12933349609375</ele>
        <time>2026-08-08T00:00:19Z</time>
      </trkpt>
      <trkpt lat="38.86889643544606" lon="115.47687844807828">
        <ele>17.801513671875</ele>
        <time>2026-08-08T00:00:22Z</time>
      </trkpt>
      <trkpt lat="38.868898955664136" lon="115.47706013933416">
        <ele>17.89959716796875</ele>
        <time>2026-08-08T00:00:28Z</time>
      </trkpt>
      <trkpt lat="38.86893936275785" lon="115.47720970413457">
        <ele>17.2200927734375</ele>
        <time>2026-08-08T00:00:34Z</time>
      </trkpt>
      <trkpt lat="38.868933301674936" lon="115.47753494524349">
        <ele>15.94647216796875</ele>
        <time>2026-08-08T00:00:46Z</time>
      </trkpt>
      <trkpt lat="38.868914505843634" lon="115.47760220428627">
        <ele>15.22161865234375</ele>
        <time>2026-08-08T00:00:49Z</time>
      </trkpt>
      <trkpt lat="38.86894939164969" lon="115.4779164004594">
        <ele>18.59979248046875</ele>
        <time>2026-08-08T00:01:01Z</time>
      </trkpt>
      <trkpt lat="38.868934643109164" lon="115.47800072473578">
        <ele>19.98724365234375</ele>
        <time>2026-08-08T00:01:04Z</time>
      </trkpt>
      <trkpt lat="38.86895664794861" lon="115.47835307083628">
        <ele>17.40045166015625</ele>
        <time>2026-08-08T00:01:19Z</time>
      </trkpt>
      <trkpt lat="38.8689845000504" lon="115.47865321809428">
        <ele>15.767822265625</ele>
        <time>2026-08-08T00:01:31Z</time>
      </trkpt>
      <trkpt lat="38.86901672886048" lon="115.47873854153627">
        <ele>16.4345703125</ele>
        <time>2026-08-08T00:01:34Z</time>
      </trkpt>
      <trkpt lat="38.86906889427439" lon="115.47880579328856">
        <ele>16.97381591796875</ele>
        <time>2026-08-08T00:01:37Z</time>
      </trkpt>
      <trkpt lat="38.86915499711368" lon="115.47885798313503">
        <ele>17.93426513671875</ele>
        <time>2026-08-08T00:01:43Z</time>
      </trkpt>
      <trkpt lat="38.86938688741032" lon="115.47886498166856">
        <ele>19.816162109375</ele>
        <time>2026-08-08T00:01:55Z</time>
      </trkpt>
      <trkpt lat="38.869647011848926" lon="115.47895830830879">
        <ele>17.90679931640625</ele>
        <time>2026-08-08T00:02:16Z</time>
      </trkpt>
      <trkpt lat="38.869952148904495" lon="115.4790646797272">
        <ele>18.04461669921875</ele>
        <time>2026-08-08T00:02:31Z</time>
      </trkpt>
      <trkpt lat="38.87001913167269" lon="115.47907169851653">
        <ele>16.9490966796875</ele>
        <time>2026-08-08T00:02:34Z</time>
      </trkpt>
      <trkpt lat="38.87020272032577" lon="115.47896526712947">
        <ele>16.9039306640625</ele>
        <time>2026-08-08T00:02:43Z</time>
      </trkpt>
      <trkpt lat="38.870273233087914" lon="115.47881066480302">
        <ele>17.069580078125</ele>
        <time>2026-08-08T00:02:49Z</time>
      </trkpt>
      <trkpt lat="38.87032801196626" lon="115.47839907948783">
        <ele>14.41070556640625</ele>
        <time>2026-08-08T00:03:04Z</time>
      </trkpt>
      <trkpt lat="38.87033910421683" lon="115.47808688265123">
        <ele>12.7847900390625</ele>
        <time>2026-08-08T00:03:16Z</time>
      </trkpt>
      <trkpt lat="38.87041796587703" lon="115.47770742225909">
        <ele>13.10198974609375</ele>
        <time>2026-08-08T00:03:31Z</time>
      </trkpt>
      <trkpt lat="38.87049082412963" lon="115.47732495370417">
        <ele>13.8272705078125</ele>
        <time>2026-08-08T00:03:46Z</time>
      </trkpt>
      <trkpt lat="38.870539804376214" lon="115.4769796321291">
        <ele>12.76910400390625</ele>
        <time>2026-08-08T00:04:01Z</time>
      </trkpt>
      <trkpt lat="38.87059172417982" lon="115.47661323231895">
        <ele>13.54998779296875</ele>
        <time>2026-08-08T00:04:16Z</time>
      </trkpt>
      <trkpt lat="38.87056332598643" lon="115.47646868676894">
        <ele>11.008148193359375</ele>
        <time>2026-08-08T00:04:22Z</time>
      </trkpt>
      <trkpt lat="38.8704920441103" lon="115.47635626877178">
        <ele>12.3197021484375</ele>
        <time>2026-08-08T00:04:28Z</time>
      </trkpt>
      <trkpt lat="38.870435995135985" lon="115.4763281690059">
        <ele>11.96966552734375</ele>
        <time>2026-08-08T00:04:31Z</time>
      </trkpt>
      <trkpt lat="38.870256127732475" lon="115.47633923299304">
        <ele>13.57672119140625</ele>
        <time>2026-08-08T00:04:40Z</time>
      </trkpt>
      <trkpt lat="38.87007338836159" lon="115.4763944649521">
        <ele>13.8953857421875</ele>
        <time>2026-08-08T00:04:49Z</time>
      </trkpt>
      <trkpt lat="38.86982308952351" lon="115.47659023898987">
        <ele>15.7919921875</ele>
        <time>2026-08-08T00:05:04Z</time>
      </trkpt>
      <trkpt lat="38.8697591944222" lon="115.4766143383697">
        <ele>15.52484130859375</ele>
        <time>2026-08-08T00:05:07Z</time>
      </trkpt>
      <trkpt lat="38.869564223262294" lon="115.47658625552444">
        <ele>17.3245849609375</ele>
        <time>2026-08-08T00:05:16Z</time>
      </trkpt>
      <trkpt lat="38.869481376182385" lon="115.47662340681336">
        <ele>17.25128173828125</ele>
        <time>2026-08-08T00:05:25Z</time>
      </trkpt>
      <trkpt lat="38.86937744886315" lon="115.47662843864703">
        <ele>18.86773681640625</ele>
        <time>2026-08-08T00:05:31Z</time>
      </trkpt>
      <trkpt lat="38.86930743346782" lon="115.47660937477517">
        <ele>18.23529052734375</ele>
        <time>2026-08-08T00:05:34Z</time>
      </trkpt>
      <trkpt lat="38.86907363937835" lon="115.47663550265472">
        <ele>17.74945068359375</ele>
        <time>2026-08-08T00:05:43Z</time>
      </trkpt>
      <trkpt lat="38.869028739368034" lon="115.47666160735139">
        <ele>17.73284912109375</ele>
        <time>2026-08-08T00:05:46Z</time>
      </trkpt>
      <trkpt lat="38.86893123160362" lon="115.47681419942263">
        <ele>17.39361572265625</ele>
        <time>2026-08-08T00:05:52Z</time>
      </trkpt>
      <trkpt lat="38.86890546783271" lon="115.4768914966191">
        <ele>17.52349853515625</ele>
        <time>2026-08-08T00:05:55Z</time>
      </trkpt>
      <trkpt lat="38.86897142557402" lon="115.47723780731387">
        <ele>16.5640869140625</ele>
        <time>2026-08-08T00:06:13Z</time>
      </trkpt>
      <trkpt lat="38.8689694576941" lon="115.47759617454665">
        <ele>17.88372802734375</ele>
        <time>2026-08-08T00:06:31Z</time>
      </trkpt>
      <trkpt lat="38.86897948188879" lon="115.4779535387898">
        <ele>18.31195068359375</ele>
        <time>2026-08-08T00:06:49Z</time>
      </trkpt>
      <trkpt lat="38.86900048707628" lon="115.47830588472263">
        <ele>18.42724609375</ele>
        <time>2026-08-08T00:07:13Z</time>
      </trkpt>
      <trkpt lat="38.86899105512151" lon="115.47850063213801">
        <ele>13.63671875</ele>
        <time>2026-08-08T00:07:22Z</time>
      </trkpt>
      <trkpt lat="38.869020535024234" lon="115.47867228684512">
        <ele>14.68115234375</ele>
        <time>2026-08-08T00:07:40Z</time>
      </trkpt>
      <trkpt lat="38.86905471337352" lon="115.47874054458107">
        <ele>13.99664306640625</ele>
        <time>2026-08-08T00:07:58Z</time>
      </trkpt>
      <trkpt lat="38.86911989764095" lon="115.4788168294219">
        <ele>13.29534912109375</ele>
        <time>2026-08-08T00:08:04Z</time>
      </trkpt>
      <trkpt lat="38.86929794310915" lon="115.47886700028948">
        <ele>12.86456298828125</ele>
        <time>2026-08-08T00:08:16Z</time>
      </trkpt>
      <trkpt lat="38.86941783517405" lon="115.47885293161785">
        <ele>11.332855224609375</ele>
        <time>2026-08-08T00:08:22Z</time>
      </trkpt>
      <trkpt lat="38.869701033879004" lon="115.47897637109568">
        <ele>11.324981689453125</ele>
        <time>2026-08-08T00:08:40Z</time>
      </trkpt>
      <trkpt lat="38.86998309372114" lon="115.47905162577875">
        <ele>15.2852783203125</ele>
        <time>2026-08-08T00:09:10Z</time>
      </trkpt>
      <trkpt lat="38.870040087911335" lon="115.47906065350766">
        <ele>14.9132080078125</ele>
        <time>2026-08-08T00:09:16Z</time>
      </trkpt>
      <trkpt lat="38.870223679482216" lon="115.4789552259957">
        <ele>12.945068359375</ele>
        <time>2026-08-08T00:09:40Z</time>
      </trkpt>
      <trkpt lat="38.87028406429698" lon="115.47875444769157">
        <ele>13.7957763671875</ele>
        <time>2026-08-08T00:10:04Z</time>
      </trkpt>
      <trkpt lat="38.870301901905094" lon="115.47835591730012">
        <ele>12.450927734375</ele>
        <time>2026-08-08T00:10:46Z</time>
      </trkpt>
      <trkpt lat="38.87033126795968" lon="115.47814209490758">
        <ele>11.8011474609375</ele>
        <time>2026-08-08T00:11:01Z</time>
      </trkpt>
    </trkseg>
  </trk>
</gpx>