<?xml version="1.0" encoding="UTF-8"?>
<gpx xmlns="http://www.topografix.com/GPX/1/1" xmlns:gpxtpx="http://www.garmin.com/xmlschemas/TrackPointExtension/v1" xmlns:xsi="http://www.w3.org/2001/XMLSchema-instance" xsi:schemaLocation="http://www.topografix.com/GPX/1/1 http://www.topografix.com/GPX/1/1/gpx.xsd" version="1.1" creator="gpx.py -- https://github.com/tkrajina/gpxpy">
  <trk>
    <name>gpx from keep</name>
    <type>Run</type>
    <trkseg>
      <trkpt lat="38.86896786801889" lon="115.47704306589368">
        <ele>29.923828125</ele>
        <time>2026-09-06T01:58:50Z</time>
      </trkpt>
      <trkpt lat="38.868937104409504" lon="115.4771193602111">
        <ele>29.07489013671875</ele>
        <time>2026-09-06T01:58:53Z</time>
      </trkpt>
      <trkpt lat="38.868981327690335" lon="115.47720568368173">
        <ele>20.247314453125</ele>
        <time>2026-09-06T01:58:59Z</time>
      </trkpt>
      <trkpt lat="38.86898609583758" lon="115.47747370508985">
        <ele>10.43389892578125</ele>
        <time>2026-09-06T01:59:23Z</time>
      </trkpt>
      <trkpt lat="38.86905399133287" lon="115.4774506086669">
        <ele>13.27056884765625</ele>
        <time>2026-09-06T01:59:35Z</time>
      </trkpt>
      <trkpt lat="38.869060213184596" lon="115.47752890667809">
        <ele>11.3291015625</ele>
        <time>2026-09-06T01:59:41Z</time>
      </trkpt>
      <trkpt lat="38.86899857434203" lon="115.47764234728152">
        <ele>10.17047119140625</ele>
        <time>2026-09-06T01:59:47Z</time>
      </trkpt>
      <trkpt lat="38.86898519792378" lon="115.47785616580894">
        <ele>11.765594482421875</ele>
        <time>2026-09-06T02:00:02Z</time>
      </trkpt>
      <trkpt lat="38.86903092801064" lon="115.47811816227869">
        <ele>9.44586181640625</ele>
        <time>2026-09-06T02:00:20Z</time>
      </trkpt>
      <trkpt lat="38.86901434014419" lon="115.47825769848285">
        <ele>8.15240478515625</ele>
        <time>2026-09-06T02:00:26Z</time>
      </trkpt>
      <trkpt lat="38.8690187175642" lon="115.47838920168094">
        <ele>5.63299560546875</ele>
        <time>2026-09-06T02:00:32Z</time>
      </trkpt>
      <trkpt lat="38.86898613623877" lon="115.47852773665394">
        <ele>3.518157958984375</ele>
        <time>2026-09-06T02:00:38Z</time>
      </trkpt>
      <trkpt lat="38.86907874638015" lon="115.47875660327448">
        <ele>6.1943359375</ele>
        <time>2026-09-06T02:00:47Z</time>
      </trkpt>
      <trkpt lat="38.86919889983714" lon="115.47883288139246">
        <ele>8.1524658203125</ele>
        <time>2026-09-06T02:00:56Z</time>
      </trkpt>
      <trkpt lat="38.86925389805661" lon="115.47884291318663">
        <ele>9.946044921875</ele>
        <time>2026-09-06T02:01:02Z</time>
      </trkpt>
      <trkpt lat="38.86949586697362" lon="115.47887902226512">
        <ele>12.9251708984375</ele>
        <time>2026-09-06T02:02:14Z</time>
      </trkpt>
      <trkpt lat="38.86968701847999" lon="115.47896834196365">
        <ele>11.593505859375</ele>
        <time>2026-09-06T02:02:26Z</time>
      </trkpt>
      <trkpt lat="38.86996207933674" lon="115.47904259363747">
        <ele>13.58966064453125</ele>
        <time>2026-09-06T02:02:50Z</time>
      </trkpt>
      <trkpt lat="38.87017781863559" lon="115.47899438202509">
        <ele>12.42864990234375</ele>
        <time>2026-09-06T02:03:05Z</time>
      </trkpt>
      <trkpt lat="38.870231625593014" lon="115.47893815946846">
        <ele>12.171875</ele>
        <time>2026-09-06T02:03:11Z</time>
      </trkpt>
      <trkpt lat="38.870312505275635" lon="115.47856672403007">
        <ele>10.3934326171875</ele>
        <time>2026-09-06T02:03:29Z</time>
      </trkpt>
      <trkpt lat="38.87033593500258" lon="115.4783739823537">
        <ele>9.068084716796875</ele>
        <time>2026-09-06T02:03:38Z</time>
      </trkpt>
      <trkpt lat="38.87031437017381" lon="115.47817421994097">
        <ele>9.75811767578125</ele>
        <time>2026-09-06T02:03:50Z</time>
      </trkpt>
      <trkpt lat="38.870260348343976" lon="115.47815615740363">
        <ele>8.271392822265625</ele>
        <time>2026-09-06T02:04:05Z</time>
      </trkpt>
      <trkpt lat="38.870313205667664" lon="115.47811700107462">
        <ele>7.139129638671875</ele>
        <time>2026-09-06T02:04:11Z</time>
      </trkpt>
      <trkpt lat="38.87032397368117" lon="115.47803870014933">
        <ele>8.748382568359375</ele>
        <time>2026-09-06T02:04:14Z</time>
      </trkpt>
      <trkpt lat="38.870304729673116" lon="115.47795036462642">
        <ele>7.64691162109375</ele>
        <time>2026-09-06T02:04:20Z</time>
      </trkpt>
      <trkpt lat="38.87035132726608" lon="115.47781986001233">
        <ele>6.784759521484375</ele>
        <time>2026-09-06T02:04:32Z</time>
      </trkpt>
      <trkpt lat="38.8703087814232" lon="115.47762210979703">
        <ele>8.385833740234375</ele>
        <time>2026-09-06T02:04:56Z</time>
      </trkpt>
      <trkpt lat="38.8703087814232" lon="115.47762210979703">
        <ele>8.385833740234375</ele>
        <time>2026-09-06T02:05:04Z</time>
      </trkpt>
      <trkpt lat="38.87031800200779" lon="115.47735308209806">
        <ele>9.57904052734375</ele>
        <time>2026-09-06T02:09:05Z</time>
      </trkpt>
      <trkpt lat="38.8703596034337" lon="115.47722257950522">
        <ele>10.48748779296875</ele>
        <time>2026-09-06T02:09:11Z</time>
      </trkpt>
      <trkpt lat="38.870352307522865" lon="115.47711818263855">
        <ele>8.338653564453125</ele>
        <time>2026-09-06T02:09:17Z</time>
      </trkpt>
      <trkpt lat="38.87040219011685" lon="115.47708705798932">
        <ele>9.089447021484375</ele>
        <time>2026-09-06T02:09:20Z</time>
      </trkpt>
      <trkpt lat="38.870425606293686" lon="115.47688829851056">
        <ele>8.951812744140625</ele>
        <time>2026-09-06T02:09:29Z</time>
      </trkpt>
      <trkpt lat="38.87040326172473" lon="115.47676382779913">
        <ele>8.059112548828125</ele>
        <time>2026-09-06T02:09:35Z</time>
      </trkpt>
      <trkpt lat="38.8703711588407" lon="115.47672167144378">
        <ele>6.9501953125</ele>
        <time>2026-09-06T02:09:38Z</time>
      </trkpt>
      <trkpt lat="38.87035371113013" lon="115.476562067052">
        <ele>8.405731201171875</ele>
        <time>2026-09-06T02:09:44Z</time>
      </trkpt>
      <trkpt lat="38.87035328583331" lon="115.47641350296884">
        <ele>8.40887451171875</ele>
        <time>2026-09-06T02:09:50Z</time>
      </trkpt>
      <trkpt lat="38.870335094888716" lon="115.47634323853008">
        <ele>6.44110107421875</ele>
        <time>2026-09-06T02:09:56Z</time>
      </trkpt>
      <trkpt lat="38.87033787500627" lon="115.4762669487662">
        <ele>7.915771484375</ele>
        <time>2026-09-06T02:10:05Z</time>
      </trkpt>
      <trkpt lat="38.87038970231804" lon="115.47621675205262">
        <ele>8.46148681640625</ele>
        <time>2026-09-06T02:10:11Z</time>
      </trkpt>
      <trkpt lat="38.87054350971453" lon="115.47617959233497">
        <ele>9.0130615234375</ele>
        <time>2026-09-06T02:10:20Z</time>
      </trkpt>
      <trkpt lat="38.870569348807976" lon="115.4761283950933">
        <ele>9.889984130859375</ele>
        <time>2026-09-06T02:10:26Z</time>
      </trkpt>
      <trkpt lat="38.8705593859755" lon="115.47613943817049">
        <ele>8.5753173828125</ele>
        <time>2026-09-06T02:10:50Z</time>
      </trkpt>
    </trkseg>
  </trk>
</gpx>