<?xml version="1.0" encoding="UTF-8"?>
<gpx xmlns="http://www.topografix.com/GPX/1/1" xmlns:gpxtpx="http://www.garmin.com/xmlschemas/TrackPointExtension/v1" xmlns:xsi="http://www.w3.org/2001/XMLSchema-instance" xsi:schemaLocation="http://www.topografix.com/GPX/1/1 http://www.topografix.com/GPX/1/1/gpx.xsd" version="1.1" creator="gpx.py -- https://github.com/tkrajina/gpxpy">
  <trk>
    <name>gpx from keep</name>
    <type>Ride</type>
    <trkseg>
      <trkpt lat="39.909078513243486" lon="116.14571519194475">
        <ele>79.0745849609375</ele>
        <time>2026-09-22T12:22:06Z</time>
      </trkpt>
      <trkpt lat="39.908957778068874" lon="116.14586660749964">
        <ele>77.28900146484375</ele>
        <time>2026-09-22T12:22:35Z</time>
      </trkpt>
      <trkpt lat="39.90894094577131" lon="116.14596386695911">
        <ele>76.755859375</ele>
        <time>2026-09-22T12:22:38Z</time>
      </trkpt>
      <trkpt lat="39.908951315952876" lon="116.14617943662832">
        <ele>75.56854248046875</ele>
        <time>2026-09-22T12:22:45Z</time>
      </trkpt>
      <trkpt lat="39.908909488643836" lon="116.14627870515486">
        <ele>75.73760986328125</ele>
        <time>2026-09-22T12:22:50Z</time>
      </trkpt>
      <trkpt lat="39.9088295456167" lon="116.14630979776905">
        <ele>76.43402099609375</ele>
        <time>2026-09-22T12:22:53Z</time>
      </trkpt>
      <trkpt lat="39.908824675301474" lon="116.14696353677292">
        <ele>78.17938232421875</ele>
        <time>2026-09-22T12:23:05Z</time>
      </trkpt>
      <trkpt lat="39.90881565773756" lon="116.14752904786914">
        <ele>78.6671142578125</ele>
        <time>2026-09-22T12:23:15Z</time>
      </trkpt>
      <trkpt lat="39.90881481620725" lon="116.14819282737224">
        <ele>78.12200927734375</ele>
        <time>2026-09-22T12:23:27Z</time>
      </trkpt>
      <trkpt lat="39.90881391191115" lon="116.14881750879036">
        <ele>79.005126953125</ele>
        <time>2026-09-22T12:23:39Z</time>
      </trkpt>
      <trkpt lat="39.9087899499814" lon="116.14940610173545">
        <ele>77.36712646484375</ele>
        <time>2026-09-22T12:23:51Z</time>
      </trkpt>
      <trkpt lat="39.90880211359155" lon="116.15006388333474">
        <ele>77.541259765625</ele>
        <time>2026-09-22T12:24:03Z</time>
      </trkpt>
      <trkpt lat="39.90880626316142" lon="116.15071064232218">
        <ele>75.541015625</ele>
        <time>2026-09-22T12:24:15Z</time>
      </trkpt>
      <trkpt lat="39.908783420567644" lon="116.15135841342139">
        <ele>76.0413818359375</ele>
        <time>2026-09-22T12:24:28Z</time>
      </trkpt>
      <trkpt lat="39.90875159419171" lon="116.15145468071763">
        <ele>76.6343994140625</ele>
        <time>2026-09-22T12:24:32Z</time>
      </trkpt>
      <trkpt lat="39.908692697251354" lon="116.15151084181396">
        <ele>75.3568115234375</ele>
        <time>2026-09-22T12:24:55Z</time>
      </trkpt>
      <trkpt lat="39.90868287189053" lon="116.15160810926116">
        <ele>76.1094970703125</ele>
        <time>2026-09-22T12:24:59Z</time>
      </trkpt>
      <trkpt lat="39.908700044843336" lon="116.15226189961541">
        <ele>77.10748291015625</ele>
        <time>2026-09-22T12:25:15Z</time>
      </trkpt>
      <trkpt lat="39.90870113608222" lon="116.15286756487724">
        <ele>77.81781005859375</ele>
        <time>2026-09-22T12:25:27Z</time>
      </trkpt>
      <trkpt lat="39.90869723665588" lon="116.153476243495">
        <ele>77.43182373046875</ele>
        <time>2026-09-22T12:25:39Z</time>
      </trkpt>
      <trkpt lat="39.908706954228194" lon="116.15387233657644">
        <ele>77.47271728515625</ele>
        <time>2026-09-22T12:25:47Z</time>
      </trkpt>
      <trkpt lat="39.90873511863645" lon="116.15396358536175">
        <ele>77.5841064453125</ele>
        <time>2026-09-22T12:25:49Z</time>
      </trkpt>
      <trkpt lat="39.90880728851745" lon="116.15405883975934">
        <ele>77.5565185546875</ele>
        <time>2026-09-22T12:25:52Z</time>
      </trkpt>
      <trkpt lat="39.90882553915518" lon="116.15419722045543">
        <ele>77.35284423828125</ele>
        <time>2026-09-22T12:25:55Z</time>
      </trkpt>
      <trkpt lat="39.908830765661826" lon="116.15487108776138">
        <ele>76.43572998046875</ele>
        <time>2026-09-22T12:26:07Z</time>
      </trkpt>
      <trkpt lat="39.90883973001092" lon="116.15539955473405">
        <ele>77.21331787109375</ele>
        <time>2026-09-22T12:26:17Z</time>
      </trkpt>
      <trkpt lat="39.90874510996144" lon="116.15560513853087">
        <ele>77.3408203125</ele>
        <time>2026-09-22T12:26:23Z</time>
      </trkpt>
      <trkpt lat="39.908769249601505" lon="116.15622786999123">
        <ele>78.5499267578125</ele>
        <time>2026-09-22T12:26:38Z</time>
      </trkpt>
      <trkpt lat="39.90882653082871" lon="116.15692681351156">
        <ele>75.33282470703125</ele>
        <time>2026-09-22T12:26:53Z</time>
      </trkpt>
      <trkpt lat="39.908875691898444" lon="116.15755857388554">
        <ele>73.65789794921875</ele>
        <time>2026-09-22T12:27:05Z</time>
      </trkpt>
      <trkpt lat="39.908932907028344" lon="116.15821841485949">
        <ele>74.65325927734375</ele>
        <time>2026-09-22T12:27:17Z</time>
      </trkpt>
      <trkpt lat="39.90898411382586" lon="116.15887224258574">
        <ele>72.248291015625</ele>
        <time>2026-09-22T12:27:30Z</time>
      </trkpt>
      <trkpt lat="39.90902633072831" lon="116.15953008527099">
        <ele>71.05413818359375</ele>
        <time>2026-09-22T12:27:42Z</time>
      </trkpt>
      <trkpt lat="39.90907054404473" lon="116.16018492152341">
        <ele>70.34796142578125</ele>
        <time>2026-09-22T12:27:54Z</time>
      </trkpt>
      <trkpt lat="39.909123747633274" lon="116.16083374166794">
        <ele>70.034423828125</ele>
        <time>2026-09-22T12:28:06Z</time>
      </trkpt>
      <trkpt lat="39.90916351652236" lon="116.16124790367574">
        <ele>71.68682861328125</ele>
        <time>2026-09-22T12:28:16Z</time>
      </trkpt>
      <trkpt lat="39.90914972992715" lon="116.16136222766515">
        <ele>71.25726318359375</ele>
        <time>2026-09-22T12:28:21Z</time>
      </trkpt>
      <trkpt lat="39.909216113618875" lon="116.16156980451417">
        <ele>70.68939208984375</ele>
        <time>2026-09-22T12:28:28Z</time>
      </trkpt>
      <trkpt lat="39.909265318667096" lon="116.16221762555122">
        <ele>69.051513671875</ele>
        <time>2026-09-22T12:28:42Z</time>
      </trkpt>
      <trkpt lat="39.9093155566229" lon="116.16288249565001">
        <ele>69.15753173828125</ele>
        <time>2026-09-22T12:28:54Z</time>
      </trkpt>
      <trkpt lat="39.90932495484337" lon="116.1630960974923">
        <ele>69.59844970703125</ele>
        <time>2026-09-22T12:28:58Z</time>
      </trkpt>
      <trkpt lat="39.9093651646349" lon="116.16320941235867">
        <ele>69.5753173828125</ele>
        <time>2026-09-22T12:29:01Z</time>
      </trkpt>
      <trkpt lat="39.90943335265989" lon="116.16331169256074">
        <ele>72.47930908203125</ele>
        <time>2026-09-22T12:29:04Z</time>
      </trkpt>
      <trkpt lat="39.90952436373958" lon="116.16331970371147">
        <ele>70.9571533203125</ele>
        <time>2026-09-22T12:29:07Z</time>
      </trkpt>
      <trkpt lat="39.90992975115764" lon="116.16300075207957">
        <ele>70.79632568359375</ele>
        <time>2026-09-22T12:29:21Z</time>
      </trkpt>
      <trkpt lat="39.909988641968546" lon="116.16294358326152">
        <ele>71.42926025390625</ele>
        <time>2026-09-22T12:29:24Z</time>
      </trkpt>
      <trkpt lat="39.9100547177443" lon="116.16298569381617">
        <ele>69.9686279296875</ele>
        <time>2026-09-22T12:29:56Z</time>
      </trkpt>
      <trkpt lat="39.91032054500794" lon="116.16343492873749">
        <ele>68.8963623046875</ele>
        <time>2026-09-22T12:30:13Z</time>
      </trkpt>
      <trkpt lat="39.91034677045402" lon="116.16355626808614">
        <ele>69.00994873046875</ele>
        <time>2026-09-22T12:30:16Z</time>
      </trkpt>
      <trkpt lat="39.910400974373744" lon="116.16420208524393">
        <ele>68.91790771484375</ele>
        <time>2026-09-22T12:30:31Z</time>
      </trkpt>
      <trkpt lat="39.91046212788436" lon="116.1648208252581">
        <ele>67.95977783203125</ele>
        <time>2026-09-22T12:30:44Z</time>
      </trkpt>
      <trkpt lat="39.9105293095144" lon="116.16545460695481">
        <ele>67.36358642578125</ele>
        <time>2026-09-22T12:30:56Z</time>
      </trkpt>
      <trkpt lat="39.91057238354028" lon="116.16603022715152">
        <ele>67.8289794921875</ele>
        <time>2026-09-22T12:31:06Z</time>
      </trkpt>
      <trkpt lat="39.91060146557285" lon="116.16660985999368">
        <ele>68.78338623046875</ele>
        <time>2026-09-22T12:31:16Z</time>
      </trkpt>
      <trkpt lat="39.910608705664814" lon="116.1672737326161">
        <ele>67.72967529296875</ele>
        <time>2026-09-22T12:31:28Z</time>
      </trkpt>
      <trkpt lat="39.91060476593615" lon="116.16784133405821">
        <ele>66.90814208984375</ele>
        <time>2026-09-22T12:31:38Z</time>
      </trkpt>
      <trkpt lat="39.91061083460009" lon="116.16841394733976">
        <ele>66.2958984375</ele>
        <time>2026-09-22T12:31:48Z</time>
      </trkpt>
      <trkpt lat="39.91061294201179" lon="116.16900761917682">
        <ele>67.303466796875</ele>
        <time>2026-09-22T12:31:58Z</time>
      </trkpt>
      <trkpt lat="39.91061514566457" lon="116.16965343612262">
        <ele>67.7589111328125</ele>
        <time>2026-09-22T12:32:10Z</time>
      </trkpt>
      <trkpt lat="39.91061033340631" lon="116.1702912293279">
        <ele>67.32073974609375</ele>
        <time>2026-09-22T12:32:23Z</time>
      </trkpt>
      <trkpt lat="39.91063076537378" lon="116.17052388009621">
        <ele>68.7265625</ele>
        <time>2026-09-22T12:32:28Z</time>
      </trkpt>
      <trkpt lat="39.91070094888722" lon="116.17062415276267">
        <ele>68.87640380859375</ele>
        <time>2026-09-22T12:32:31Z</time>
      </trkpt>
      <trkpt lat="39.91080304336745" lon="116.17067728906824">
        <ele>68.6650390625</ele>
        <time>2026-09-22T12:32:34Z</time>
      </trkpt>
      <trkpt lat="39.91096406074624" lon="116.17069030535268">
        <ele>69.490234375</ele>
        <time>2026-09-22T12:32:38Z</time>
      </trkpt>
      <trkpt lat="39.911228021536665" lon="116.17067522984892">
        <ele>68.1243896484375</ele>
        <time>2026-09-22T12:32:44Z</time>
      </trkpt>
      <trkpt lat="39.91128123181995" lon="116.1707895439619">
        <ele>66.08905029296875</ele>
        <time>2026-09-22T12:32:47Z</time>
      </trkpt>
      <trkpt lat="39.91128630285501" lon="116.17136616025132">
        <ele>65.3055419921875</ele>
        <time>2026-09-22T12:32:57Z</time>
      </trkpt>
      <trkpt lat="39.91129215856217" lon="116.1718274514535">
        <ele>64.3870849609375</ele>
        <time>2026-09-22T12:33:06Z</time>
      </trkpt>
      <trkpt lat="39.91127559430552" lon="116.1720621101645">
        <ele>66.7196044921875</ele>
        <time>2026-09-22T12:33:10Z</time>
      </trkpt>
      <trkpt lat="39.91129367806832" lon="116.1726477448242">
        <ele>67.1585693359375</ele>
        <time>2026-09-22T12:33:20Z</time>
      </trkpt>
      <trkpt lat="39.91129434382531" lon="116.17300774965807">
        <ele>73.09637451171875</ele>
        <time>2026-09-22T12:33:26Z</time>
      </trkpt>
      <trkpt lat="39.911269752514485" lon="116.17322836805042">
        <ele>69.006103515625</ele>
        <time>2026-09-22T12:33:32Z</time>
      </trkpt>
      <trkpt lat="39.91128094181356" lon="116.17387316253995">
        <ele>64.93109130859375</ele>
        <time>2026-09-22T12:33:45Z</time>
      </trkpt>
      <trkpt lat="39.91127700187307" lon="116.17444876298434">
        <ele>67.24078369140625</ele>
        <time>2026-09-22T12:33:55Z</time>
      </trkpt>
      <trkpt lat="39.911269004650165" lon="116.17499427732461">
        <ele>68.7086181640625</ele>
        <time>2026-09-22T12:34:05Z</time>
      </trkpt>
      <trkpt lat="39.91128023421506" lon="116.17511962321436">
        <ele>67.63006591796875</ele>
        <time>2026-09-22T12:34:08Z</time>
      </trkpt>
      <trkpt lat="39.91124839561285" lon="116.17520686885022">
        <ele>67.5318603515625</ele>
        <time>2026-09-22T12:34:12Z</time>
      </trkpt>
      <trkpt lat="39.9108178588346" lon="116.17544959474665">
        <ele>66.9373779296875</ele>
        <time>2026-09-22T12:34:28Z</time>
      </trkpt>
      <trkpt lat="39.910399128358655" lon="116.17558702743615">
        <ele>66.09619140625</ele>
        <time>2026-09-22T12:34:39Z</time>
      </trkpt>
      <trkpt lat="39.910071281909836" lon="116.17566327940794">
        <ele>65.68817138671875</ele>
        <time>2026-09-22T12:34:47Z</time>
      </trkpt>
      <trkpt lat="39.909893307878136" lon="116.17567332953286">
        <ele>66.969970703125</ele>
        <time>2026-09-22T12:34:52Z</time>
      </trkpt>
      <trkpt lat="39.90982841711468" lon="116.17573149844596">
        <ele>67.39678955078125</ele>
        <time>2026-09-22T12:34:55Z</time>
      </trkpt>
      <trkpt lat="39.90979604937918" lon="116.17607645511988">
        <ele>66.020263671875</ele>
        <time>2026-09-22T12:35:04Z</time>
      </trkpt>
      <trkpt lat="39.90972615681484" lon="116.1761336216314">
        <ele>65.6942138671875</ele>
        <time>2026-09-22T12:35:08Z</time>
      </trkpt>
      <trkpt lat="39.90964017881639" lon="116.17614366011932">
        <ele>65.5140380859375</ele>
        <time>2026-09-22T12:35:11Z</time>
      </trkpt>
      <trkpt lat="39.90957132830275" lon="116.17622389006522">
        <ele>65.89910888671875</ele>
        <time>2026-09-22T12:35:14Z</time>
      </trkpt>
      <trkpt lat="39.909601539405074" lon="116.17688871720705">
        <ele>64.80419921875</ele>
        <time>2026-09-22T12:35:27Z</time>
      </trkpt>
      <trkpt lat="39.90958763756889" lon="116.17749237678113">
        <ele>63.30377197265625</ele>
        <time>2026-09-22T12:35:39Z</time>
      </trkpt>
      <trkpt lat="39.9095838009699" lon="116.17813413462139">
        <ele>61.7626953125</ele>
        <time>2026-09-22T12:35:52Z</time>
      </trkpt>
      <trkpt lat="39.90959042432003" lon="116.17847907610279">
        <ele>64.23968505859375</ele>
        <time>2026-09-22T12:35:58Z</time>
      </trkpt>
      <trkpt lat="39.90963858300092" lon="116.17912282426505">
        <ele>64.54833984375</ele>
        <time>2026-09-22T12:36:10Z</time>
      </trkpt>
      <trkpt lat="39.90966263057107" lon="116.17970640637954">
        <ele>68.59173583984375</ele>
        <time>2026-09-22T12:36:23Z</time>
      </trkpt>
      <trkpt lat="39.909668418880635" lon="116.18014659796314">
        <ele>70.04620361328125</ele>
        <time>2026-09-22T12:36:42Z</time>
      </trkpt>
      <trkpt lat="39.90974374912073" lon="116.18033309277165">
        <ele>69.16510009765625</ele>
        <time>2026-09-22T12:36:50Z</time>
      </trkpt>
      <trkpt lat="39.909832766811505" lon="116.18034511409627">
        <ele>67.47271728515625</ele>
        <time>2026-09-22T12:36:54Z</time>
      </trkpt>
      <trkpt lat="39.909916741717986" lon="116.1803330710234">
        <ele>67.55804443359375</ele>
        <time>2026-09-22T12:36:58Z</time>
      </trkpt>
      <trkpt lat="39.90968773180852" lon="116.18032207000599">
        <ele>65.61822509765625</ele>
        <time>2026-09-22T12:37:59Z</time>
      </trkpt>
      <trkpt lat="39.90960678902683" lon="116.18035216147186">
        <ele>64.75201416015625</ele>
        <time>2026-09-22T12:38:06Z</time>
      </trkpt>
      <trkpt lat="39.90960638501242" lon="116.1806860628913">
        <ele>65.85992431640625</ele>
        <time>2026-09-22T12:38:36Z</time>
      </trkpt>
      <trkpt lat="39.90963377152161" lon="116.18090364587816">
        <ele>66.03369140625</ele>
        <time>2026-09-22T12:38:42Z</time>
      </trkpt>
      <trkpt lat="39.90965277930511" lon="116.18147116946699">
        <ele>63.74530029296875</ele>
        <time>2026-09-22T12:38:57Z</time>
      </trkpt>
      <trkpt lat="39.90966245566172" lon="116.18185319245488">
        <ele>63.4033203125</ele>
        <time>2026-09-22T12:39:06Z</time>
      </trkpt>
      <trkpt lat="39.909633896450465" lon="116.18210186138997">
        <ele>60.09368896484375</ele>
        <time>2026-09-22T12:39:12Z</time>
      </trkpt>
      <trkpt lat="39.909646899729914" lon="116.18267137958416">
        <ele>63.6160888671875</ele>
        <time>2026-09-22T12:39:23Z</time>
      </trkpt>
      <trkpt lat="39.909667207308594" lon="116.18284684413909">
        <ele>68.2288818359375</ele>
        <time>2026-09-22T12:39:26Z</time>
      </trkpt>
      <trkpt lat="39.909646415956345" lon="116.18296516140312">
        <ele>67.40850830078125</ele>
        <time>2026-09-22T12:39:30Z</time>
      </trkpt>
      <trkpt lat="39.90966780716723" lon="116.18318875266596">
        <ele>63.8719482421875</ele>
        <time>2026-09-22T12:39:39Z</time>
      </trkpt>
      <trkpt lat="39.90966390629984" lon="116.18381741822711">
        <ele>63.55694580078125</ele>
        <time>2026-09-22T12:39:53Z</time>
      </trkpt>
      <trkpt lat="39.909657958368705" lon="116.18442201330407">
        <ele>67.9052734375</ele>
        <time>2026-09-22T12:40:05Z</time>
      </trkpt>
      <trkpt lat="39.90966274148931" lon="116.18487420053145">
        <ele>67.90435791015625</ele>
        <time>2026-09-22T12:40:14Z</time>
      </trkpt>
      <trkpt lat="39.909643144138464" lon="116.1851068124553">
        <ele>66.1722412109375</ele>
        <time>2026-09-22T12:40:19Z</time>
      </trkpt>
      <trkpt lat="39.90966095668631" lon="116.18557904419622">
        <ele>59.3916015625</ele>
        <time>2026-09-22T12:40:29Z</time>
      </trkpt>
      <trkpt lat="39.90964231216082" lon="116.18578558481161">
        <ele>59.29827880859375</ele>
        <time>2026-09-22T12:40:33Z</time>
      </trkpt>
      <trkpt lat="39.909672882827856" lon="116.18611944923641">
        <ele>60.1064453125</ele>
        <time>2026-09-22T12:40:40Z</time>
      </trkpt>
      <trkpt lat="39.9097380309078" lon="116.186207670123">
        <ele>60.29937744140625</ele>
        <time>2026-09-22T12:40:43Z</time>
      </trkpt>
      <trkpt lat="39.9098310971746" lon="116.18624876511012">
        <ele>68.1641845703125</ele>
        <time>2026-09-22T12:40:45Z</time>
      </trkpt>
      <trkpt lat="39.90992401609236" lon="116.18620363637378">
        <ele>67.411376953125</ele>
        <time>2026-09-22T12:40:48Z</time>
      </trkpt>
      <trkpt lat="39.91010508374051" lon="116.18624772812433">
        <ele>66.43182373046875</ele>
        <time>2026-09-22T12:40:54Z</time>
      </trkpt>
      <trkpt lat="39.91019908314823" lon="116.18624972152998">
        <ele>62.1983642578125</ele>
        <time>2026-09-22T12:40:57Z</time>
      </trkpt>
      <trkpt lat="39.91026903903959" lon="116.18622565031596">
        <ele>60.80474853515625</ele>
        <time>2026-09-22T12:40:59Z</time>
      </trkpt>
      <trkpt lat="39.9107809863383" lon="116.18620753923165">
        <ele>64.0455322265625</ele>
        <time>2026-09-22T12:41:12Z</time>
      </trkpt>
      <trkpt lat="39.91105702254933" lon="116.18623557743867">
        <ele>62.60186767578125</ele>
        <time>2026-09-22T12:41:19Z</time>
      </trkpt>
      <trkpt lat="39.91130799472615" lon="116.18622551992424">
        <ele>62.95294189453125</ele>
        <time>2026-09-22T12:41:25Z</time>
      </trkpt>
      <trkpt lat="39.9114339276712" lon="116.18618941044261">
        <ele>69.36114501953125</ele>
        <time>2026-09-22T12:41:27Z</time>
      </trkpt>
      <trkpt lat="39.91163089700888" lon="116.18617635188697">
        <ele>68.18475341796875</ele>
        <time>2026-09-22T12:41:34Z</time>
      </trkpt>
      <trkpt lat="39.91180797517331" lon="116.18622645977497">
        <ele>66.3367919921875</ele>
        <time>2026-09-22T12:41:39Z</time>
      </trkpt>
      <trkpt lat="39.91188191890688" lon="116.18619536983049">
        <ele>64.5882568359375</ele>
        <time>2026-09-22T12:41:41Z</time>
      </trkpt>
      <trkpt lat="39.91195980587513" lon="116.1861311934586">
        <ele>59.601318359375</ele>
        <time>2026-09-22T12:41:46Z</time>
      </trkpt>
      <trkpt lat="39.911945435706485" lon="116.18591463236518">
        <ele>59.075439453125</ele>
        <time>2026-09-22T12:41:55Z</time>
      </trkpt>
      <trkpt lat="39.91200687904664" lon="116.18559178371625">
        <ele>63.24871826171875</ele>
        <time>2026-09-22T12:42:04Z</time>
      </trkpt>
      <trkpt lat="39.91197429717922" lon="116.18525290279372">
        <ele>65.15960693359375</ele>
        <time>2026-09-22T12:42:12Z</time>
      </trkpt>
      <trkpt lat="39.91197709823152" lon="116.18513760079951">
        <ele>68.74298095703125</ele>
        <time>2026-09-22T12:42:15Z</time>
      </trkpt>
      <trkpt lat="39.91205495303353" lon="116.18505537577778">
        <ele>68.970458984375</ele>
        <time>2026-09-22T12:42:18Z</time>
      </trkpt>
      <trkpt lat="39.9121439284835" lon="116.18504333309572">
        <ele>68.218505859375</ele>
        <time>2026-09-22T12:42:21Z</time>
      </trkpt>
      <trkpt lat="39.91223398870464" lon="116.18508041893787">
        <ele>68.9603271484375</ele>
        <time>2026-09-22T12:42:26Z</time>
      </trkpt>
      <trkpt lat="39.91228213025349" lon="116.1851636307238">
        <ele>66.66180419921875</ele>
        <time>2026-09-22T12:42:30Z</time>
      </trkpt>
      <trkpt lat="39.91231538636121" lon="116.18531301724471">
        <ele>74.8533935546875</ele>
        <time>2026-09-22T12:42:50Z</time>
      </trkpt>
      <trkpt lat="39.912245315050114" lon="116.18526991333674">
        <ele>71.43536376953125</ele>
        <time>2026-09-22T12:43:23Z</time>
      </trkpt>
      <trkpt lat="39.91216729244165" lon="116.18525488380764">
        <ele>72.4073486328125</ele>
        <time>2026-09-22T12:43:29Z</time>
      </trkpt>
      <trkpt lat="39.91212933897738" lon="116.18528095673204">
        <ele>75.20159912109375</ele>
        <time>2026-09-22T12:43:35Z</time>
      </trkpt>
    </trkseg>
  </trk>
</gpx>