<?xml version="1.0" encoding="UTF-8"?>
<gpx xmlns="http://www.topografix.com/GPX/1/1" xmlns:gpxtpx="http://www.garmin.com/xmlschemas/TrackPointExtension/v1" xmlns:xsi="http://www.w3.org/2001/XMLSchema-instance" xsi:schemaLocation="http://www.topografix.com/GPX/1/1 http://www.topografix.com/GPX/1/1/gpx.xsd" version="1.1" creator="gpx.py -- https://github.com/tkrajina/gpxpy">
  <trk>
    <name>gpx from keep</name>
    <type>Run</type>
    <trkseg>
      <trkpt lat="39.91308942500946" lon="116.18593654614521">
        <ele>68.7408447265625</ele>
        <time>2026-08-13T10:32:20Z</time>
      </trkpt>
      <trkpt lat="39.91310558059004" lon="116.18602778134482">
        <ele>67.57000732421875</ele>
        <time>2026-08-13T10:32:26Z</time>
      </trkpt>
      <trkpt lat="39.91323674147044" lon="116.18612501755955">
        <ele>67.029296875</ele>
        <time>2026-08-13T10:32:35Z</time>
      </trkpt>
      <trkpt lat="39.91320912127867" lon="116.18634659597588">
        <ele>65.5999755859375</ele>
        <time>2026-08-13T10:32:44Z</time>
      </trkpt>
      <trkpt lat="39.91330225763932" lon="116.18642879735283">
        <ele>66.7513427734375</ele>
        <time>2026-08-13T10:32:50Z</time>
      </trkpt>
      <trkpt lat="39.91311675911423" lon="116.18671857041693">
        <ele>63.90087890625</ele>
        <time>2026-08-13T10:33:05Z</time>
      </trkpt>
      <trkpt lat="39.912959309119195" lon="116.18703841569626">
        <ele>63.85198974609375</ele>
        <time>2026-08-13T10:33:20Z</time>
      </trkpt>
      <trkpt lat="39.912803821806605" lon="116.18733720437186">
        <ele>67.08526611328125</ele>
        <time>2026-08-13T10:33:32Z</time>
      </trkpt>
      <trkpt lat="39.912646377104714" lon="116.18766205816682">
        <ele>66.65203857421875</ele>
        <time>2026-08-13T10:33:47Z</time>
      </trkpt>
      <trkpt lat="39.91257006706527" lon="116.18807011209837">
        <ele>67.43408203125</ele>
        <time>2026-08-13T10:34:02Z</time>
      </trkpt>
      <trkpt lat="39.91258274377951" lon="116.18847414088253">
        <ele>64.16058349609375</ele>
        <time>2026-08-13T10:34:17Z</time>
      </trkpt>
      <trkpt lat="39.912574254868616" lon="116.1887799192626">
        <ele>65.14190673828125</ele>
        <time>2026-08-13T10:34:29Z</time>
      </trkpt>
      <trkpt lat="39.91260645066979" lon="116.18889821537336">
        <ele>64.6739501953125</ele>
        <time>2026-08-13T10:34:35Z</time>
      </trkpt>
      <trkpt lat="39.91257812342189" lon="116.18930224153107">
        <ele>64.9837646484375</ele>
        <time>2026-08-13T10:34:50Z</time>
      </trkpt>
      <trkpt lat="39.91258174560313" lon="116.18967818914926">
        <ele>62.8509521484375</ele>
        <time>2026-08-13T10:35:05Z</time>
      </trkpt>
      <trkpt lat="39.912567385836844" lon="116.19006616578905">
        <ele>61.6881103515625</ele>
        <time>2026-08-13T10:35:20Z</time>
      </trkpt>
      <trkpt lat="39.91258507290902" lon="116.19048521236567">
        <ele>60.1793212890625</ele>
        <time>2026-08-13T10:35:38Z</time>
      </trkpt>
      <trkpt lat="39.91259929540666" lon="116.19062155088142">
        <ele>61.79248046875</ele>
        <time>2026-08-13T10:35:44Z</time>
      </trkpt>
      <trkpt lat="39.91259582894751" lon="116.19094836514182">
        <ele>61.250244140625</ele>
        <time>2026-08-13T10:35:56Z</time>
      </trkpt>
      <trkpt lat="39.91258648435599" lon="116.19135136615593">
        <ele>64.22784423828125</ele>
        <time>2026-08-13T10:36:11Z</time>
      </trkpt>
      <trkpt lat="39.91257110460104" lon="116.19173431433885">
        <ele>64.1834716796875</ele>
        <time>2026-08-13T10:36:26Z</time>
      </trkpt>
      <trkpt lat="39.91257268266185" lon="116.19209319750226">
        <ele>65.9107666015625</ele>
        <time>2026-08-13T10:36:38Z</time>
      </trkpt>
      <trkpt lat="39.912576068699494" lon="116.19233378738971">
        <ele>66.9141845703125</ele>
        <time>2026-08-13T10:36:47Z</time>
      </trkpt>
      <trkpt lat="39.91254228044772" lon="116.19246511319126">
        <ele>65.4688720703125</ele>
        <time>2026-08-13T10:36:53Z</time>
      </trkpt>
      <trkpt lat="39.91258668379223" lon="116.19271872737673">
        <ele>63.92919921875</ele>
        <time>2026-08-13T10:37:17Z</time>
      </trkpt>
      <trkpt lat="39.912585422135685" lon="116.19318285724016">
        <ele>65.6885986328125</ele>
        <time>2026-08-13T10:37:32Z</time>
      </trkpt>
      <trkpt lat="39.91257625130035" lon="116.19370712746527">
        <ele>66.1475830078125</ele>
        <time>2026-08-13T10:37:50Z</time>
      </trkpt>
      <trkpt lat="39.91260186930916" lon="116.19410107290902">
        <ele>60.772705078125</ele>
        <time>2026-08-13T10:38:05Z</time>
      </trkpt>
      <trkpt lat="39.912603489827106" lon="116.19449802422483">
        <ele>61.31658935546875</ele>
        <time>2026-08-13T10:38:20Z</time>
      </trkpt>
      <trkpt lat="39.91261912511951" lon="116.19490699797186">
        <ele>61.71734619140625</ele>
        <time>2026-08-13T10:38:35Z</time>
      </trkpt>
      <trkpt lat="39.9126262553123" lon="116.19499119736888">
        <ele>62.51617431640625</ele>
        <time>2026-08-13T10:38:38Z</time>
      </trkpt>
      <trkpt lat="39.91259650007242" lon="116.19514857490124">
        <ele>64.62652587890625</ele>
        <time>2026-08-13T10:38:44Z</time>
      </trkpt>
      <trkpt lat="39.91258109868814" lon="116.1955364952055">
        <ele>64.40142822265625</ele>
        <time>2026-08-13T10:38:59Z</time>
      </trkpt>
      <trkpt lat="39.91257667674289" lon="116.19591338384478">
        <ele>66.2650146484375</ele>
        <time>2026-08-13T10:39:17Z</time>
      </trkpt>
      <trkpt lat="39.912591144137444" lon="116.19622010170885">
        <ele>65.24560546875</ele>
        <time>2026-08-13T10:39:32Z</time>
      </trkpt>
      <trkpt lat="39.91257246643992" lon="116.19643159867206">
        <ele>64.50653076171875</ele>
        <time>2026-08-13T10:39:41Z</time>
      </trkpt>
      <trkpt lat="39.91258301680046" lon="116.19679544517422">
        <ele>64.836669921875</ele>
        <time>2026-08-13T10:39:53Z</time>
      </trkpt>
      <trkpt lat="39.91257655590082" lon="116.1971532759098">
        <ele>67.43170166015625</ele>
        <time>2026-08-13T10:40:05Z</time>
      </trkpt>
      <trkpt lat="39.91257006367063" lon="116.19749205889846">
        <ele>67.05975341796875</ele>
        <time>2026-08-13T10:40:17Z</time>
      </trkpt>
      <trkpt lat="39.91259831375053" lon="116.19766044283233">
        <ele>67.39752197265625</ele>
        <time>2026-08-13T10:40:23Z</time>
      </trkpt>
      <trkpt lat="39.9125639079116" lon="116.19805936158154">
        <ele>69.49365234375</ele>
        <time>2026-08-13T10:40:38Z</time>
      </trkpt>
      <trkpt lat="39.91257245674057" lon="116.1984312084705">
        <ele>65.07647705078125</ele>
        <time>2026-08-13T10:40:53Z</time>
      </trkpt>
      <trkpt lat="39.912584013961364" lon="116.19881106879096">
        <ele>63.7967529296875</ele>
        <time>2026-08-13T10:41:08Z</time>
      </trkpt>
      <trkpt lat="39.91258654921679" lon="116.19917789634637">
        <ele>64.41259765625</ele>
        <time>2026-08-13T10:41:23Z</time>
      </trkpt>
      <trkpt lat="39.912593114445286" lon="116.19956777071098">
        <ele>61.7479248046875</ele>
        <time>2026-08-13T10:41:38Z</time>
      </trkpt>
      <trkpt lat="39.912594643128514" lon="116.19993458948652">
        <ele>61.091552734375</ele>
        <time>2026-08-13T10:41:53Z</time>
      </trkpt>
      <trkpt lat="39.91265062635154" lon="116.19992456016787">
        <ele>61.790283203125</ele>
        <time>2026-08-13T10:41:56Z</time>
      </trkpt>
      <trkpt lat="39.912721483507525" lon="116.19982733465145">
        <ele>62.59765625</ele>
        <time>2026-08-13T10:42:02Z</time>
      </trkpt>
      <trkpt lat="39.91278247082277" lon="116.19982031137816">
        <ele>62.4405517578125</ele>
        <time>2026-08-13T10:42:05Z</time>
      </trkpt>
      <trkpt lat="39.912886551508535" lon="116.19987943019366">
        <ele>64.2410888671875</ele>
        <time>2026-08-13T10:42:11Z</time>
      </trkpt>
      <trkpt lat="39.9129425577856" lon="116.19988543659032">
        <ele>65.1236572265625</ele>
        <time>2026-08-13T10:42:14Z</time>
      </trkpt>
      <trkpt lat="39.913017649687426" lon="116.19995157452469">
        <ele>64.686767578125</ele>
        <time>2026-08-13T10:42:20Z</time>
      </trkpt>
      <trkpt lat="39.9130477361979" lon="116.20001270679955">
        <ele>63.18206787109375</ele>
        <time>2026-08-13T10:42:23Z</time>
      </trkpt>
      <trkpt lat="39.913148806681114" lon="116.20006481003121">
        <ele>61.7227783203125</ele>
        <time>2026-08-13T10:42:29Z</time>
      </trkpt>
      <trkpt lat="39.913356790697264" lon="116.20005977288635">
        <ele>60.62860107421875</ele>
        <time>2026-08-13T10:42:41Z</time>
      </trkpt>
      <trkpt lat="39.913468852044865" lon="116.20010586130817">
        <ele>59.36346435546875</ele>
        <time>2026-08-13T10:42:47Z</time>
      </trkpt>
      <trkpt lat="39.91361205683301" lon="116.20025317028168">
        <ele>58.2353515625</ele>
        <time>2026-08-13T10:42:56Z</time>
      </trkpt>
      <trkpt lat="39.91374211863912" lon="116.20030025838173">
        <ele>60.880859375</ele>
        <time>2026-08-13T10:43:02Z</time>
      </trkpt>
      <trkpt lat="39.91379418082617" lon="116.20034535172591">
        <ele>60.38861083984375</ele>
        <time>2026-08-13T10:43:05Z</time>
      </trkpt>
      <trkpt lat="39.913851181280044" lon="116.20034734903503">
        <ele>58.490478515625</ele>
        <time>2026-08-13T10:43:08Z</time>
      </trkpt>
      <trkpt lat="39.914126245438936" lon="116.20040043215829">
        <ele>61.1697998046875</ele>
        <time>2026-08-13T10:43:23Z</time>
      </trkpt>
      <trkpt lat="39.91424125059096" lon="116.20040743329237">
        <ele>60.7215576171875</ele>
        <time>2026-08-13T10:43:29Z</time>
      </trkpt>
      <trkpt lat="39.914302316566804" lon="116.20045553199658">
        <ele>61.28497314453125</ele>
        <time>2026-08-13T10:43:35Z</time>
      </trkpt>
      <trkpt lat="39.914303410684674" lon="116.20052167795278">
        <ele>61.23968505859375</ele>
        <time>2026-08-13T10:43:41Z</time>
      </trkpt>
      <trkpt lat="39.914278555624236" lon="116.20062290434777">
        <ele>60.91265869140625</ele>
        <time>2026-08-13T10:43:47Z</time>
      </trkpt>
      <trkpt lat="39.91430065853692" lon="116.20069606275932">
        <ele>61.19989013671875</ele>
        <time>2026-08-13T10:43:53Z</time>
      </trkpt>
      <trkpt lat="39.914371699601226" lon="116.20072712226772">
        <ele>61.663330078125</ele>
        <time>2026-08-13T10:43:59Z</time>
      </trkpt>
      <trkpt lat="39.914696707222234" lon="116.2007421147126">
        <ele>60.16302490234375</ele>
        <time>2026-08-13T10:44:14Z</time>
      </trkpt>
      <trkpt lat="39.91499170617305" lon="116.20075009546832">
        <ele>59.80401611328125</ele>
        <time>2026-08-13T10:44:29Z</time>
      </trkpt>
      <trkpt lat="39.91527968412526" lon="116.20074304402621">
        <ele>62.25482177734375</ele>
        <time>2026-08-13T10:44:44Z</time>
      </trkpt>
      <trkpt lat="39.915377678588214" lon="116.20074202956832">
        <ele>62.693603515625</ele>
        <time>2026-08-13T10:44:50Z</time>
      </trkpt>
      <trkpt lat="39.915455712235385" lon="116.20076807713457">
        <ele>63.58135986328125</ele>
        <time>2026-08-13T10:44:56Z</time>
      </trkpt>
      <trkpt lat="39.91548378059939" lon="116.20081718159614">
        <ele>63.76617431640625</ele>
        <time>2026-08-13T10:44:59Z</time>
      </trkpt>
      <trkpt lat="39.91544828554723" lon="116.20117396806886">
        <ele>62.91595458984375</ele>
        <time>2026-08-13T10:45:17Z</time>
      </trkpt>
      <trkpt lat="39.91544586574697" lon="116.2015878702824">
        <ele>62.7471923828125</ele>
        <time>2026-08-13T10:45:38Z</time>
      </trkpt>
      <trkpt lat="39.91544838029993" lon="116.20195767090196">
        <ele>62.33526611328125</ele>
        <time>2026-08-13T10:45:56Z</time>
      </trkpt>
      <trkpt lat="39.915454936768015" lon="116.20236053734733">
        <ele>61.05401611328125</ele>
        <time>2026-08-13T10:46:17Z</time>
      </trkpt>
      <trkpt lat="39.915444429526765" lon="116.20271930631316">
        <ele>59.87591552734375</ele>
        <time>2026-08-13T10:46:32Z</time>
      </trkpt>
      <trkpt lat="39.915449953683336" lon="116.20310412407802">
        <ele>61.76904296875</ele>
        <time>2026-08-13T10:46:47Z</time>
      </trkpt>
      <trkpt lat="39.91547427439191" lon="116.20334162360575">
        <ele>58.15216064453125</ele>
        <time>2026-08-13T10:46:56Z</time>
      </trkpt>
      <trkpt lat="39.915447485135545" lon="116.20349695456805">
        <ele>57.00244140625</ele>
        <time>2026-08-13T10:47:02Z</time>
      </trkpt>
      <trkpt lat="39.91543906503899" lon="116.20392886213587">
        <ele>57.66162109375</ele>
        <time>2026-08-13T10:47:17Z</time>
      </trkpt>
      <trkpt lat="39.915431614748876" lon="116.20434172343917">
        <ele>56.2884521484375</ele>
        <time>2026-08-13T10:47:32Z</time>
      </trkpt>
      <trkpt lat="39.91543808422636" lon="116.20469745908751">
        <ele>57.89288330078125</ele>
        <time>2026-08-13T10:47:44Z</time>
      </trkpt>
      <trkpt lat="39.915450658596725" lon="116.20513635988021">
        <ele>60.40667724609375</ele>
        <time>2026-08-13T10:47:59Z</time>
      </trkpt>
      <trkpt lat="39.91546612526989" lon="116.20549609234641">
        <ele>61.38671875</ele>
        <time>2026-08-13T10:48:11Z</time>
      </trkpt>
      <trkpt lat="39.915443656896834" lon="116.20590793011853">
        <ele>62.0523681640625</ele>
        <time>2026-08-13T10:48:26Z</time>
      </trkpt>
      <trkpt lat="39.91546273189516" lon="116.20596704708625">
        <ele>62.8690185546875</ele>
        <time>2026-08-13T10:48:32Z</time>
      </trkpt>
      <trkpt lat="39.91557468352513" lon="116.20593296434325">
        <ele>61.80694580078125</ele>
        <time>2026-08-13T10:49:17Z</time>
      </trkpt>
      <trkpt lat="39.91564670747782" lon="116.20595399782457">
        <ele>61.8084716796875</ele>
        <time>2026-08-13T10:49:23Z</time>
      </trkpt>
      <trkpt lat="39.915697797730346" lon="116.20602613695215">
        <ele>62.36376953125</ele>
        <time>2026-08-13T10:49:29Z</time>
      </trkpt>
      <trkpt lat="39.91573227773978" lon="116.2064038914006">
        <ele>62.687255859375</ele>
        <time>2026-08-13T10:49:47Z</time>
      </trkpt>
      <trkpt lat="39.91575852538394" lon="116.2066002805025">
        <ele>63.24542236328125</ele>
        <time>2026-08-13T10:49:56Z</time>
      </trkpt>
      <trkpt lat="39.91586684159744" lon="116.20685477332988">
        <ele>64.20269775390625</ele>
        <time>2026-08-13T10:50:08Z</time>
      </trkpt>
      <trkpt lat="39.91600387235825" lon="116.20688381387819">
        <ele>61.02056884765625</ele>
        <time>2026-08-13T10:50:17Z</time>
      </trkpt>
      <trkpt lat="39.916165256862485" lon="116.20719641204377">
        <ele>58.58074951171875</ele>
        <time>2026-08-13T10:50:35Z</time>
      </trkpt>
      <trkpt lat="39.91636461965724" lon="116.2074949742874">
        <ele>52.93182373046875</ele>
        <time>2026-08-13T10:50:53Z</time>
      </trkpt>
      <trkpt lat="39.916565914480096" lon="116.20774042934062">
        <ele>52.77996826171875</ele>
        <time>2026-08-13T10:51:08Z</time>
      </trkpt>
      <trkpt lat="39.91671107969394" lon="116.20787968263114">
        <ele>53.89788818359375</ele>
        <time>2026-08-13T10:51:23Z</time>
      </trkpt>
      <trkpt lat="39.91675322781478" lon="116.20800191497871">
        <ele>54.5908203125</ele>
        <time>2026-08-13T10:51:41Z</time>
      </trkpt>
      <trkpt lat="39.91680564838148" lon="116.208348579201">
        <ele>52.88629150390625</ele>
        <time>2026-08-13T10:52:05Z</time>
      </trkpt>
      <trkpt lat="39.916854944798274" lon="116.20859504714315">
        <ele>54.73626708984375</ele>
        <time>2026-08-13T10:52:17Z</time>
      </trkpt>
      <trkpt lat="39.91686209308251" lon="116.20871828242014">
        <ele>55.05816650390625</ele>
        <time>2026-08-13T10:52:23Z</time>
      </trkpt>
      <trkpt lat="39.91694544057413" lon="116.20901083032548">
        <ele>53.318359375</ele>
        <time>2026-08-13T10:52:38Z</time>
      </trkpt>
      <trkpt lat="39.91699885100839" lon="116.20935748091068">
        <ele>56.54315185546875</ele>
        <time>2026-08-13T10:52:53Z</time>
      </trkpt>
      <trkpt lat="39.91704299265109" lon="116.20947870414311">
        <ele>55.93035888671875</ele>
        <time>2026-08-13T10:52:59Z</time>
      </trkpt>
      <trkpt lat="39.91705643287517" lon="116.20985340584164">
        <ele>51.91558837890625</ele>
        <time>2026-08-13T10:53:14Z</time>
      </trkpt>
      <trkpt lat="39.917100904840176" lon="116.21026015758964">
        <ele>52.671630859375</ele>
        <time>2026-08-13T10:53:29Z</time>
      </trkpt>
      <trkpt lat="39.91710901350695" lon="116.21035433097937">
        <ele>53.66754150390625</ele>
        <time>2026-08-13T10:53:32Z</time>
      </trkpt>
      <trkpt lat="39.91715220817186" lon="116.2105246401026">
        <ele>54.44873046875</ele>
        <time>2026-08-13T10:53:38Z</time>
      </trkpt>
      <trkpt lat="39.91716638366476" lon="116.2106779204085">
        <ele>53.97369384765625</ele>
        <time>2026-08-13T10:53:44Z</time>
      </trkpt>
      <trkpt lat="39.91726284122202" lon="116.21108264868867">
        <ele>54.78082275390625</ele>
        <time>2026-08-13T10:53:59Z</time>
      </trkpt>
      <trkpt lat="39.91733424766651" lon="116.21144529754832">
        <ele>56.2999267578125</ele>
        <time>2026-08-13T10:54:14Z</time>
      </trkpt>
      <trkpt lat="39.917383671119396" lon="116.21182597614782">
        <ele>51.597412109375</ele>
        <time>2026-08-13T10:54:29Z</time>
      </trkpt>
      <trkpt lat="39.917421125937274" lon="116.21223870726003">
        <ele>53.1973876953125</ele>
        <time>2026-08-13T10:54:44Z</time>
      </trkpt>
      <trkpt lat="39.91744555540769" lon="116.2126323995859">
        <ele>52.497802734375</ele>
        <time>2026-08-13T10:54:59Z</time>
      </trkpt>
      <trkpt lat="39.91745484153452" lon="116.21289686197804">
        <ele>54.06610107421875</ele>
        <time>2026-08-13T10:55:08Z</time>
      </trkpt>
      <trkpt lat="39.91750309597085" lon="116.21313527138837">
        <ele>53.01568603515625</ele>
        <time>2026-08-13T10:55:17Z</time>
      </trkpt>
      <trkpt lat="39.917498446711065" lon="116.21346384063874">
        <ele>52.75250244140625</ele>
        <time>2026-08-13T10:55:29Z</time>
      </trkpt>
      <trkpt lat="39.91756089227955" lon="116.2138885613174">
        <ele>52.61083984375</ele>
        <time>2026-08-13T10:55:44Z</time>
      </trkpt>
      <trkpt lat="39.917639298345314" lon="116.21428121832739">
        <ele>53.81195068359375</ele>
        <time>2026-08-13T10:55:59Z</time>
      </trkpt>
      <trkpt lat="39.917669546340036" lon="116.21452262128281">
        <ele>52.609130859375</ele>
        <time>2026-08-13T10:56:08Z</time>
      </trkpt>
      <trkpt lat="39.917656809630316" lon="116.21477905222396">
        <ele>54.40277099609375</ele>
        <time>2026-08-13T10:56:17Z</time>
      </trkpt>
      <trkpt lat="39.917685197674444" lon="116.2151626858472">
        <ele>53.7679443359375</ele>
        <time>2026-08-13T10:56:32Z</time>
      </trkpt>
      <trkpt lat="39.917742578835195" lon="116.21554530796864">
        <ele>56.9222412109375</ele>
        <time>2026-08-13T10:56:47Z</time>
      </trkpt>
      <trkpt lat="39.917776725751295" lon="116.21569454747062">
        <ele>54.66253662109375</ele>
        <time>2026-08-13T10:56:53Z</time>
      </trkpt>
      <trkpt lat="39.917783966829184" lon="116.21593894368598">
        <ele>55.1865234375</ele>
        <time>2026-08-13T10:57:02Z</time>
      </trkpt>
      <trkpt lat="39.91786930811269" lon="116.21629150142728">
        <ele>54.796142578125</ele>
        <time>2026-08-13T10:57:17Z</time>
      </trkpt>
      <trkpt lat="39.91795864907421" lon="116.21664805968658">
        <ele>52.35052490234375</ele>
        <time>2026-08-13T10:57:32Z</time>
      </trkpt>
      <trkpt lat="39.918011043504656" lon="116.21706370997613">
        <ele>54.81524658203125</ele>
        <time>2026-08-13T10:57:47Z</time>
      </trkpt>
      <trkpt lat="39.918037409069086" lon="116.21745331554432">
        <ele>53.86572265625</ele>
        <time>2026-08-13T10:58:02Z</time>
      </trkpt>
      <trkpt lat="39.91803279311659" lon="116.21786695528577">
        <ele>56.79534912109375</ele>
        <time>2026-08-13T10:58:17Z</time>
      </trkpt>
      <trkpt lat="39.918061026141494" lon="116.21812234266649">
        <ele>57.18182373046875</ele>
        <time>2026-08-13T10:58:26Z</time>
      </trkpt>
      <trkpt lat="39.918085297006336" lon="116.21842179433628">
        <ele>57.02520751953125</ele>
        <time>2026-08-13T10:58:38Z</time>
      </trkpt>
      <trkpt lat="39.91812235327211" lon="116.21848588653165">
        <ele>51.85858154296875</ele>
        <time>2026-08-13T10:58:41Z</time>
      </trkpt>
      <trkpt lat="39.9181367055679" lon="116.21888047674302">
        <ele>52.435546875</ele>
        <time>2026-08-13T10:58:59Z</time>
      </trkpt>
      <trkpt lat="39.91815203161928" lon="116.21925102448694">
        <ele>53.8526611328125</ele>
        <time>2026-08-13T10:59:17Z</time>
      </trkpt>
      <trkpt lat="39.91819028374749" lon="116.21954244772395">
        <ele>54.09906005859375</ele>
        <time>2026-08-13T10:59:29Z</time>
      </trkpt>
      <trkpt lat="39.91818143877451" lon="116.21972171021544">
        <ele>54.689697265625</ele>
        <time>2026-08-13T10:59:35Z</time>
      </trkpt>
      <trkpt lat="39.918219744112584" lon="116.22008122534858">
        <ele>56.2734375</ele>
        <time>2026-08-13T10:59:47Z</time>
      </trkpt>
      <trkpt lat="39.91824089380476" lon="116.22025947834354">
        <ele>55.79217529296875</ele>
        <time>2026-08-13T10:59:53Z</time>
      </trkpt>
      <trkpt lat="39.918229975023" lon="116.22035561697786">
        <ele>56.40716552734375</ele>
        <time>2026-08-13T10:59:56Z</time>
      </trkpt>
      <trkpt lat="39.91826527115466" lon="116.22071311941676">
        <ele>56.10614013671875</ele>
        <time>2026-08-13T11:00:08Z</time>
      </trkpt>
      <trkpt lat="39.91830541050021" lon="116.22088435514321">
        <ele>55.18804931640625</ele>
        <time>2026-08-13T11:00:14Z</time>
      </trkpt>
      <trkpt lat="39.918421589696976" lon="116.22110965539649">
        <ele>54.94671630859375</ele>
        <time>2026-08-13T11:00:23Z</time>
      </trkpt>
      <trkpt lat="39.918470621005554" lon="116.22115070639182">
        <ele>54.2755126953125</ele>
        <time>2026-08-13T11:00:26Z</time>
      </trkpt>
      <trkpt lat="39.91855272456789" lon="116.22128287948661">
        <ele>52.6025390625</ele>
        <time>2026-08-13T11:00:32Z</time>
      </trkpt>
      <trkpt lat="39.918722835124235" lon="116.22142906014042">
        <ele>50.9737548828125</ele>
        <time>2026-08-13T11:00:41Z</time>
      </trkpt>
      <trkpt lat="39.9189838996225" lon="116.22152315706589">
        <ele>53.05908203125</ele>
        <time>2026-08-13T11:00:53Z</time>
      </trkpt>
      <trkpt lat="39.919308878924525" lon="116.22151410421954">
        <ele>51.29937744140625</ele>
        <time>2026-08-13T11:01:08Z</time>
      </trkpt>
      <trkpt lat="39.91963685731194" lon="116.22150404961963">
        <ele>51.12359619140625</ele>
        <time>2026-08-13T11:01:23Z</time>
      </trkpt>
      <trkpt lat="39.9196828489986" lon="116.22149603288473">
        <ele>50.9462890625</ele>
        <time>2026-08-13T11:01:29Z</time>
      </trkpt>
      <trkpt lat="39.91995284341351" lon="116.22150300889174">
        <ele>50.9420166015625</ele>
        <time>2026-08-13T11:02:05Z</time>
      </trkpt>
      <trkpt lat="39.920259859501265" lon="116.22153902015464">
        <ele>52.7340087890625</ele>
        <time>2026-08-13T11:02:23Z</time>
      </trkpt>
      <trkpt lat="39.92056284696504" lon="116.22153898242051">
        <ele>50.60601806640625</ele>
        <time>2026-08-13T11:02:41Z</time>
      </trkpt>
      <trkpt lat="39.92085382374064" lon="116.2215249269392">
        <ele>52.319580078125</ele>
        <time>2026-08-13T11:02:56Z</time>
      </trkpt>
      <trkpt lat="39.921176810400304" lon="116.22152488671321">
        <ele>51.84967041015625</ele>
        <time>2026-08-13T11:03:11Z</time>
      </trkpt>
      <trkpt lat="39.921419745900934" lon="116.22145676286502">
        <ele>50.20684814453125</ele>
        <time>2026-08-13T11:03:23Z</time>
      </trkpt>
      <trkpt lat="39.92166858097806" lon="116.22126446647464">
        <ele>49.15875244140625</ele>
        <time>2026-08-13T11:03:35Z</time>
      </trkpt>
      <trkpt lat="39.921758467773486" lon="116.22112926766484">
        <ele>49.6136474609375</ele>
        <time>2026-08-13T11:03:41Z</time>
      </trkpt>
      <trkpt lat="39.921921163558956" lon="116.22076573881613">
        <ele>51.4566650390625</ele>
        <time>2026-08-13T11:03:56Z</time>
      </trkpt>
      <trkpt lat="39.9219450988887" lon="116.22068862718447">
        <ele>51.3095703125</ele>
        <time>2026-08-13T11:03:59Z</time>
      </trkpt>
      <trkpt lat="39.921939840679734" lon="116.22037818770117">
        <ele>46.58966064453125</ele>
        <time>2026-08-13T11:04:11Z</time>
      </trkpt>
      <trkpt lat="39.9219444894429" lon="116.21996259111256">
        <ele>49.80816650390625</ele>
        <time>2026-08-13T11:04:26Z</time>
      </trkpt>
      <trkpt lat="39.92194216733729" lon="116.2195870461758">
        <ele>51.3509521484375</ele>
        <time>2026-08-13T11:04:38Z</time>
      </trkpt>
      <trkpt lat="39.92194183340439" lon="116.21920348285609">
        <ele>47.72509765625</ele>
        <time>2026-08-13T11:04:53Z</time>
      </trkpt>
      <trkpt lat="39.92193249850302" lon="116.21882392009714">
        <ele>50.300537109375</ele>
        <time>2026-08-13T11:05:08Z</time>
      </trkpt>
      <trkpt lat="39.921934278243015" lon="116.21857755042808">
        <ele>51.06201171875</ele>
        <time>2026-08-13T11:05:17Z</time>
      </trkpt>
      <trkpt lat="39.92189893380261" lon="116.21819497582284">
        <ele>50.822021484375</ele>
        <time>2026-08-13T11:05:32Z</time>
      </trkpt>
      <trkpt lat="39.921881553274254" lon="116.21777934165986">
        <ele>49.04815673828125</ele>
        <time>2026-08-13T11:05:50Z</time>
      </trkpt>
      <trkpt lat="39.921844219503" lon="116.21741878818487">
        <ele>50.470703125</ele>
        <time>2026-08-13T11:06:05Z</time>
      </trkpt>
      <trkpt lat="39.921807009310015" lon="116.2171934411108">
        <ele>50.36932373046875</ele>
        <time>2026-08-13T11:06:14Z</time>
      </trkpt>
      <trkpt lat="39.92175663760422" lon="116.2167998277683">
        <ele>51.56988525390625</ele>
        <time>2026-08-13T11:06:29Z</time>
      </trkpt>
      <trkpt lat="39.92175750800948" lon="116.21666461326264">
        <ele>49.66156005859375</ele>
        <time>2026-08-13T11:06:35Z</time>
      </trkpt>
      <trkpt lat="39.92167620189521" lon="116.21634411204062">
        <ele>51.40478515625</ele>
        <time>2026-08-13T11:06:47Z</time>
      </trkpt>
      <trkpt lat="39.92163993087132" lon="116.21606466711066">
        <ele>49.442138671875</ele>
        <time>2026-08-13T11:06:59Z</time>
      </trkpt>
      <trkpt lat="39.92155859873027" lon="116.21572412499954">
        <ele>50.0859375</ele>
        <time>2026-08-13T11:07:11Z</time>
      </trkpt>
      <trkpt lat="39.92147122799905" lon="116.21534852104256">
        <ele>48.37530517578125</ele>
        <time>2026-08-13T11:07:26Z</time>
      </trkpt>
      <trkpt lat="39.92138284976781" lon="116.21496990621652">
        <ele>49.79241943359375</ele>
        <time>2026-08-13T11:07:41Z</time>
      </trkpt>
      <trkpt lat="39.921292471188984" lon="116.2145952922874">
        <ele>50.2562255859375</ele>
        <time>2026-08-13T11:07:56Z</time>
      </trkpt>
      <trkpt lat="39.921207061971025" lon="116.21419562942667">
        <ele>49.1656494140625</ele>
        <time>2026-08-13T11:08:11Z</time>
      </trkpt>
      <trkpt lat="39.92112369081573" lon="116.21383702981825">
        <ele>50.58551025390625</ele>
        <time>2026-08-13T11:08:23Z</time>
      </trkpt>
      <trkpt lat="39.921102248178556" lon="116.21341731173288">
        <ele>49.75469970703125</ele>
        <time>2026-08-13T11:08:38Z</time>
      </trkpt>
      <trkpt lat="39.921120782248416" lon="116.21298255515084">
        <ele>50.9549560546875</ele>
        <time>2026-08-13T11:08:53Z</time>
      </trkpt>
      <trkpt lat="39.92111339227633" lon="116.21262192449174">
        <ele>49.47344970703125</ele>
        <time>2026-08-13T11:09:05Z</time>
      </trkpt>
      <trkpt lat="39.921086118929395" lon="116.21237048438148">
        <ele>49.10589599609375</ele>
        <time>2026-08-13T11:09:14Z</time>
      </trkpt>
      <trkpt lat="39.921095653827564" lon="116.21194873349131">
        <ele>49.1209716796875</ele>
        <time>2026-08-13T11:09:29Z</time>
      </trkpt>
      <trkpt lat="39.92109121869678" lon="116.2115580330942">
        <ele>48.39910888671875</ele>
        <time>2026-08-13T11:09:44Z</time>
      </trkpt>
      <trkpt lat="39.921089732316695" lon="116.21112625146321">
        <ele>49.87750244140625</ele>
        <time>2026-08-13T11:09:59Z</time>
      </trkpt>
      <trkpt lat="39.92111229327453" lon="116.21074154577812">
        <ele>47.76629638671875</ele>
        <time>2026-08-13T11:10:14Z</time>
      </trkpt>
      <trkpt lat="39.921259977641995" lon="116.21047203145103">
        <ele>49.16180419921875</ele>
        <time>2026-08-13T11:10:26Z</time>
      </trkpt>
      <trkpt lat="39.92151365083232" lon="116.21019849356733">
        <ele>49.33953857421875</ele>
        <time>2026-08-13T11:10:41Z</time>
      </trkpt>
      <trkpt lat="39.92168447486738" lon="116.21005320216709">
        <ele>49.41314697265625</ele>
        <time>2026-08-13T11:10:50Z</time>
      </trkpt>
      <trkpt lat="39.92187819413979" lon="116.20981974225035">
        <ele>50.64837646484375</ele>
        <time>2026-08-13T11:11:02Z</time>
      </trkpt>
      <trkpt lat="39.92198692357887" lon="116.20959330398067">
        <ele>52.30462646484375</ele>
        <time>2026-08-13T11:11:11Z</time>
      </trkpt>
      <trkpt lat="39.922078432071075" lon="116.20918151505785">
        <ele>53.34625244140625</ele>
        <time>2026-08-13T11:11:26Z</time>
      </trkpt>
      <trkpt lat="39.92210534142636" lon="116.20910636910479">
        <ele>51.87188720703125</ele>
        <time>2026-08-13T11:11:29Z</time>
      </trkpt>
      <trkpt lat="39.92207094572781" lon="116.20877474146263">
        <ele>52.140869140625</ele>
        <time>2026-08-13T11:11:41Z</time>
      </trkpt>
      <trkpt lat="39.92194550322646" lon="116.20840404569235">
        <ele>50.4388427734375</ele>
        <time>2026-08-13T11:11:56Z</time>
      </trkpt>
      <trkpt lat="39.921769132379495" lon="116.20809346757811">
        <ele>52.15155029296875</ele>
        <time>2026-08-13T11:12:09Z</time>
      </trkpt>
      <trkpt lat="39.921569849659925" lon="116.20785603115758">
        <ele>50.293701171875</ele>
        <time>2026-08-13T11:12:21Z</time>
      </trkpt>
      <trkpt lat="39.92138572784451" lon="116.20775084908591">
        <ele>51.446533203125</ele>
        <time>2026-08-13T11:12:30Z</time>
      </trkpt>
      <trkpt lat="39.921136631896786" lon="116.20766471192067">
        <ele>49.24566650390625</ele>
        <time>2026-08-13T11:12:42Z</time>
      </trkpt>
      <trkpt lat="39.920855650916" lon="116.20767075875406">
        <ele>52.16326904296875</ele>
        <time>2026-08-13T11:12:54Z</time>
      </trkpt>
      <trkpt lat="39.920670704278244" lon="116.20770785426727">
        <ele>51.5802001953125</ele>
        <time>2026-08-13T11:13:03Z</time>
      </trkpt>
      <trkpt lat="39.92050478519604" lon="116.20776799231092">
        <ele>48.87957763671875</ele>
        <time>2026-08-13T11:13:12Z</time>
      </trkpt>
      <trkpt lat="39.920177846803995" lon="116.20780710932021">
        <ele>50.78143310546875</ele>
        <time>2026-08-13T11:13:27Z</time>
      </trkpt>
      <trkpt lat="39.919966855539045" lon="116.2078071356637">
        <ele>50.8599853515625</ele>
        <time>2026-08-13T11:13:36Z</time>
      </trkpt>
      <trkpt lat="39.919771858687135" lon="116.20780315219851">
        <ele>52.4144287109375</ele>
        <time>2026-08-13T11:13:45Z</time>
      </trkpt>
      <trkpt lat="39.91949078523074" lon="116.20773405244806">
        <ele>55.8494873046875</ele>
        <time>2026-08-13T11:13:57Z</time>
      </trkpt>
      <trkpt lat="39.91920277372076" lon="116.2077150512448">
        <ele>55.21319580078125</ele>
        <time>2026-08-13T11:14:09Z</time>
      </trkpt>
      <trkpt lat="39.91910882206164" lon="116.20775113337655">
        <ele>54.404541015625</ele>
        <time>2026-08-13T11:14:18Z</time>
      </trkpt>
      <trkpt lat="39.91903476463903" lon="116.20770204678635">
        <ele>52.672607421875</ele>
        <time>2026-08-13T11:14:42Z</time>
      </trkpt>
      <trkpt lat="39.91873668676714" lon="116.20762894105602">
        <ele>52.97271728515625</ele>
        <time>2026-08-13T11:15:00Z</time>
      </trkpt>
      <trkpt lat="39.91843762862399" lon="116.20757186663803">
        <ele>53.7254638671875</ele>
        <time>2026-08-13T11:15:18Z</time>
      </trkpt>
      <trkpt lat="39.918277595619585" lon="116.20753982382422">
        <ele>52.519775390625</ele>
        <time>2026-08-13T11:15:27Z</time>
      </trkpt>
      <trkpt lat="39.918071465149346" lon="116.20742762947368">
        <ele>52.001708984375</ele>
        <time>2026-08-13T11:15:39Z</time>
      </trkpt>
      <trkpt lat="39.917860158534765" lon="116.20717415694567">
        <ele>50.9471435546875</ele>
        <time>2026-08-13T11:15:54Z</time>
      </trkpt>
      <trkpt lat="39.91777003085585" lon="116.20706896043018">
        <ele>52.103759765625</ele>
        <time>2026-08-13T11:16:00Z</time>
      </trkpt>
      <trkpt lat="39.91749985507753" lon="116.20691969861807">
        <ele>51.33477783203125</ele>
        <time>2026-08-13T11:16:15Z</time>
      </trkpt>
      <trkpt lat="39.91720477678665" lon="116.20684759234938">
        <ele>51.9007568359375</ele>
        <time>2026-08-13T11:16:30Z</time>
      </trkpt>
      <trkpt lat="39.916918733294565" lon="116.20680354051238">
        <ele>51.18994140625</ele>
        <time>2026-08-13T11:16:45Z</time>
      </trkpt>
      <trkpt lat="39.916694706090404" lon="116.20677451074">
        <ele>48.5633544921875</ele>
        <time>2026-08-13T11:16:57Z</time>
      </trkpt>
      <trkpt lat="39.91651984319369" lon="116.2068777375272">
        <ele>48.94232177734375</ele>
        <time>2026-08-13T11:17:06Z</time>
      </trkpt>
      <trkpt lat="39.91642502309444" lon="116.20701802730291">
        <ele>51.67938232421875</ele>
        <time>2026-08-13T11:17:12Z</time>
      </trkpt>
      <trkpt lat="39.9164011080965" lon="116.2070851630398">
        <ele>51.15704345703125</ele>
        <time>2026-08-13T11:17:15Z</time>
      </trkpt>
      <trkpt lat="39.916404308049486" lon="116.20724547897134">
        <ele>53.296875</ele>
        <time>2026-08-13T11:17:21Z</time>
      </trkpt>
      <trkpt lat="39.916572806702675" lon="116.20765325822791">
        <ele>54.0108642578125</ele>
        <time>2026-08-13T11:17:42Z</time>
      </trkpt>
      <trkpt lat="39.916533892364036" lon="116.20772139618134">
        <ele>54.2679443359375</ele>
        <time>2026-08-13T11:17:48Z</time>
      </trkpt>
      <trkpt lat="39.916356513145644" lon="116.2074088062039">
        <ele>54.34326171875</ele>
        <time>2026-08-13T11:18:12Z</time>
      </trkpt>
      <trkpt lat="39.916192170692014" lon="116.20712827423549">
        <ele>56.0491943359375</ele>
        <time>2026-08-13T11:18:36Z</time>
      </trkpt>
      <trkpt lat="39.91607089471217" lon="116.20690384525551">
        <ele>58.82647705078125</ele>
        <time>2026-08-13T11:18:54Z</time>
      </trkpt>
      <trkpt lat="39.915966751712716" lon="116.20678662553345">
        <ele>58.82659912109375</ele>
        <time>2026-08-13T11:19:06Z</time>
      </trkpt>
      <trkpt lat="39.915897787385646" lon="116.20681268590555">
        <ele>60.07672119140625</ele>
        <time>2026-08-13T11:19:12Z</time>
      </trkpt>
      <trkpt lat="39.91583570926351" lon="116.20674856619905">
        <ele>60.76983642578125</ele>
        <time>2026-08-13T11:19:18Z</time>
      </trkpt>
      <trkpt lat="39.91574825671633" lon="116.20638785731099">
        <ele>60.60455322265625</ele>
        <time>2026-08-13T11:19:33Z</time>
      </trkpt>
      <trkpt lat="39.91570178602123" lon="116.2060171182761">
        <ele>62.7552490234375</ele>
        <time>2026-08-13T11:19:54Z</time>
      </trkpt>
      <trkpt lat="39.91572760511152" lon="116.2058768318969">
        <ele>64.825439453125</ele>
        <time>2026-08-13T11:20:09Z</time>
      </trkpt>
      <trkpt lat="39.91568126778048" lon="116.20561330380096">
        <ele>63.304443359375</ele>
        <time>2026-08-13T11:20:39Z</time>
      </trkpt>
      <trkpt lat="39.915683710194145" lon="116.2051834271857">
        <ele>63.91046142578125</ele>
        <time>2026-08-13T11:21:09Z</time>
      </trkpt>
      <trkpt lat="39.91568623709142" lon="116.20482168425916">
        <ele>62.93414306640625</ele>
        <time>2026-08-13T11:21:30Z</time>
      </trkpt>
      <trkpt lat="39.91569269933459" lon="116.20441384055525">
        <ele>63.11358642578125</ele>
        <time>2026-08-13T11:21:48Z</time>
      </trkpt>
      <trkpt lat="39.915681172601396" lon="116.20401701616545">
        <ele>63.70111083984375</ele>
        <time>2026-08-13T11:22:09Z</time>
      </trkpt>
      <trkpt lat="39.91567068609899" lon="116.20365325555177">
        <ele>65.2396240234375</ele>
        <time>2026-08-13T11:22:27Z</time>
      </trkpt>
      <trkpt lat="39.91568913794237" lon="116.20324739766177">
        <ele>61.84820556640625</ele>
        <time>2026-08-13T11:22:45Z</time>
      </trkpt>
      <trkpt lat="39.91568494926079" lon="116.20310810321031">
        <ele>63.60028076171875</ele>
        <time>2026-08-13T11:22:51Z</time>
      </trkpt>
      <trkpt lat="39.91572641769018" lon="116.20271927107125">
        <ele>58.81005859375</ele>
        <time>2026-08-13T11:23:09Z</time>
      </trkpt>
      <trkpt lat="39.915703137157195" lon="116.20251383494411">
        <ele>61.32318115234375</ele>
        <time>2026-08-13T11:23:18Z</time>
      </trkpt>
      <trkpt lat="39.91571360510935" lon="116.20212800518085">
        <ele>61.01934814453125</ele>
        <time>2026-08-13T11:23:33Z</time>
      </trkpt>
      <trkpt lat="39.91570910757585" lon="116.20176923082494">
        <ele>61.39385986328125</ele>
        <time>2026-08-13T11:23:45Z</time>
      </trkpt>
      <trkpt lat="39.915713506686515" lon="116.20133929592933">
        <ele>59.51605224609375</ele>
        <time>2026-08-13T11:24:00Z</time>
      </trkpt>
      <trkpt lat="39.915707966724526" lon="116.20095545721773">
        <ele>60.841552734375</ele>
        <time>2026-08-13T11:24:12Z</time>
      </trkpt>
      <trkpt lat="39.915718432416725" lon="116.2005786270758">
        <ele>59.66815185546875</ele>
        <time>2026-08-13T11:24:24Z</time>
      </trkpt>
      <trkpt lat="39.91569419234014" lon="116.20040925604381">
        <ele>59.06890869140625</ele>
        <time>2026-08-13T11:24:30Z</time>
      </trkpt>
      <trkpt lat="39.915666103464076" lon="116.20034611987118">
        <ele>57.96868896484375</ele>
        <time>2026-08-13T11:24:33Z</time>
      </trkpt>
      <trkpt lat="39.91566992290284" lon="116.200219839631">
        <ele>57.9525146484375</ele>
        <time>2026-08-13T11:24:39Z</time>
      </trkpt>
      <trkpt lat="39.91564577615724" lon="116.20011661356807">
        <ele>60.4832763671875</ele>
        <time>2026-08-13T11:24:45Z</time>
      </trkpt>
      <trkpt lat="39.9156593971269" lon="116.199853025349">
        <ele>58.84454345703125</ele>
        <time>2026-08-13T11:25:03Z</time>
      </trkpt>
      <trkpt lat="39.915506335741114" lon="116.19980593943924">
        <ele>58.3173828125</ele>
        <time>2026-08-13T11:25:15Z</time>
      </trkpt>
      <trkpt lat="39.915164318348666" lon="116.19978393301552">
        <ele>62.71246337890625</ele>
        <time>2026-08-13T11:25:36Z</time>
      </trkpt>
      <trkpt lat="39.91484832730492" lon="116.19978096582439">
        <ele>63.7320556640625</ele>
        <time>2026-08-13T11:25:57Z</time>
      </trkpt>
      <trkpt lat="39.914516299397846" lon="116.19975194247023">
        <ele>63.28277587890625</ele>
        <time>2026-08-13T11:26:18Z</time>
      </trkpt>
      <trkpt lat="39.9142352823423" lon="116.19973193285517">
        <ele>63.32574462890625</ele>
        <time>2026-08-13T11:26:36Z</time>
      </trkpt>
      <trkpt lat="39.91395227260015" lon="116.19971693467048">
        <ele>61.99554443359375</ele>
        <time>2026-08-13T11:26:54Z</time>
      </trkpt>
      <trkpt lat="39.91363624401456" lon="116.19968790925499">
        <ele>60.88128662109375</ele>
        <time>2026-08-13T11:27:12Z</time>
      </trkpt>
      <trkpt lat="39.91335722253897" lon="116.1996648926274">
        <ele>62.9388427734375</ele>
        <time>2026-08-13T11:27:27Z</time>
      </trkpt>
      <trkpt lat="39.913035223141016" lon="116.1996559127305">
        <ele>56.003173828125</ele>
        <time>2026-08-13T11:27:45Z</time>
      </trkpt>
      <trkpt lat="39.91272521601184" lon="116.19964192012553">
        <ele>57.32550048828125</ele>
        <time>2026-08-13T11:28:00Z</time>
      </trkpt>
      <trkpt lat="39.91260817754296" lon="116.1996118675124">
        <ele>59.76190185546875</ele>
        <time>2026-08-13T11:28:06Z</time>
      </trkpt>
      <trkpt lat="39.9126166193746" lon="116.19922700309561">
        <ele>62.81439208984375</ele>
        <time>2026-08-13T11:28:21Z</time>
      </trkpt>
      <trkpt lat="39.91262745555648" lon="116.19911474903266">
        <ele>59.26678466796875</ele>
        <time>2026-08-13T11:28:27Z</time>
      </trkpt>
      <trkpt lat="39.912629913668574" lon="116.19874391103693">
        <ele>58.9915771484375</ele>
        <time>2026-08-13T11:28:42Z</time>
      </trkpt>
      <trkpt lat="39.91261355383616" lon="116.19849835600397">
        <ele>63.42437744140625</ele>
        <time>2026-08-13T11:28:51Z</time>
      </trkpt>
      <trkpt lat="39.91263039818011" lon="116.19839311456812">
        <ele>62.8988037109375</ele>
        <time>2026-08-13T11:28:57Z</time>
      </trkpt>
      <trkpt lat="39.912629948155725" lon="116.19808841975743">
        <ele>63.4739990234375</ele>
        <time>2026-08-13T11:29:09Z</time>
      </trkpt>
      <trkpt lat="39.912614837435825" lon="116.19801324977212">
        <ele>63.109619140625</ele>
        <time>2026-08-13T11:29:12Z</time>
      </trkpt>
      <trkpt lat="39.912640583446105" lon="116.19784285631741">
        <ele>62.95660400390625</ele>
        <time>2026-08-13T11:29:18Z</time>
      </trkpt>
      <trkpt lat="39.912611016995534" lon="116.19746198449197">
        <ele>63.251953125</ele>
        <time>2026-08-13T11:29:33Z</time>
      </trkpt>
      <trkpt lat="39.91261848033687" lon="116.19710415698128">
        <ele>59.51995849609375</ele>
        <time>2026-08-13T11:29:48Z</time>
      </trkpt>
      <trkpt lat="39.912622243394324" lon="116.19694679177088">
        <ele>61.10504150390625</ele>
        <time>2026-08-13T11:29:54Z</time>
      </trkpt>
      <trkpt lat="39.91261012908758" lon="116.1968706164564">
        <ele>62.73602294921875</ele>
        <time>2026-08-13T11:29:57Z</time>
      </trkpt>
      <trkpt lat="39.91263463254474" lon="116.1965428505634">
        <ele>59.90753173828125</ele>
        <time>2026-08-13T11:30:09Z</time>
      </trkpt>
      <trkpt lat="39.91261008227394" lon="116.19618000542101">
        <ele>59.579833984375</ele>
        <time>2026-08-13T11:30:24Z</time>
      </trkpt>
      <trkpt lat="39.91260542846227" lon="116.19575200048287">
        <ele>61.47845458984375</ele>
        <time>2026-08-13T11:30:39Z</time>
      </trkpt>
      <trkpt lat="39.91261483189425" lon="116.19536408335212">
        <ele>62.663330078125</ele>
        <time>2026-08-13T11:30:54Z</time>
      </trkpt>
      <trkpt lat="39.91261535354722" lon="116.19505434881809">
        <ele>62.8740234375</ele>
        <time>2026-08-13T11:31:06Z</time>
      </trkpt>
      <trkpt lat="39.912632113687614" lon="116.19489997964561">
        <ele>62.22369384765625</ele>
        <time>2026-08-13T11:31:12Z</time>
      </trkpt>
      <trkpt lat="39.91261553775952" lon="116.1945290970169">
        <ele>62.05517578125</ele>
        <time>2026-08-13T11:31:27Z</time>
      </trkpt>
      <trkpt lat="39.912607121789584" lon="116.19426245963881">
        <ele>61.31207275390625</ele>
        <time>2026-08-13T11:31:36Z</time>
      </trkpt>
      <trkpt lat="39.9126189847997" lon="116.19417524890987">
        <ele>60.687255859375</ele>
        <time>2026-08-13T11:31:39Z</time>
      </trkpt>
      <trkpt lat="39.912602598716965" lon="116.19392865816067">
        <ele>60.86798095703125</ele>
        <time>2026-08-13T11:31:48Z</time>
      </trkpt>
      <trkpt lat="39.912613025269444" lon="116.1935647790353">
        <ele>60.59564208984375</ele>
        <time>2026-08-13T11:32:00Z</time>
      </trkpt>
      <trkpt lat="39.912594350189295" lon="116.193137746578">
        <ele>62.15228271484375</ele>
        <time>2026-08-13T11:32:15Z</time>
      </trkpt>
      <trkpt lat="39.91261513595423" lon="116.1930034174512">
        <ele>63.479736328125</ele>
        <time>2026-08-13T11:32:24Z</time>
      </trkpt>
      <trkpt lat="39.912583555926425" lon="116.19263853198572">
        <ele>63.62896728515625</ele>
        <time>2026-08-13T11:32:48Z</time>
      </trkpt>
      <trkpt lat="39.91256439335745" lon="116.19253628451492">
        <ele>62.98992919921875</ele>
        <time>2026-08-13T11:32:54Z</time>
      </trkpt>
      <trkpt lat="39.91256823442271" lon="116.19243704124568">
        <ele>61.73382568359375</ele>
        <time>2026-08-13T11:33:00Z</time>
      </trkpt>
      <trkpt lat="39.91259908218391" lon="116.19234280661328">
        <ele>62.94171142578125</ele>
        <time>2026-08-13T11:33:06Z</time>
      </trkpt>
      <trkpt lat="39.91261053111139" lon="116.19199996360572">
        <ele>65.57659912109375</ele>
        <time>2026-08-13T11:33:24Z</time>
      </trkpt>
      <trkpt lat="39.91259835082538" lon="116.19188768886058">
        <ele>64.66253662109375</ele>
        <time>2026-08-13T11:33:30Z</time>
      </trkpt>
      <trkpt lat="39.91261974928963" lon="116.19151576869469">
        <ele>64.3487548828125</ele>
        <time>2026-08-13T11:33:48Z</time>
      </trkpt>
      <trkpt lat="39.9126160924138" lon="116.19111076601935">
        <ele>64.4046630859375</ele>
        <time>2026-08-13T11:34:06Z</time>
      </trkpt>
      <trkpt lat="39.9126194158037" lon="116.19069573332735">
        <ele>63.28936767578125</ele>
        <time>2026-08-13T11:34:24Z</time>
      </trkpt>
      <trkpt lat="39.91259973041977" lon="116.19027668918046">
        <ele>64.75091552734375</ele>
        <time>2026-08-13T11:34:42Z</time>
      </trkpt>
      <trkpt lat="39.912594069360814" lon="116.18987468177774">
        <ele>62.724609375</ele>
        <time>2026-08-13T11:35:00Z</time>
      </trkpt>
      <trkpt lat="39.91260340810284" lon="116.1894746736295">
        <ele>64.98388671875</ele>
        <time>2026-08-13T11:35:18Z</time>
      </trkpt>
      <trkpt lat="39.91260974582757" lon="116.18907566456853">
        <ele>63.3431396484375</ele>
        <time>2026-08-13T11:35:36Z</time>
      </trkpt>
      <trkpt lat="39.9125931503762" lon="116.18871775905667">
        <ele>64.7496337890625</ele>
        <time>2026-08-13T11:35:51Z</time>
      </trkpt>
      <trkpt lat="39.912587780458615" lon="116.1884961963918">
        <ele>64.996337890625</ele>
        <time>2026-08-13T11:36:00Z</time>
      </trkpt>
      <trkpt lat="39.91260117853104" lon="116.18813727975667">
        <ele>65.1495361328125</ele>
        <time>2026-08-13T11:36:15Z</time>
      </trkpt>
      <trkpt lat="39.91260192926349" lon="116.18798890055515">
        <ele>65.4576416015625</ele>
        <time>2026-08-13T11:36:21Z</time>
      </trkpt>
      <trkpt lat="39.91270629339602" lon="116.18761392723589">
        <ele>65.68341064453125</ele>
        <time>2026-08-13T11:36:39Z</time>
      </trkpt>
      <trkpt lat="39.91288071506855" lon="116.18727603743643">
        <ele>63.89385986328125</ele>
        <time>2026-08-13T11:36:57Z</time>
      </trkpt>
      <trkpt lat="39.913060104056434" lon="116.18692009794054">
        <ele>65.230224609375</ele>
        <time>2026-08-13T11:37:15Z</time>
      </trkpt>
      <trkpt lat="39.913154733625234" lon="116.1867045293709">
        <ele>66.50146484375</ele>
        <time>2026-08-13T11:37:27Z</time>
      </trkpt>
      <trkpt lat="39.9132494974541" lon="116.18656816482088">
        <ele>66.28424072265625</ele>
        <time>2026-08-13T11:37:39Z</time>
      </trkpt>
      <trkpt lat="39.91327535623971" lon="116.18648594875208">
        <ele>66.185546875</ele>
        <time>2026-08-13T11:37:45Z</time>
      </trkpt>
      <trkpt lat="39.91332817100832" lon="116.18637866419873">
        <ele>65.623779296875</ele>
        <time>2026-08-13T11:37:54Z</time>
      </trkpt>
      <trkpt lat="39.91328013367972" lon="116.18635561045532">
        <ele>65.07489013671875</ele>
        <time>2026-08-13T11:38:00Z</time>
      </trkpt>
      <trkpt lat="39.913207992913094" lon="116.18627140111467">
        <ele>64.44171142578125</ele>
        <time>2026-08-13T11:38:06Z</time>
      </trkpt>
      <trkpt lat="39.91322568704982" lon="116.18609293561111">
        <ele>64.7850341796875</ele>
        <time>2026-08-13T11:38:15Z</time>
      </trkpt>
      <trkpt lat="39.91314158936551" lon="116.18603379246021">
        <ele>66.3729248046875</ele>
        <time>2026-08-13T11:38:21Z</time>
      </trkpt>
      <trkpt lat="39.91311948213707" lon="116.185970631027">
        <ele>65.97064208984375</ele>
        <time>2026-08-13T11:38:24Z</time>
      </trkpt>
      <trkpt lat="39.913116141942595" lon="116.18577211482479">
        <ele>66.83416748046875</ele>
        <time>2026-08-13T11:38:33Z</time>
      </trkpt>
      <trkpt lat="39.91308591600141" lon="116.18563977375344">
        <ele>68.342041015625</ele>
        <time>2026-08-13T11:38:39Z</time>
      </trkpt>
      <trkpt lat="39.91306588239887" lon="116.1856197239847">
        <ele>68.89691162109375</ele>
        <time>2026-08-13T11:38:45Z</time>
      </trkpt>
    </trkseg>
  </trk>
</gpx>