<?xml version="1.0" encoding="UTF-8"?>
<gpx xmlns="http://www.topografix.com/GPX/1/1" xmlns:gpxtpx="http://www.garmin.com/xmlschemas/TrackPointExtension/v1" xmlns:xsi="http://www.w3.org/2001/XMLSchema-instance" xsi:schemaLocation="http://www.topografix.com/GPX/1/1 http://www.topografix.com/GPX/1/1/gpx.xsd" version="1.1" creator="gpx.py -- https://github.com/tkrajina/gpxpy">
  <trk>
    <name>gpx from keep</name>
    <type>Ride</type>
    <trkseg>
      <trkpt lat="39.908876877480644" lon="116.14879945213046">
        <ele>73.74542236328125</ele>
        <time>2026-09-22T11:52:45Z</time>
      </trkpt>
      <trkpt lat="39.90888978842959" lon="116.14817878014458">
        <ele>72.827880859375</ele>
        <time>2026-09-22T11:52:57Z</time>
      </trkpt>
      <trkpt lat="39.90887470582298" lon="116.1475581181612">
        <ele>69.3187255859375</ele>
        <time>2026-09-22T11:53:11Z</time>
      </trkpt>
      <trkpt lat="39.90890770648559" lon="116.14698357967355">
        <ele>68.4324951171875</ele>
        <time>2026-09-22T11:53:23Z</time>
      </trkpt>
      <trkpt lat="39.908939146444446" lon="116.14666071605855">
        <ele>70.772705078125</ele>
        <time>2026-09-22T11:53:30Z</time>
      </trkpt>
      <trkpt lat="39.90891834325081" lon="116.14619448068636">
        <ele>74.70263671875</ele>
        <time>2026-09-22T11:53:41Z</time>
      </trkpt>
      <trkpt lat="39.90888813412292" lon="116.14607216038104">
        <ele>74.4615478515625</ele>
        <time>2026-09-22T11:53:44Z</time>
      </trkpt>
      <trkpt lat="39.908912804088814" lon="116.14588065034212">
        <ele>73.8260498046875</ele>
        <time>2026-09-22T11:53:51Z</time>
      </trkpt>
      <trkpt lat="39.90898074095295" lon="116.14584554889692">
        <ele>72.78564453125</ele>
        <time>2026-09-22T11:53:56Z</time>
      </trkpt>
      <trkpt lat="39.90902459977281" lon="116.14576432861811">
        <ele>72.73406982421875</ele>
        <time>2026-09-22T11:54:00Z</time>
      </trkpt>
      <trkpt lat="39.90897945907435" lon="116.14568111447768">
        <ele>75.0748291015625</ele>
        <time>2026-09-22T11:54:45Z</time>
      </trkpt>
    </trkseg>
  </trk>
</gpx>