<?xml version="1.0" encoding="UTF-8"?>
<gpx xmlns="http://www.topografix.com/GPX/1/1" xmlns:gpxtpx="http://www.garmin.com/xmlschemas/TrackPointExtension/v1" xmlns:xsi="http://www.w3.org/2001/XMLSchema-instance" xsi:schemaLocation="http://www.topografix.com/GPX/1/1 http://www.topografix.com/GPX/1/1/gpx.xsd" version="1.1" creator="gpx.py -- https://github.com/tkrajina/gpxpy">
  <trk>
    <name>gpx from keep</name>
    <type>Run</type>
    <trkseg>
      <trkpt lat="39.9131333595789" lon="116.18589944412564">
        <ele>65.4464111328125</ele>
        <time>2026-09-01T10:52:15Z</time>
      </trkpt>
      <trkpt lat="39.913124636419866" lon="116.18606086493767">
        <ele>64.4056396484375</ele>
        <time>2026-09-01T10:52:27Z</time>
      </trkpt>
      <trkpt lat="39.91318967656381" lon="116.18608592189857">
        <ele>63.0045166015625</ele>
        <time>2026-09-01T10:52:33Z</time>
      </trkpt>
      <trkpt lat="39.91323276393242" lon="116.18613805190792">
        <ele>61.4813232421875</ele>
        <time>2026-09-01T10:52:39Z</time>
      </trkpt>
      <trkpt lat="39.913224076139514" lon="116.18632052651138">
        <ele>61.76641845703125</ele>
        <time>2026-09-01T10:52:48Z</time>
      </trkpt>
      <trkpt lat="39.913305288294474" lon="116.18644684372403">
        <ele>63.01861572265625</ele>
        <time>2026-09-01T10:52:54Z</time>
      </trkpt>
      <trkpt lat="39.91324653857034" lon="116.18659222745475">
        <ele>62.29840087890625</ele>
        <time>2026-09-01T10:53:00Z</time>
      </trkpt>
      <trkpt lat="39.91307005255001" lon="116.18689001907406">
        <ele>65.07403564453125</ele>
        <time>2026-09-01T10:53:15Z</time>
      </trkpt>
      <trkpt lat="39.912912588102884" lon="116.18720184251917">
        <ele>67.53460693359375</ele>
        <time>2026-09-01T10:53:27Z</time>
      </trkpt>
      <trkpt lat="39.91275611698063" lon="116.18751065598539">
        <ele>65.80181884765625</ele>
        <time>2026-09-01T10:53:42Z</time>
      </trkpt>
      <trkpt lat="39.91263860045667" lon="116.18779439826334">
        <ele>65.73052978515625</ele>
        <time>2026-09-01T10:53:54Z</time>
      </trkpt>
      <trkpt lat="39.912595183833396" lon="116.1881402881881">
        <ele>64.9697265625</ele>
        <time>2026-09-01T10:54:06Z</time>
      </trkpt>
      <trkpt lat="39.91261254113993" lon="116.1883538307241">
        <ele>62.46868896484375</ele>
        <time>2026-09-01T10:54:18Z</time>
      </trkpt>
      <trkpt lat="39.91258083942859" lon="116.18853128655456">
        <ele>62.7711181640625</ele>
        <time>2026-09-01T10:54:24Z</time>
      </trkpt>
      <trkpt lat="39.9125834483049" lon="116.18889621317368">
        <ele>65.818115234375</ele>
        <time>2026-09-01T10:54:36Z</time>
      </trkpt>
      <trkpt lat="39.912596139286066" lon="116.18931226459759">
        <ele>64.18658447265625</ele>
        <time>2026-09-01T10:54:51Z</time>
      </trkpt>
      <trkpt lat="39.91258381175084" lon="116.18971828981773">
        <ele>66.5654296875</ele>
        <time>2026-09-01T10:55:06Z</time>
      </trkpt>
      <trkpt lat="39.9125944852619" lon="116.19012731571411">
        <ele>64.96673583984375</ele>
        <time>2026-09-01T10:55:21Z</time>
      </trkpt>
      <trkpt lat="39.912604090160485" lon="116.19049623752299">
        <ele>68.08123779296875</ele>
        <time>2026-09-01T10:55:33Z</time>
      </trkpt>
      <trkpt lat="39.91260523613196" lon="116.19058546010264">
        <ele>68.722900390625</ele>
        <time>2026-09-01T10:55:36Z</time>
      </trkpt>
      <trkpt lat="39.912635482258196" lon="116.19073683373658">
        <ele>69.0703125</ele>
        <time>2026-09-01T10:55:42Z</time>
      </trkpt>
      <trkpt lat="39.912612984916734" lon="116.19104460213407">
        <ele>69.27978515625</ele>
        <time>2026-09-01T10:55:51Z</time>
      </trkpt>
      <trkpt lat="39.912610567840815" lon="116.19140349216863">
        <ele>71.54541015625</ele>
        <time>2026-09-01T10:56:03Z</time>
      </trkpt>
      <trkpt lat="39.912610233963974" lon="116.19181550959519">
        <ele>71.7501220703125</ele>
        <time>2026-09-01T10:56:18Z</time>
      </trkpt>
      <trkpt lat="39.912577551866605" lon="116.19201199731926">
        <ele>67.60394287109375</ele>
        <time>2026-09-01T10:56:27Z</time>
      </trkpt>
      <trkpt lat="39.91260913315815" lon="116.19237488393944">
        <ele>65.85491943359375</ele>
        <time>2026-09-01T10:56:39Z</time>
      </trkpt>
      <trkpt lat="39.912612759425144" lon="116.19276684149726">
        <ele>66.44244384765625</ele>
        <time>2026-09-01T10:57:06Z</time>
      </trkpt>
      <trkpt lat="39.912631919933595" lon="116.19286808589699">
        <ele>67.92425537109375</ele>
        <time>2026-09-01T10:57:12Z</time>
      </trkpt>
      <trkpt lat="39.91259718132644" lon="116.19303148796935">
        <ele>67.20294189453125</ele>
        <time>2026-09-01T10:57:24Z</time>
      </trkpt>
      <trkpt lat="39.91258189360944" lon="116.1934805792841">
        <ele>68.33282470703125</ele>
        <time>2026-09-01T10:57:48Z</time>
      </trkpt>
      <trkpt lat="39.912570527613724" lon="116.19388255114082">
        <ele>67.68377685546875</ele>
        <time>2026-09-01T10:58:12Z</time>
      </trkpt>
      <trkpt lat="39.91260315174444" lon="116.19428150580448">
        <ele>63.185546875</ele>
        <time>2026-09-01T10:58:30Z</time>
      </trkpt>
      <trkpt lat="39.91259674460417" lon="116.19466141544196">
        <ele>63.15771484375</ele>
        <time>2026-09-01T10:58:45Z</time>
      </trkpt>
      <trkpt lat="39.91262529726589" lon="116.19501826182463">
        <ele>65.3170166015625</ele>
        <time>2026-09-01T10:58:57Z</time>
      </trkpt>
      <trkpt lat="39.91260084947699" lon="116.19537511119776">
        <ele>63.59112548828125</ele>
        <time>2026-09-01T10:59:12Z</time>
      </trkpt>
      <trkpt lat="39.91260044710745" lon="116.19576402943805">
        <ele>62.55401611328125</ele>
        <time>2026-09-01T10:59:27Z</time>
      </trkpt>
      <trkpt lat="39.91258307425675" lon="116.19617399470978">
        <ele>62.89666748046875</ele>
        <time>2026-09-01T10:59:42Z</time>
      </trkpt>
      <trkpt lat="39.91259669944701" lon="116.19658595580516">
        <ele>65.1976318359375</ele>
        <time>2026-09-01T10:59:57Z</time>
      </trkpt>
      <trkpt lat="39.91259532905662" lon="116.197002925323">
        <ele>67.2906494140625</ele>
        <time>2026-09-01T11:00:12Z</time>
      </trkpt>
      <trkpt lat="39.912594951729204" lon="116.19741788483806">
        <ele>67.17181396484375</ele>
        <time>2026-09-01T11:00:27Z</time>
      </trkpt>
      <trkpt lat="39.91261737864635" lon="116.19770454178293">
        <ele>65.10845947265625</ele>
        <time>2026-09-01T11:00:39Z</time>
      </trkpt>
      <trkpt lat="39.91265171099458" lon="116.19792905244995">
        <ele>62.08453369140625</ele>
        <time>2026-09-01T11:00:48Z</time>
      </trkpt>
      <trkpt lat="39.91263732844788" lon="116.19834600646058">
        <ele>60.489013671875</ele>
        <time>2026-09-01T11:01:03Z</time>
      </trkpt>
      <trkpt lat="39.91264157918369" lon="116.19851639349113">
        <ele>59.740966796875</ele>
        <time>2026-09-01T11:01:09Z</time>
      </trkpt>
      <trkpt lat="39.912626120674986" lon="116.19888523125313">
        <ele>57.8907470703125</ele>
        <time>2026-09-01T11:01:24Z</time>
      </trkpt>
      <trkpt lat="39.912626653915744" lon="116.19925105593991">
        <ele>55.0941162109375</ele>
        <time>2026-09-01T11:01:39Z</time>
      </trkpt>
      <trkpt lat="39.912617272674396" lon="116.19967801428506">
        <ele>58.63983154296875</ele>
        <time>2026-09-01T11:01:54Z</time>
      </trkpt>
      <trkpt lat="39.91260578943395" lon="116.20003681555146">
        <ele>60.00714111328125</ele>
        <time>2026-09-01T11:02:06Z</time>
      </trkpt>
      <trkpt lat="39.91262624025147" lon="116.20035251328693">
        <ele>59.022216796875</ele>
        <time>2026-09-01T11:02:18Z</time>
      </trkpt>
      <trkpt lat="39.91272317462711" lon="116.20030940576363">
        <ele>57.3466796875</ele>
        <time>2026-09-01T11:02:24Z</time>
      </trkpt>
      <trkpt lat="39.91300719264451" lon="116.20033041685156">
        <ele>54.14886474609375</ele>
        <time>2026-09-01T11:02:39Z</time>
      </trkpt>
      <trkpt lat="39.91319216907727" lon="116.20031936931505">
        <ele>54.80218505859375</ele>
        <time>2026-09-01T11:02:48Z</time>
      </trkpt>
      <trkpt lat="39.91350719438009" lon="116.2003463898284">
        <ele>56.8121337890625</ele>
        <time>2026-09-01T11:03:03Z</time>
      </trkpt>
      <trkpt lat="39.91378119853545" lon="116.20035737996567">
        <ele>55.89630126953125</ele>
        <time>2026-09-01T11:03:18Z</time>
      </trkpt>
      <trkpt lat="39.91407722321204" lon="116.20038340060387">
        <ele>53.79730224609375</ele>
        <time>2026-09-01T11:03:33Z</time>
      </trkpt>
      <trkpt lat="39.914353224437484" lon="116.20039238604431">
        <ele>55.489990234375</ele>
        <time>2026-09-01T11:03:45Z</time>
      </trkpt>
      <trkpt lat="39.914651214743266" lon="116.20039435321654">
        <ele>55.71807861328125</ele>
        <time>2026-09-01T11:03:57Z</time>
      </trkpt>
      <trkpt lat="39.914939229770226" lon="116.20041335931279">
        <ele>55.25628662109375</ele>
        <time>2026-09-01T11:04:12Z</time>
      </trkpt>
      <trkpt lat="39.91527125009106" lon="116.20043737097103">
        <ele>60.49432373046875</ele>
        <time>2026-09-01T11:04:27Z</time>
      </trkpt>
      <trkpt lat="39.91545327385507" lon="116.20045939693746">
        <ele>63.54364013671875</ele>
        <time>2026-09-01T11:04:36Z</time>
      </trkpt>
      <trkpt lat="39.91545279183037" lon="116.20082420088869">
        <ele>60.521728515625</ele>
        <time>2026-09-01T11:04:57Z</time>
      </trkpt>
      <trkpt lat="39.915457302084064" lon="116.20118599322832">
        <ele>60.96014404296875</ele>
        <time>2026-09-01T11:05:09Z</time>
      </trkpt>
      <trkpt lat="39.91546384959682" lon="116.2015768440871">
        <ele>60.4666748046875</ele>
        <time>2026-09-01T11:05:24Z</time>
      </trkpt>
      <trkpt lat="39.91546337967007" lon="116.20195766902705">
        <ele>58.89312744140625</ele>
        <time>2026-09-01T11:05:39Z</time>
      </trkpt>
      <trkpt lat="39.91546191301488" lon="116.20234349991247">
        <ele>58.7769775390625</ele>
        <time>2026-09-01T11:05:54Z</time>
      </trkpt>
      <trkpt lat="39.91546023260717" lon="116.20257599823793">
        <ele>59.2003173828125</ele>
        <time>2026-09-01T11:06:03Z</time>
      </trkpt>
      <trkpt lat="39.91547872898579" lon="116.20293977156255">
        <ele>61.68603515625</ele>
        <time>2026-09-01T11:06:18Z</time>
      </trkpt>
      <trkpt lat="39.91547829859808" lon="116.20335966119193">
        <ele>61.5604248046875</ele>
        <time>2026-09-01T11:06:33Z</time>
      </trkpt>
      <trkpt lat="39.915478851480984" lon="116.20377052561047">
        <ele>60.88055419921875</ele>
        <time>2026-09-01T11:06:48Z</time>
      </trkpt>
      <trkpt lat="39.915483397088636" lon="116.20417937939204">
        <ele>60.53717041015625</ele>
        <time>2026-09-01T11:07:03Z</time>
      </trkpt>
      <trkpt lat="39.91548393710645" lon="116.20458722564719">
        <ele>62.2252197265625</ele>
        <time>2026-09-01T11:07:18Z</time>
      </trkpt>
      <trkpt lat="39.91547543766075" lon="116.20496801149632">
        <ele>61.0947265625</ele>
        <time>2026-09-01T11:07:33Z</time>
      </trkpt>
      <trkpt lat="39.91548197138751" lon="116.20537784949747">
        <ele>61.369384765625</ele>
        <time>2026-09-01T11:07:48Z</time>
      </trkpt>
      <trkpt lat="39.915471493529836" lon="116.20578167132872">
        <ele>61.3370361328125</ele>
        <time>2026-09-01T11:08:03Z</time>
      </trkpt>
      <trkpt lat="39.915447693996626" lon="116.20593698829394">
        <ele>62.4742431640625</ele>
        <time>2026-09-01T11:08:09Z</time>
      </trkpt>
      <trkpt lat="39.91538463880345" lon="116.20589190510067">
        <ele>61.28973388671875</ele>
        <time>2026-09-01T11:08:39Z</time>
      </trkpt>
      <trkpt lat="39.91545462814729" lon="116.20588588421212">
        <ele>58.6685791015625</ele>
        <time>2026-09-01T11:08:57Z</time>
      </trkpt>
      <trkpt lat="39.915635707939494" lon="116.20595399919821">
        <ele>62.18182373046875</ele>
        <time>2026-09-01T11:09:09Z</time>
      </trkpt>
      <trkpt lat="39.915690795459554" lon="116.20602413378731">
        <ele>62.8046875</ele>
        <time>2026-09-01T11:09:15Z</time>
      </trkpt>
      <trkpt lat="39.91568606561766" lon="116.20623555970545">
        <ele>62.7125244140625</ele>
        <time>2026-09-01T11:09:24Z</time>
      </trkpt>
      <trkpt lat="39.915738224048475" lon="116.20636180639016">
        <ele>61.83270263671875</ele>
        <time>2026-09-01T11:09:30Z</time>
      </trkpt>
      <trkpt lat="39.915753441955616" lon="116.20653414916981">
        <ele>61.6529541015625</ele>
        <time>2026-09-01T11:09:36Z</time>
      </trkpt>
      <trkpt lat="39.91583873437577" lon="116.20676860566836">
        <ele>62.59637451171875</ele>
        <time>2026-09-01T11:09:45Z</time>
      </trkpt>
      <trkpt lat="39.915915849615324" lon="116.20686278311955">
        <ele>59.73345947265625</ele>
        <time>2026-09-01T11:09:51Z</time>
      </trkpt>
      <trkpt lat="39.91597281070284" lon="116.20683371832666">
        <ele>58.90771484375</ele>
        <time>2026-09-01T11:09:54Z</time>
      </trkpt>
      <trkpt lat="39.91602484882219" lon="116.20686577547515">
        <ele>59.152099609375</ele>
        <time>2026-09-01T11:09:57Z</time>
      </trkpt>
      <trkpt lat="39.91612399177253" lon="116.20698299547414">
        <ele>59.208984375</ele>
        <time>2026-09-01T11:10:03Z</time>
      </trkpt>
      <trkpt lat="39.916253405418836" lon="116.20731864181555">
        <ele>56.325927734375</ele>
        <time>2026-09-01T11:10:18Z</time>
      </trkpt>
      <trkpt lat="39.91644079738516" lon="116.20764125120233">
        <ele>52.78668212890625</ele>
        <time>2026-09-01T11:10:33Z</time>
      </trkpt>
      <trkpt lat="39.91665015355201" lon="116.20793780326957">
        <ele>49.58636474609375</ele>
        <time>2026-09-01T11:10:48Z</time>
      </trkpt>
      <trkpt lat="39.916799621855304" lon="116.20832653744061">
        <ele>48.91204833984375</ele>
        <time>2026-09-01T11:11:03Z</time>
      </trkpt>
      <trkpt lat="39.916887995409944" lon="116.20863812564782">
        <ele>50.6807861328125</ele>
        <time>2026-09-01T11:11:15Z</time>
      </trkpt>
      <trkpt lat="39.91695846996359" lon="116.20903587634538">
        <ele>50.21429443359375</ele>
        <time>2026-09-01T11:11:30Z</time>
      </trkpt>
      <trkpt lat="39.9170119738139" lon="116.20946167591163">
        <ele>52.14178466796875</ele>
        <time>2026-09-01T11:11:45Z</time>
      </trkpt>
      <trkpt lat="39.91703023883525" lon="116.2096870975974">
        <ele>51.30657958984375</ele>
        <time>2026-09-01T11:11:54Z</time>
      </trkpt>
      <trkpt lat="39.917066478182306" lon="116.20989247761699">
        <ele>52.60333251953125</ele>
        <time>2026-09-01T11:12:03Z</time>
      </trkpt>
      <trkpt lat="39.91710988588464" lon="116.21024412674866">
        <ele>53.8173828125</ele>
        <time>2026-09-01T11:12:18Z</time>
      </trkpt>
      <trkpt lat="39.91716929386175" lon="116.21059977635967">
        <ele>53.15478515625</ele>
        <time>2026-09-01T11:12:33Z</time>
      </trkpt>
      <trkpt lat="39.917246732654895" lon="116.21098647537605">
        <ele>53.03228759765625</ele>
        <time>2026-09-01T11:12:48Z</time>
      </trkpt>
      <trkpt lat="39.917327170227566" lon="116.2113761734641">
        <ele>53.04083251953125</ele>
        <time>2026-09-01T11:13:03Z</time>
      </trkpt>
      <trkpt lat="39.91738863859305" lon="116.2117969234767">
        <ele>54.02423095703125</ele>
        <time>2026-09-01T11:13:18Z</time>
      </trkpt>
      <trkpt lat="39.91742009292386" lon="116.2122086540466">
        <ele>53.6553955078125</ele>
        <time>2026-09-01T11:13:33Z</time>
      </trkpt>
      <trkpt lat="39.917437530679365" lon="116.21260936006554">
        <ele>53.90240478515625</ele>
        <time>2026-09-01T11:13:48Z</time>
      </trkpt>
      <trkpt lat="39.91744661523127" lon="116.21268749626381">
        <ele>53.4119873046875</ele>
        <time>2026-09-01T11:13:51Z</time>
      </trkpt>
      <trkpt lat="39.917482694127756" lon="116.21276162182104">
        <ele>55.5008544921875</ele>
        <time>2026-09-01T11:13:54Z</time>
      </trkpt>
      <trkpt lat="39.91748915449446" lon="116.21318936705694">
        <ele>56.1068115234375</ele>
        <time>2026-09-01T11:14:09Z</time>
      </trkpt>
      <trkpt lat="39.91753460863196" lon="116.21361810158204">
        <ele>53.86639404296875</ele>
        <time>2026-09-01T11:14:24Z</time>
      </trkpt>
      <trkpt lat="39.91758996975679" lon="116.21396368576482">
        <ele>52.85833740234375</ele>
        <time>2026-09-01T11:14:36Z</time>
      </trkpt>
      <trkpt lat="39.917646236829185" lon="116.21431786950765">
        <ele>55.0992431640625</ele>
        <time>2026-09-01T11:14:48Z</time>
      </trkpt>
      <trkpt lat="39.917682754319216" lon="116.21472596032771">
        <ele>54.73773193359375</ele>
        <time>2026-09-01T11:15:03Z</time>
      </trkpt>
      <trkpt lat="39.91769717797583" lon="116.21514365289225">
        <ele>55.10321044921875</ele>
        <time>2026-09-01T11:15:18Z</time>
      </trkpt>
      <trkpt lat="39.917742587815155" lon="116.21555432271818">
        <ele>57.3359375</ele>
        <time>2026-09-01T11:15:33Z</time>
      </trkpt>
      <trkpt lat="39.9178039975083" lon="116.21597099308062">
        <ele>58.6326904296875</ele>
        <time>2026-09-01T11:15:48Z</time>
      </trkpt>
      <trkpt lat="39.917898375000455" lon="116.21636161019713">
        <ele>59.0662841796875</ele>
        <time>2026-09-01T11:16:03Z</time>
      </trkpt>
      <trkpt lat="39.917967719828205" lon="116.21672217622398">
        <ele>57.1307373046875</ele>
        <time>2026-09-01T11:16:18Z</time>
      </trkpt>
      <trkpt lat="39.91800993611281" lon="116.2169505320116">
        <ele>56.426513671875</ele>
        <time>2026-09-01T11:16:27Z</time>
      </trkpt>
      <trkpt lat="39.918036000679976" lon="116.21701963758247">
        <ele>56.72186279296875</ele>
        <time>2026-09-01T11:16:30Z</time>
      </trkpt>
      <trkpt lat="39.91808038105191" lon="116.21742526658554">
        <ele>58.5059814453125</ele>
        <time>2026-09-01T11:16:45Z</time>
      </trkpt>
      <trkpt lat="39.91812176356302" lon="116.2178389011033">
        <ele>58.0628662109375</ele>
        <time>2026-09-01T11:17:00Z</time>
      </trkpt>
      <trkpt lat="39.918139135087586" lon="116.21824552046075">
        <ele>59.5223388671875</ele>
        <time>2026-09-01T11:17:15Z</time>
      </trkpt>
      <trkpt lat="39.91814449448516" lon="116.21864412200128">
        <ele>54.35205078125</ele>
        <time>2026-09-01T11:17:33Z</time>
      </trkpt>
      <trkpt lat="39.918171876846756" lon="116.21907576280393">
        <ele>49.81573486328125</ele>
        <time>2026-09-01T11:17:51Z</time>
      </trkpt>
      <trkpt lat="39.918186214448134" lon="116.21946233094451">
        <ele>50.751220703125</ele>
        <time>2026-09-01T11:18:06Z</time>
      </trkpt>
      <trkpt lat="39.91821552328764" lon="116.21982185137189">
        <ele>52.40234375</ele>
        <time>2026-09-01T11:18:18Z</time>
      </trkpt>
      <trkpt lat="39.91823984236821" lon="116.22019839103204">
        <ele>50.7823486328125</ele>
        <time>2026-09-01T11:18:33Z</time>
      </trkpt>
      <trkpt lat="39.91824715904627" lon="116.22057692927237">
        <ele>51.4447021484375</ele>
        <time>2026-09-01T11:18:48Z</time>
      </trkpt>
      <trkpt lat="39.91832244591519" lon="116.22092841474812">
        <ele>51.6246337890625</ele>
        <time>2026-09-01T11:19:06Z</time>
      </trkpt>
      <trkpt lat="39.91842061251892" lon="116.22113769452264">
        <ele>51.3828125</ele>
        <time>2026-09-01T11:19:18Z</time>
      </trkpt>
      <trkpt lat="39.918545736977656" lon="116.2212979011384">
        <ele>50.20751953125</ele>
        <time>2026-09-01T11:19:30Z</time>
      </trkpt>
      <trkpt lat="39.918805862971" lon="116.22146810355201">
        <ele>48.93072509765625</ele>
        <time>2026-09-01T11:19:48Z</time>
      </trkpt>
      <trkpt lat="39.9191038962373" lon="116.22152514487193">
        <ele>48.70721435546875</ele>
        <time>2026-09-01T11:20:03Z</time>
      </trkpt>
      <trkpt lat="39.91939388579725" lon="116.22152711150774">
        <ele>48.4591064453125</ele>
        <time>2026-09-01T11:20:18Z</time>
      </trkpt>
      <trkpt lat="39.919686864843484" lon="116.22151605989723">
        <ele>50.345703125</ele>
        <time>2026-09-01T11:20:33Z</time>
      </trkpt>
      <trkpt lat="39.91979085573032" lon="116.22151003869463">
        <ele>50.86846923828125</ele>
        <time>2026-09-01T11:20:39Z</time>
      </trkpt>
      <trkpt lat="39.919821816788875" lon="116.2214629701422">
        <ele>51.398193359375</ele>
        <time>2026-09-01T11:20:48Z</time>
      </trkpt>
      <trkpt lat="39.920133833514726" lon="116.22149998222389">
        <ele>49.7713623046875</ele>
        <time>2026-09-01T11:21:12Z</time>
      </trkpt>
      <trkpt lat="39.920368836594854" lon="116.22151597496543">
        <ele>46.6112060546875</ele>
        <time>2026-09-01T11:21:24Z</time>
      </trkpt>
      <trkpt lat="39.920431854781704" lon="116.22154200285658">
        <ele>46.44140625</ele>
        <time>2026-09-01T11:21:27Z</time>
      </trkpt>
      <trkpt lat="39.92075084398817" lon="116.2215449672511">
        <ele>45.59613037109375</ele>
        <time>2026-09-01T11:21:42Z</time>
      </trkpt>
      <trkpt lat="39.92108083115399" lon="116.22154592752742">
        <ele>44.83941650390625</ele>
        <time>2026-09-01T11:21:57Z</time>
      </trkpt>
      <trkpt lat="39.92134880010169" lon="116.22152085979317">
        <ele>46.90350341796875</ele>
        <time>2026-09-01T11:22:09Z</time>
      </trkpt>
      <trkpt lat="39.921584687684174" lon="116.2213926540426">
        <ele>43.8370361328125</ele>
        <time>2026-09-01T11:22:21Z</time>
      </trkpt>
      <trkpt lat="39.92173952297616" lon="116.22119636324041">
        <ele>44.15850830078125</ele>
        <time>2026-09-01T11:22:30Z</time>
      </trkpt>
      <trkpt lat="39.92189927644983" lon="116.2209019327872">
        <ele>42.46868896484375</ele>
        <time>2026-09-01T11:22:42Z</time>
      </trkpt>
      <trkpt lat="39.92196315769983" lon="116.22076072653813">
        <ele>43.41259765625</ele>
        <time>2026-09-01T11:22:48Z</time>
      </trkpt>
      <trkpt lat="39.92200482457664" lon="116.22036215677134">
        <ele>42.62359619140625</ele>
        <time>2026-09-01T11:23:03Z</time>
      </trkpt>
      <trkpt lat="39.92202047436941" lon="116.21994856140479">
        <ele>41.100830078125</ele>
        <time>2026-09-01T11:23:21Z</time>
      </trkpt>
      <trkpt lat="39.92202917327227" lon="116.21959805141915">
        <ele>41.44189453125</ele>
        <time>2026-09-01T11:23:33Z</time>
      </trkpt>
      <trkpt lat="39.92200788157108" lon="116.21926156036139">
        <ele>40.9864501953125</ele>
        <time>2026-09-01T11:23:45Z</time>
      </trkpt>
      <trkpt lat="39.92203951279865" lon="116.21884493817662">
        <ele>38.3333740234375</ele>
        <time>2026-09-01T11:24:00Z</time>
      </trkpt>
      <trkpt lat="39.922050444591264" lon="116.21876882303387">
        <ele>36.9896240234375</ele>
        <time>2026-09-01T11:24:03Z</time>
      </trkpt>
      <trkpt lat="39.92197420275622" lon="116.21849542170747">
        <ele>42.15167236328125</ele>
        <time>2026-09-01T11:24:12Z</time>
      </trkpt>
      <trkpt lat="39.92196987885331" lon="116.2181378800322">
        <ele>39.32586669921875</ele>
        <time>2026-09-01T11:24:24Z</time>
      </trkpt>
      <trkpt lat="39.92193066391715" lon="116.21790152339203">
        <ele>41.9658203125</ele>
        <time>2026-09-01T11:24:33Z</time>
      </trkpt>
      <trkpt lat="39.9219052694265" lon="116.21747486776921">
        <ele>43.66058349609375</ele>
        <time>2026-09-01T11:24:48Z</time>
      </trkpt>
      <trkpt lat="39.92189092069882" lon="116.21710328934846">
        <ele>37.364990234375</ele>
        <time>2026-09-01T11:25:03Z</time>
      </trkpt>
      <trkpt lat="39.921867734338775" lon="116.21690598170743">
        <ele>36.07061767578125</ele>
        <time>2026-09-01T11:25:12Z</time>
      </trkpt>
      <trkpt lat="39.921832599983006" lon="116.21676376120477">
        <ele>37.2598876953125</ele>
        <time>2026-09-01T11:25:18Z</time>
      </trkpt>
      <trkpt lat="39.92175420937307" lon="116.21635511996814">
        <ele>37.13134765625</ele>
        <time>2026-09-01T11:25:33Z</time>
      </trkpt>
      <trkpt lat="39.92165080258524" lon="116.21593445518766">
        <ele>39.48193359375</ele>
        <time>2026-09-01T11:25:48Z</time>
      </trkpt>
      <trkpt lat="39.92155946146366" lon="116.2155858993273">
        <ele>43.47528076171875</ele>
        <time>2026-09-01T11:26:00Z</time>
      </trkpt>
      <trkpt lat="39.92143912974804" lon="116.21524936172119">
        <ele>48.79180908203125</ele>
        <time>2026-09-01T11:26:15Z</time>
      </trkpt>
      <trkpt lat="39.92134375265245" lon="116.21487274951077">
        <ele>52.088134765625</ele>
        <time>2026-09-01T11:26:33Z</time>
      </trkpt>
      <trkpt lat="39.921247357700494" lon="116.21448310953528">
        <ele>50.95025634765625</ele>
        <time>2026-09-01T11:26:51Z</time>
      </trkpt>
      <trkpt lat="39.92123619994401" lon="116.2143298527336">
        <ele>51.271728515625</ele>
        <time>2026-09-01T11:26:57Z</time>
      </trkpt>
      <trkpt lat="39.9211377543474" lon="116.21389813238387">
        <ele>52.3350830078125</ele>
        <time>2026-09-01T11:27:18Z</time>
      </trkpt>
      <trkpt lat="39.92111336362651" lon="116.21352649855255">
        <ele>50.71807861328125</ele>
        <time>2026-09-01T11:27:36Z</time>
      </trkpt>
      <trkpt lat="39.92111598788233" lon="116.21317388866083">
        <ele>51.24261474609375</ele>
        <time>2026-09-01T11:27:54Z</time>
      </trkpt>
      <trkpt lat="39.92111858227997" lon="116.2127972315313">
        <ele>50.3353271484375</ele>
        <time>2026-09-01T11:28:12Z</time>
      </trkpt>
      <trkpt lat="39.92109913155847" lon="116.21238250402095">
        <ele>48.6651611328125</ele>
        <time>2026-09-01T11:28:30Z</time>
      </trkpt>
      <trkpt lat="39.921076671261595" lon="116.21196376269538">
        <ele>48.1092529296875</ele>
        <time>2026-09-01T11:28:45Z</time>
      </trkpt>
      <trkpt lat="39.92107921021465" lon="116.21155002014925">
        <ele>48.08355712890625</ele>
        <time>2026-09-01T11:29:00Z</time>
      </trkpt>
      <trkpt lat="39.92107674647231" lon="116.2111382749526">
        <ele>49.2337646484375</ele>
        <time>2026-09-01T11:29:15Z</time>
      </trkpt>
      <trkpt lat="39.9210843528694" lon="116.21079264295562">
        <ele>49.0465087890625</ele>
        <time>2026-09-01T11:29:27Z</time>
      </trkpt>
      <trkpt lat="39.921271948270906" lon="116.2104469837231">
        <ele>49.59344482421875</ele>
        <time>2026-09-01T11:29:42Z</time>
      </trkpt>
      <trkpt lat="39.921531655903784" lon="116.21020350061853">
        <ele>49.23516845703125</ele>
        <time>2026-09-01T11:29:57Z</time>
      </trkpt>
      <trkpt lat="39.921777364707594" lon="116.20996202064848">
        <ele>48.21826171875</ele>
        <time>2026-09-01T11:30:12Z</time>
      </trkpt>
      <trkpt lat="39.9219670010817" lon="116.20965842882157">
        <ele>49.353271484375</ele>
        <time>2026-09-01T11:30:27Z</time>
      </trkpt>
      <trkpt lat="39.92201682779862" lon="116.20951314942978">
        <ele>49.37847900390625</ele>
        <time>2026-09-01T11:30:33Z</time>
      </trkpt>
      <trkpt lat="39.92207934249654" lon="116.20910637235029">
        <ele>45.31036376953125</ele>
        <time>2026-09-01T11:30:51Z</time>
      </trkpt>
      <trkpt lat="39.92207605020384" lon="116.20886190733674">
        <ele>44.74468994140625</ele>
        <time>2026-09-01T11:31:00Z</time>
      </trkpt>
      <trkpt lat="39.92199264933136" lon="116.20852627497197">
        <ele>47.54052734375</ele>
        <time>2026-09-01T11:31:12Z</time>
      </trkpt>
      <trkpt lat="39.92185732058722" lon="116.20825076096904">
        <ele>47.7244873046875</ele>
        <time>2026-09-01T11:31:24Z</time>
      </trkpt>
      <trkpt lat="39.921656961652566" lon="116.20795020350221">
        <ele>48.69573974609375</ele>
        <time>2026-09-01T11:31:39Z</time>
      </trkpt>
      <trkpt lat="39.921401714844286" lon="116.20774082753805">
        <ele>47.86749267578125</ele>
        <time>2026-09-01T11:31:54Z</time>
      </trkpt>
      <trkpt lat="39.921125601433225" lon="116.20763966432983">
        <ele>49.46478271484375</ele>
        <time>2026-09-01T11:32:09Z</time>
      </trkpt>
      <trkpt lat="39.92084163294844" lon="116.2076557311299">
        <ele>50.47540283203125</ele>
        <time>2026-09-01T11:32:24Z</time>
      </trkpt>
      <trkpt lat="39.920558700260955" lon="116.20770085455518">
        <ele>50.021240234375</ele>
        <time>2026-09-01T11:32:39Z</time>
      </trkpt>
      <trkpt lat="39.92027979943534" lon="116.20777202821921">
        <ele>50.63787841796875</ele>
        <time>2026-09-01T11:32:54Z</time>
      </trkpt>
      <trkpt lat="39.920006868668246" lon="116.20781915409864">
        <ele>50.7001953125</ele>
        <time>2026-09-01T11:33:09Z</time>
      </trkpt>
      <trkpt lat="39.919689853457626" lon="116.20779614876568">
        <ele>50.61834716796875</ele>
        <time>2026-09-01T11:33:24Z</time>
      </trkpt>
      <trkpt lat="39.91937381723307" lon="116.20775611006528">
        <ele>53.27423095703125</ele>
        <time>2026-09-01T11:33:39Z</time>
      </trkpt>
      <trkpt lat="39.91908975741386" lon="116.20769803209289">
        <ele>52.8157958984375</ele>
        <time>2026-09-01T11:33:54Z</time>
      </trkpt>
      <trkpt lat="39.918797705263195" lon="116.20764596674462">
        <ele>51.32196044921875</ele>
        <time>2026-09-01T11:34:09Z</time>
      </trkpt>
      <trkpt lat="39.9184936634515" lon="116.2076019184764">
        <ele>51.8226318359375</ele>
        <time>2026-09-01T11:34:24Z</time>
      </trkpt>
      <trkpt lat="39.91819457303046" lon="116.20751879295992">
        <ele>51.08251953125</ele>
        <time>2026-09-01T11:34:39Z</time>
      </trkpt>
      <trkpt lat="39.91806650139502" lon="116.20745668712587">
        <ele>50.5968017578125</ele>
        <time>2026-09-01T11:34:45Z</time>
      </trkpt>
      <trkpt lat="39.91783716199376" lon="116.20717616377051">
        <ele>51.05487060546875</ele>
        <time>2026-09-01T11:35:00Z</time>
      </trkpt>
      <trkpt lat="39.91768098190745" lon="116.20702688832507">
        <ele>51.2535400390625</ele>
        <time>2026-09-01T11:35:09Z</time>
      </trkpt>
      <trkpt lat="39.91738987349734" lon="116.20693073419848">
        <ele>50.86102294921875</ele>
        <time>2026-09-01T11:35:24Z</time>
      </trkpt>
      <trkpt lat="39.917083790655866" lon="116.20685462137881">
        <ele>51.8857421875</ele>
        <time>2026-09-01T11:35:39Z</time>
      </trkpt>
      <trkpt lat="39.91676975969075" lon="116.20681959096027">
        <ele>52.1756591796875</ele>
        <time>2026-09-01T11:35:54Z</time>
      </trkpt>
      <trkpt lat="39.91664677491611" lon="116.20682762223615">
        <ele>51.5546875</ele>
        <time>2026-09-01T11:36:00Z</time>
      </trkpt>
      <trkpt lat="39.91648792125341" lon="116.20693886270472">
        <ele>50.58416748046875</ele>
        <time>2026-09-01T11:36:09Z</time>
      </trkpt>
      <trkpt lat="39.91641108637705" lon="116.20706812812692">
        <ele>51.71405029296875</ele>
        <time>2026-09-01T11:36:15Z</time>
      </trkpt>
      <trkpt lat="39.91639218483846" lon="116.20714628486928">
        <ele>51.90216064453125</ele>
        <time>2026-09-01T11:36:18Z</time>
      </trkpt>
      <trkpt lat="39.91642448293194" lon="116.20738675441592">
        <ele>52.42755126953125</ele>
        <time>2026-09-01T11:36:27Z</time>
      </trkpt>
      <trkpt lat="39.9165488089437" lon="116.20765426318239">
        <ele>50.3021240234375</ele>
        <time>2026-09-01T11:36:39Z</time>
      </trkpt>
      <trkpt lat="39.91654490424982" lon="116.20773141436459">
        <ele>51.5155029296875</ele>
        <time>2026-09-01T11:36:42Z</time>
      </trkpt>
      <trkpt lat="39.91649084351482" lon="116.20768032132801">
        <ele>50.74029541015625</ele>
        <time>2026-09-01T11:36:48Z</time>
      </trkpt>
      <trkpt lat="39.916316473765804" lon="116.20737574624262">
        <ele>53.25946044921875</ele>
        <time>2026-09-01T11:37:12Z</time>
      </trkpt>
      <trkpt lat="39.916116049836454" lon="116.20702908768675">
        <ele>55.63250732421875</ele>
        <time>2026-09-01T11:37:42Z</time>
      </trkpt>
      <trkpt lat="39.916044874414645" lon="116.20688681472153">
        <ele>57.04364013671875</ele>
        <time>2026-09-01T11:37:54Z</time>
      </trkpt>
      <trkpt lat="39.91599280104504" lon="116.20682670190298">
        <ele>56.9661865234375</ele>
        <time>2026-09-01T11:38:00Z</time>
      </trkpt>
      <trkpt lat="39.915860771289154" lon="116.20679866265918">
        <ele>55.22662353515625</ele>
        <time>2026-09-01T11:38:12Z</time>
      </trkpt>
      <trkpt lat="39.915765325933734" lon="116.20644296546372">
        <ele>58.77203369140625</ele>
        <time>2026-09-01T11:38:30Z</time>
      </trkpt>
      <trkpt lat="39.91569793477166" lon="116.20613335282106">
        <ele>58.9114990234375</ele>
        <time>2026-09-01T11:38:48Z</time>
      </trkpt>
      <trkpt lat="39.9157116340759" lon="116.2058988784352">
        <ele>58.89105224609375</ele>
        <time>2026-09-01T11:39:09Z</time>
      </trkpt>
      <trkpt lat="39.915660203948626" lon="116.20556320464499">
        <ele>61.69854736328125</ele>
        <time>2026-09-01T11:39:33Z</time>
      </trkpt>
      <trkpt lat="39.915663705812065" lon="116.20517942148197">
        <ele>61.48553466796875</ele>
        <time>2026-09-01T11:39:51Z</time>
      </trkpt>
      <trkpt lat="39.915657289575556" lon="116.20486076832981">
        <ele>61.741455078125</ele>
        <time>2026-09-01T11:40:06Z</time>
      </trkpt>
      <trkpt lat="39.915676753025046" lon="116.20445392565186">
        <ele>62.7264404296875</ele>
        <time>2026-09-01T11:40:24Z</time>
      </trkpt>
      <trkpt lat="39.91568621514834" lon="116.20404908247743">
        <ele>61.4990234375</ele>
        <time>2026-09-01T11:40:42Z</time>
      </trkpt>
      <trkpt lat="39.915694660856396" lon="116.20363521465312">
        <ele>59.9146728515625</ele>
        <time>2026-09-01T11:41:00Z</time>
      </trkpt>
      <trkpt lat="39.91572013935525" lon="116.2032493980271">
        <ele>56.400634765625</ele>
        <time>2026-09-01T11:41:18Z</time>
      </trkpt>
      <trkpt lat="39.91573862793912" lon="116.2028735983986">
        <ele>56.49932861328125</ele>
        <time>2026-09-01T11:41:33Z</time>
      </trkpt>
      <trkpt lat="39.91574920948312" lon="116.20256794497584">
        <ele>55.01519775390625</ele>
        <time>2026-09-01T11:41:45Z</time>
      </trkpt>
      <trkpt lat="39.91571765757858" lon="116.20216608667072">
        <ele>55.66943359375</ele>
        <time>2026-09-01T11:42:00Z</time>
      </trkpt>
      <trkpt lat="39.91570209810553" lon="116.20176221650554">
        <ele>57.9659423828125</ele>
        <time>2026-09-01T11:42:15Z</time>
      </trkpt>
      <trkpt lat="39.91570354645252" lon="116.2013673583474">
        <ele>58.1385498046875</ele>
        <time>2026-09-01T11:42:30Z</time>
      </trkpt>
      <trkpt lat="39.915695035168234" lon="116.20100356430368">
        <ele>57.124267578125</ele>
        <time>2026-09-01T11:42:45Z</time>
      </trkpt>
      <trkpt lat="39.915690415071516" lon="116.20056560183865">
        <ele>63.14056396484375</ele>
        <time>2026-09-01T11:43:18Z</time>
      </trkpt>
      <trkpt lat="39.91568929249218" lon="116.2004794117085">
        <ele>63.4249267578125</ele>
        <time>2026-09-01T11:43:24Z</time>
      </trkpt>
      <trkpt lat="39.9156542083033" lon="116.2004192832039">
        <ele>62.616455078125</ele>
        <time>2026-09-01T11:43:30Z</time>
      </trkpt>
      <trkpt lat="39.91559919489792" lon="116.20040826570678">
        <ele>66.12066650390625</ele>
        <time>2026-09-01T11:43:42Z</time>
      </trkpt>
      <trkpt lat="39.915551164047585" lon="116.20038522073126">
        <ele>68.35223388671875</ele>
        <time>2026-09-01T11:44:06Z</time>
      </trkpt>
      <trkpt lat="39.915496170643905" lon="116.2003882342588">
        <ele>67.099609375</ele>
        <time>2026-09-01T11:44:12Z</time>
      </trkpt>
      <trkpt lat="39.915464099070334" lon="116.20033712516593">
        <ele>65.4171142578125</ele>
        <time>2026-09-01T11:44:18Z</time>
      </trkpt>
      <trkpt lat="39.9154719097121" lon="116.2002048310533">
        <ele>67.0894775390625</ele>
        <time>2026-09-01T11:44:24Z</time>
      </trkpt>
      <trkpt lat="39.91549568764064" lon="116.2000504853641">
        <ele>64.2193603515625</ele>
        <time>2026-09-01T11:44:33Z</time>
      </trkpt>
      <trkpt lat="39.91548737694101" lon="116.1998340044033">
        <ele>59.84820556640625</ele>
        <time>2026-09-01T11:44:45Z</time>
      </trkpt>
      <trkpt lat="39.91516535295107" lon="116.19980798655577">
        <ele>60.4425048828125</ele>
        <time>2026-09-01T11:45:06Z</time>
      </trkpt>
      <trkpt lat="39.91483638265982" lon="116.19981905228977">
        <ele>65.76214599609375</ele>
        <time>2026-09-01T11:45:21Z</time>
      </trkpt>
      <trkpt lat="39.91456634350635" lon="116.19978400779969">
        <ele>66.4825439453125</ele>
        <time>2026-09-01T11:45:36Z</time>
      </trkpt>
      <trkpt lat="39.91426332161429" lon="116.1997599920079">
        <ele>65.75958251953125</ele>
        <time>2026-09-01T11:45:57Z</time>
      </trkpt>
      <trkpt lat="39.91396929934157" lon="116.19973597507183">
        <ele>66.6929931640625</ele>
        <time>2026-09-01T11:46:21Z</time>
      </trkpt>
      <trkpt lat="39.91367728276481" lon="116.19971596682159">
        <ele>64.6658935546875</ele>
        <time>2026-09-01T11:46:45Z</time>
      </trkpt>
      <trkpt lat="39.91337026682489" lon="116.19969596043404">
        <ele>62.8046875</ele>
        <time>2026-09-01T11:47:09Z</time>
      </trkpt>
      <trkpt lat="39.91305423101772" lon="116.1996619237972">
        <ele>62.532958984375</ele>
        <time>2026-09-01T11:47:30Z</time>
      </trkpt>
      <trkpt lat="39.91277522547032" lon="116.19964993179985">
        <ele>62.94879150390625</ele>
        <time>2026-09-01T11:47:48Z</time>
      </trkpt>
      <trkpt lat="39.912680238177934" lon="116.1996559571233">
        <ele>62.54364013671875</ele>
        <time>2026-09-01T11:47:54Z</time>
      </trkpt>
      <trkpt lat="39.91260019525591" lon="116.19962389541386">
        <ele>61.2921142578125</ele>
        <time>2026-09-01T11:48:00Z</time>
      </trkpt>
      <trkpt lat="39.9126336332244" lon="116.19923702351136">
        <ele>57.23297119140625</ele>
        <time>2026-09-01T11:48:18Z</time>
      </trkpt>
      <trkpt lat="39.91262309588927" lon="116.19886819311456">
        <ele>59.2158203125</ele>
        <time>2026-09-01T11:48:33Z</time>
      </trkpt>
      <trkpt lat="39.91263451607997" lon="116.19847329643027">
        <ele>57.48004150390625</ele>
        <time>2026-09-01T11:48:51Z</time>
      </trkpt>
      <trkpt lat="39.91262098414356" lon="116.198112475842">
        <ele>59.7861328125</ele>
        <time>2026-09-01T11:49:06Z</time>
      </trkpt>
      <trkpt lat="39.91262344255714" lon="116.19774763999925">
        <ele>63.506591796875</ele>
        <time>2026-09-01T11:49:21Z</time>
      </trkpt>
      <trkpt lat="39.9126128879779" lon="116.19737578549534">
        <ele>62.06341552734375</ele>
        <time>2026-09-01T11:49:36Z</time>
      </trkpt>
      <trkpt lat="39.91259260337834" lon="116.1971853481037">
        <ele>63.90423583984375</ele>
        <time>2026-09-01T11:49:45Z</time>
      </trkpt>
      <trkpt lat="39.912597928357684" lon="116.19673730810949">
        <ele>64.7401123046875</ele>
        <time>2026-09-01T11:50:09Z</time>
      </trkpt>
      <trkpt lat="39.91259135908575" lon="116.19636143236096">
        <ele>60.5164794921875</ele>
        <time>2026-09-01T11:50:27Z</time>
      </trkpt>
      <trkpt lat="39.91261179168312" lon="116.19598955845086">
        <ele>59.201416015625</ele>
        <time>2026-09-01T11:50:42Z</time>
      </trkpt>
      <trkpt lat="39.91261024528486" lon="116.19563271869615">
        <ele>58.24322509765625</ele>
        <time>2026-09-01T11:50:57Z</time>
      </trkpt>
      <trkpt lat="39.91258362294418" lon="116.19522776433837">
        <ele>60.72113037109375</ele>
        <time>2026-09-01T11:51:15Z</time>
      </trkpt>
      <trkpt lat="39.91262529726589" lon="116.19501826182463">
        <ele>59.93121337890625</ele>
        <time>2026-09-01T11:51:24Z</time>
      </trkpt>
      <trkpt lat="39.912609720658025" lon="116.19464637792485">
        <ele>61.43865966796875</ele>
        <time>2026-09-01T11:51:42Z</time>
      </trkpt>
      <trkpt lat="39.912593114543526" lon="116.19425744937324">
        <ele>63.054443359375</ele>
        <time>2026-09-01T11:52:00Z</time>
      </trkpt>
      <trkpt lat="39.912606532390285" lon="116.19388655628919">
        <ele>61.5750732421875</ele>
        <time>2026-09-01T11:52:21Z</time>
      </trkpt>
      <trkpt lat="39.912612947718706" lon="116.19351566027241">
        <ele>61.31866455078125</ele>
        <time>2026-09-01T11:52:39Z</time>
      </trkpt>
      <trkpt lat="39.912625317055685" lon="116.19311769399503">
        <ele>59.33111572265625</ele>
        <time>2026-09-01T11:52:57Z</time>
      </trkpt>
      <trkpt lat="39.912632109735675" lon="116.19298737630447">
        <ele>62.23443603515625</ele>
        <time>2026-09-01T11:53:03Z</time>
      </trkpt>
      <trkpt lat="39.91266498236562" lon="116.1929081794217">
        <ele>63.06109619140625</ele>
        <time>2026-09-01T11:53:09Z</time>
      </trkpt>
      <trkpt lat="39.91265287594001" lon="116.1928410173223">
        <ele>63.1702880859375</ele>
        <time>2026-09-01T11:53:15Z</time>
      </trkpt>
      <trkpt lat="39.91262277977582" lon="116.19277987202366">
        <ele>64.220458984375</ele>
        <time>2026-09-01T11:53:21Z</time>
      </trkpt>
      <trkpt lat="39.91259750570172" lon="116.19260745432605">
        <ele>64.07080078125</ele>
        <time>2026-09-01T11:53:51Z</time>
      </trkpt>
      <trkpt lat="39.91259186542467" lon="116.19220747568642">
        <ele>65.7969970703125</ele>
        <time>2026-09-01T11:54:15Z</time>
      </trkpt>
      <trkpt lat="39.91260929542721" lon="116.19185360355605">
        <ele>60.4405517578125</ele>
        <time>2026-09-01T11:54:33Z</time>
      </trkpt>
      <trkpt lat="39.91261864383452" lon="116.1914506077209">
        <ele>60.3876953125</ele>
        <time>2026-09-01T11:54:51Z</time>
      </trkpt>
      <trkpt lat="39.91262201878822" lon="116.19106565328303">
        <ele>60.68206787109375</ele>
        <time>2026-09-01T11:55:09Z</time>
      </trkpt>
      <trkpt lat="39.912628354812576" lon="116.19065863973991">
        <ele>58.75146484375</ele>
        <time>2026-09-01T11:55:27Z</time>
      </trkpt>
      <trkpt lat="39.91262368661547" lon="116.19025062093323">
        <ele>58.4693603515625</ele>
        <time>2026-09-01T11:55:42Z</time>
      </trkpt>
      <trkpt lat="39.912617003918406" lon="116.18983558064612">
        <ele>60.718994140625</ele>
        <time>2026-09-01T11:56:00Z</time>
      </trkpt>
      <trkpt lat="39.91260235502365" lon="116.18944259283495">
        <ele>62.92572021484375</ele>
        <time>2026-09-01T11:56:21Z</time>
      </trkpt>
      <trkpt lat="39.91259666468733" lon="116.18902654181527">
        <ele>63.34405517578125</ele>
        <time>2026-09-01T11:56:45Z</time>
      </trkpt>
      <trkpt lat="39.9125869799051" lon="116.1886154999695">
        <ele>64.9686279296875</ele>
        <time>2026-09-01T11:57:09Z</time>
      </trkpt>
      <trkpt lat="39.91256778801285" lon="116.1885002091057">
        <ele>63.4097900390625</ele>
        <time>2026-09-01T11:57:15Z</time>
      </trkpt>
      <trkpt lat="39.912608364912664" lon="116.18824856285742">
        <ele>62.3048095703125</ele>
        <time>2026-09-01T11:57:27Z</time>
      </trkpt>
      <trkpt lat="39.9126010068069" lon="116.18803501855496">
        <ele>63.554931640625</ele>
        <time>2026-09-01T11:57:39Z</time>
      </trkpt>
      <trkpt lat="39.912623675366085" lon="116.18783851308886">
        <ele>65.1065673828125</ele>
        <time>2026-09-01T11:57:51Z</time>
      </trkpt>
      <trkpt lat="39.91274410394398" lon="116.18750263690022">
        <ele>65.4022216796875</ele>
        <time>2026-09-01T11:58:15Z</time>
      </trkpt>
      <trkpt lat="39.91293754458855" lon="116.18717677486107">
        <ele>65.2073974609375</ele>
        <time>2026-09-01T11:58:39Z</time>
      </trkpt>
      <trkpt lat="39.913122973656066" lon="116.1868448959691">
        <ele>65.67724609375</ele>
        <time>2026-09-01T11:59:03Z</time>
      </trkpt>
      <trkpt lat="39.91327744843791" lon="116.1865400886577">
        <ele>62.3516845703125</ele>
        <time>2026-09-01T11:59:21Z</time>
      </trkpt>
      <trkpt lat="39.913330211983954" lon="116.18640272630205">
        <ele>62.50946044921875</ele>
        <time>2026-09-01T11:59:30Z</time>
      </trkpt>
      <trkpt lat="39.913296085078464" lon="116.1863275356714">
        <ele>61.90936279296875</ele>
        <time>2026-09-01T11:59:36Z</time>
      </trkpt>
      <trkpt lat="39.91324899631742" lon="116.18627440377057">
        <ele>63.2154541015625</ele>
        <time>2026-09-01T11:59:42Z</time>
      </trkpt>
      <trkpt lat="39.91322289634422" lon="116.18621525356427">
        <ele>64.1959228515625</ele>
        <time>2026-09-01T11:59:48Z</time>
      </trkpt>
      <trkpt lat="39.91322289634422" lon="116.18621525356427">
        <ele>64.1959228515625</ele>
        <time>2026-09-01T11:59:54Z</time>
      </trkpt>
    </trkseg>
  </trk>
</gpx>