<?xml version="1.0" encoding="UTF-8"?>
<gpx xmlns="http://www.topografix.com/GPX/1/1" xmlns:gpxtpx="http://www.garmin.com/xmlschemas/TrackPointExtension/v1" xmlns:xsi="http://www.w3.org/2001/XMLSchema-instance" xsi:schemaLocation="http://www.topografix.com/GPX/1/1 http://www.topografix.com/GPX/1/1/gpx.xsd" version="1.1" creator="gpx.py -- https://github.com/tkrajina/gpxpy">
  <trk>
    <name>gpx from keep</name>
    <type>Run</type>
    <trkseg>
      <trkpt lat="39.902784239368025" lon="116.20516599897965">
        <ele>72.04180908203125</ele>
        <time>2026-08-12T09:49:01Z</time>
      </trkpt>
      <trkpt lat="39.90282000229598" lon="116.20498562477236">
        <ele>64.9349365234375</ele>
        <time>2026-08-12T09:49:10Z</time>
      </trkpt>
      <trkpt lat="39.90273853753907" lon="116.20462890021206">
        <ele>65.9112548828125</ele>
        <time>2026-08-12T09:49:22Z</time>
      </trkpt>
      <trkpt lat="39.90270340426865" lon="116.20452669324179">
        <ele>66.4453125</ele>
        <time>2026-08-12T09:49:25Z</time>
      </trkpt>
      <trkpt lat="39.9026910332927" lon="116.20424611266814">
        <ele>65.3631591796875</ele>
        <time>2026-08-12T09:49:34Z</time>
      </trkpt>
      <trkpt lat="39.90273398215089" lon="116.20420903017234">
        <ele>67.1400146484375</ele>
        <time>2026-08-12T09:49:40Z</time>
      </trkpt>
      <trkpt lat="39.903027991846535" lon="116.20422602890716">
        <ele>68.160888671875</ele>
        <time>2026-08-12T09:49:55Z</time>
      </trkpt>
      <trkpt lat="39.903166993721705" lon="116.2042320240587">
        <ele>68.422119140625</ele>
        <time>2026-08-12T09:50:01Z</time>
      </trkpt>
      <trkpt lat="39.90323695869594" lon="116.20420796528346">
        <ele>67.8447265625</ele>
        <time>2026-08-12T09:50:04Z</time>
      </trkpt>
      <trkpt lat="39.903509649108415" lon="116.20398446530092">
        <ele>63.47161865234375</ele>
        <time>2026-08-12T09:50:19Z</time>
      </trkpt>
      <trkpt lat="39.90365140438485" lon="116.20380607441629">
        <ele>62.765380859375</ele>
        <time>2026-08-12T09:50:28Z</time>
      </trkpt>
      <trkpt lat="39.90365329683601" lon="116.20372590609058">
        <ele>63.20361328125</ele>
        <time>2026-08-12T09:50:31Z</time>
      </trkpt>
      <trkpt lat="39.903602072855136" lon="116.20355755876209">
        <ele>63.202880859375</ele>
        <time>2026-08-12T09:50:37Z</time>
      </trkpt>
      <trkpt lat="39.90361553336057" lon="116.20315871511592">
        <ele>60.8397216796875</ele>
        <time>2026-08-12T09:50:52Z</time>
      </trkpt>
      <trkpt lat="39.9036452992441" lon="116.20298734794191">
        <ele>60.27142333984375</ele>
        <time>2026-08-12T09:50:58Z</time>
      </trkpt>
      <trkpt lat="39.90370607805525" lon="116.2028269993494">
        <ele>60.8580322265625</ele>
        <time>2026-08-12T09:51:04Z</time>
      </trkpt>
      <trkpt lat="39.903677670535146" lon="116.20252836541094">
        <ele>60.74365234375</ele>
        <time>2026-08-12T09:51:16Z</time>
      </trkpt>
      <trkpt lat="39.9036535835042" lon="116.20246423110868">
        <ele>60.4764404296875</ele>
        <time>2026-08-12T09:51:19Z</time>
      </trkpt>
      <trkpt lat="39.90356563895284" lon="116.20236348723975">
        <ele>60.41766357421875</ele>
        <time>2026-08-12T09:51:25Z</time>
      </trkpt>
      <trkpt lat="39.90350240812438" lon="116.20233196634307">
        <ele>60.86224365234375</ele>
        <time>2026-08-12T09:51:28Z</time>
      </trkpt>
      <trkpt lat="39.90344830273624" lon="116.20225380520846">
        <ele>61.9212646484375</ele>
        <time>2026-08-12T09:51:31Z</time>
      </trkpt>
      <trkpt lat="39.90328215225262" lon="116.20213958020608">
        <ele>62.61138916015625</ele>
        <time>2026-08-12T09:51:40Z</time>
      </trkpt>
      <trkpt lat="39.90309904105288" lon="116.20205341739009">
        <ele>64.58721923828125</ele>
        <time>2026-08-12T09:51:49Z</time>
      </trkpt>
      <trkpt lat="39.90305097791672" lon="116.20200632180509">
        <ele>63.72650146484375</ele>
        <time>2026-08-12T09:51:52Z</time>
      </trkpt>
      <trkpt lat="39.90297473085938" lon="116.2018259415669">
        <ele>61.836669921875</ele>
        <time>2026-08-12T09:52:01Z</time>
      </trkpt>
      <trkpt lat="39.902952312670934" lon="116.20152529231088">
        <ele>61.70623779296875</ele>
        <time>2026-08-12T09:52:13Z</time>
      </trkpt>
      <trkpt lat="39.90298691787418" lon="116.20124467665161">
        <ele>65.4610595703125</ele>
        <time>2026-08-12T09:52:25Z</time>
      </trkpt>
      <trkpt lat="39.9030138462555" lon="116.20119456384175">
        <ele>65.5748291015625</ele>
        <time>2026-08-12T09:52:28Z</time>
      </trkpt>
      <trkpt lat="39.90311885150342" lon="116.2012015660483">
        <ele>67.031494140625</ele>
        <time>2026-08-12T09:52:34Z</time>
      </trkpt>
      <trkpt lat="39.9033730219074" lon="116.20133081645642">
        <ele>64.9097900390625</ele>
        <time>2026-08-12T09:52:49Z</time>
      </trkpt>
      <trkpt lat="39.903580129420924" lon="116.2014139718319">
        <ele>67.075927734375</ele>
        <time>2026-08-12T09:53:01Z</time>
      </trkpt>
      <trkpt lat="39.90378246652434" lon="116.20166148456794">
        <ele>67.738037109375</ele>
        <time>2026-08-12T09:53:16Z</time>
      </trkpt>
      <trkpt lat="39.90393360511473" lon="116.20176569159949">
        <ele>68.8038330078125</ele>
        <time>2026-08-12T09:53:25Z</time>
      </trkpt>
      <trkpt lat="39.904049664173165" lon="116.20181177690583">
        <ele>68.6661376953125</ele>
        <time>2026-08-12T09:53:31Z</time>
      </trkpt>
      <trkpt lat="39.904160774907275" lon="116.20189494292792">
        <ele>70.20367431640625</ele>
        <time>2026-08-12T09:53:37Z</time>
      </trkpt>
      <trkpt lat="39.904347866857776" lon="116.20196707542442">
        <ele>70.9647216796875</ele>
        <time>2026-08-12T09:53:46Z</time>
      </trkpt>
      <trkpt lat="39.90446986291305" lon="116.20196806234613">
        <ele>73.65777587890625</ele>
        <time>2026-08-12T09:53:52Z</time>
      </trkpt>
      <trkpt lat="39.90471299946975" lon="116.20207426112167">
        <ele>74.61444091796875</ele>
        <time>2026-08-12T09:54:04Z</time>
      </trkpt>
      <trkpt lat="39.90476694299596" lon="116.20203517011586">
        <ele>74.4056396484375</ele>
        <time>2026-08-12T09:54:07Z</time>
      </trkpt>
      <trkpt lat="39.904877569416804" lon="116.20176958233858">
        <ele>74.193603515625</ele>
        <time>2026-08-12T09:54:19Z</time>
      </trkpt>
      <trkpt lat="39.90490805166028" lon="116.2013997753456">
        <ele>73.2938232421875</ele>
        <time>2026-08-12T09:54:34Z</time>
      </trkpt>
      <trkpt lat="39.90493150817369" lon="116.20101392950453">
        <ele>72.2786865234375</ele>
        <time>2026-08-12T09:54:49Z</time>
      </trkpt>
      <trkpt lat="39.904998193626824" lon="116.20079343727743">
        <ele>71.54144287109375</ele>
        <time>2026-08-12T09:54:58Z</time>
      </trkpt>
      <trkpt lat="39.905130783777345" lon="116.2005087936607">
        <ele>71.57879638671875</ele>
        <time>2026-08-12T09:55:10Z</time>
      </trkpt>
      <trkpt lat="39.90511956289918" lon="116.20035345171054">
        <ele>70.82781982421875</ele>
        <time>2026-08-12T09:55:16Z</time>
      </trkpt>
      <trkpt lat="39.905032257238624" lon="116.2001369828245">
        <ele>70.74725341796875</ele>
        <time>2026-08-12T09:55:25Z</time>
      </trkpt>
      <trkpt lat="39.904759926817995" lon="116.19989848642787">
        <ele>69.2159423828125</ele>
        <time>2026-08-12T09:55:40Z</time>
      </trkpt>
      <trkpt lat="39.904655774137595" lon="116.19978925589875">
        <ele>68.4517822265625</ele>
        <time>2026-08-12T09:55:46Z</time>
      </trkpt>
      <trkpt lat="39.904620661536896" lon="116.19971008352957">
        <ele>68.4571533203125</ele>
        <time>2026-08-12T09:55:49Z</time>
      </trkpt>
      <trkpt lat="39.90455066459529" lon="116.19971009227977">
        <ele>67.55859375</ele>
        <time>2026-08-12T09:55:55Z</time>
      </trkpt>
      <trkpt lat="39.904441916209144" lon="116.199881488221">
        <ele>68.40667724609375</ele>
        <time>2026-08-12T09:56:04Z</time>
      </trkpt>
      <trkpt lat="39.904325996206545" lon="116.19993361879133">
        <ele>68.67755126953125</ele>
        <time>2026-08-12T09:56:10Z</time>
      </trkpt>
      <trkpt lat="39.90427494513205" lon="116.19989654258637">
        <ele>67.367431640625</ele>
        <time>2026-08-12T09:56:13Z</time>
      </trkpt>
      <trkpt lat="39.90412450812835" lon="116.19958887442995">
        <ele>63.33740234375</ele>
        <time>2026-08-12T09:56:28Z</time>
      </trkpt>
      <trkpt lat="39.904231760905596" lon="116.19976725969937">
        <ele>67.30181884765625</ele>
        <time>2026-08-12T09:56:49Z</time>
      </trkpt>
      <trkpt lat="39.904111552143036" lon="116.19961894331426">
        <ele>66.4808349609375</ele>
        <time>2026-08-12T09:56:58Z</time>
      </trkpt>
      <trkpt lat="39.904063419492495" lon="116.19952574071601">
        <ele>65.88629150390625</ele>
        <time>2026-08-12T09:57:01Z</time>
      </trkpt>
      <trkpt lat="39.90400436840721" lon="116.19948866502287">
        <ele>64.45074462890625</ele>
        <time>2026-08-12T09:57:04Z</time>
      </trkpt>
      <trkpt lat="39.90396929010142" lon="116.19943354583623">
        <ele>64.5458984375</ele>
        <time>2026-08-12T09:57:07Z</time>
      </trkpt>
      <trkpt lat="39.903848166055425" lon="116.19934436081023">
        <ele>65.08258056640625</ele>
        <time>2026-08-12T09:57:13Z</time>
      </trkpt>
      <trkpt lat="39.903786144044375" lon="116.1993273303006">
        <ele>64.11151123046875</ele>
        <time>2026-08-12T09:57:16Z</time>
      </trkpt>
      <trkpt lat="39.903573316173315" lon="116.19943960882321">
        <ele>67.21014404296875</ele>
        <time>2026-08-12T09:57:28Z</time>
      </trkpt>
      <trkpt lat="39.90354839419925" lon="116.1994927310078">
        <ele>65.92559814453125</ele>
        <time>2026-08-12T09:57:34Z</time>
      </trkpt>
      <trkpt lat="39.90353951638136" lon="116.19957692064483">
        <ele>65.5360107421875</ele>
        <time>2026-08-12T09:57:37Z</time>
      </trkpt>
      <trkpt lat="39.903472578703635" lon="116.1996180209487">
        <ele>64.64141845703125</ele>
        <time>2026-08-12T09:57:43Z</time>
      </trkpt>
      <trkpt lat="39.90339970922562" lon="116.1997062272">
        <ele>64.3681640625</ele>
        <time>2026-08-12T09:57:49Z</time>
      </trkpt>
      <trkpt lat="39.90315096126278" lon="116.19987363172272">
        <ele>66.274658203125</ele>
        <time>2026-08-12T09:58:01Z</time>
      </trkpt>
      <trkpt lat="39.9029012184298" lon="116.20004504436889">
        <ele>65.190673828125</ele>
        <time>2026-08-12T09:58:13Z</time>
      </trkpt>
      <trkpt lat="39.90279637816235" lon="116.20015329788228">
        <ele>63.96343994140625</ele>
        <time>2026-08-12T09:58:19Z</time>
      </trkpt>
      <trkpt lat="39.90263354303098" lon="116.20026356270165">
        <ele>63.30316162109375</ele>
        <time>2026-08-12T09:58:28Z</time>
      </trkpt>
      <trkpt lat="39.90262339725756" lon="116.20016133729504">
        <ele>62.2088623046875</ele>
        <time>2026-08-12T09:58:34Z</time>
      </trkpt>
      <trkpt lat="39.90264924533311" lon="116.2000561003661">
        <ele>62.232666015625</ele>
        <time>2026-08-12T09:58:40Z</time>
      </trkpt>
      <trkpt lat="39.902648028071816" lon="116.19990476380508">
        <ele>61.01214599609375</ele>
        <time>2026-08-12T09:58:52Z</time>
      </trkpt>
      <trkpt lat="39.902669424129336" lon="116.19948682741055">
        <ele>60.93792724609375</ele>
        <time>2026-08-12T09:59:13Z</time>
      </trkpt>
      <trkpt lat="39.902674897034316" lon="116.19912401160083">
        <ele>62.29815673828125</ele>
        <time>2026-08-12T09:59:25Z</time>
      </trkpt>
      <trkpt lat="39.90271329633624" lon="116.19871408079437">
        <ele>62.693359375</ele>
        <time>2026-08-12T09:59:40Z</time>
      </trkpt>
      <trkpt lat="39.90279573264169" lon="116.1983332053831">
        <ele>63.3211669921875</ele>
        <time>2026-08-12T09:59:55Z</time>
      </trkpt>
      <trkpt lat="39.90294622799813" lon="116.1979964178482">
        <ele>63.87640380859375</ele>
        <time>2026-08-12T10:00:07Z</time>
      </trkpt>
      <trkpt lat="39.90312274051685" lon="116.19767365578524">
        <ele>63.043212890625</ele>
        <time>2026-08-12T10:00:22Z</time>
      </trkpt>
      <trkpt lat="39.90330621883551" lon="116.19732984106342">
        <ele>64.6300048828125</ele>
        <time>2026-08-12T10:00:40Z</time>
      </trkpt>
      <trkpt lat="39.90337218740913" lon="116.19731078884733">
        <ele>64.66802978515625</ele>
        <time>2026-08-12T10:00:46Z</time>
      </trkpt>
      <trkpt lat="39.903631342593734" lon="116.19742201312461">
        <ele>64.39849853515625</ele>
        <time>2026-08-12T10:00:58Z</time>
      </trkpt>
      <trkpt lat="39.90388750362759" lon="116.19753724662911">
        <ele>63.28741455078125</ele>
        <time>2026-08-12T10:01:10Z</time>
      </trkpt>
      <trkpt lat="39.90420769741803" lon="116.19767652700097">
        <ele>63.08355712890625</ele>
        <time>2026-08-12T10:01:25Z</time>
      </trkpt>
      <trkpt lat="39.904524865578146" lon="116.19779876807338">
        <ele>62.1807861328125</ele>
        <time>2026-08-12T10:01:40Z</time>
      </trkpt>
      <trkpt lat="39.90465093606303" lon="116.19784986952844">
        <ele>62.5916748046875</ele>
        <time>2026-08-12T10:01:46Z</time>
      </trkpt>
      <trkpt lat="39.90478297050469" lon="116.19787691504158">
        <ele>63.8826904296875</ele>
        <time>2026-08-12T10:01:52Z</time>
      </trkpt>
      <trkpt lat="39.905085137302905" lon="116.19799815494322">
        <ele>60.72064208984375</ele>
        <time>2026-08-12T10:02:07Z</time>
      </trkpt>
      <trkpt lat="39.90537537546731" lon="116.1981675057345">
        <ele>61.9447021484375</ele>
        <time>2026-08-12T10:02:22Z</time>
      </trkpt>
      <trkpt lat="39.9056606294586" lon="116.19834788136419">
        <ele>59.49200439453125</ele>
        <time>2026-08-12T10:02:37Z</time>
      </trkpt>
      <trkpt lat="39.90576775329236" lon="116.1984350664001">
        <ele>60.22576904296875</ele>
        <time>2026-08-12T10:02:43Z</time>
      </trkpt>
      <trkpt lat="39.905811842837096" lon="116.1984972021528">
        <ele>61.47943115234375</ele>
        <time>2026-08-12T10:02:46Z</time>
      </trkpt>
      <trkpt lat="39.9058319289165" lon="116.19855633395925">
        <ele>62.398193359375</ele>
        <time>2026-08-12T10:02:49Z</time>
      </trkpt>
      <trkpt lat="39.90593805825678" lon="116.1986475276411">
        <ele>62.79443359375</ele>
        <time>2026-08-12T10:03:01Z</time>
      </trkpt>
      <trkpt lat="39.90600407744966" lon="116.19866255347351">
        <ele>63.13323974609375</ele>
        <time>2026-08-12T10:03:07Z</time>
      </trkpt>
      <trkpt lat="39.90628534862191" lon="116.19885595626565">
        <ele>61.97442626953125</ele>
        <time>2026-08-12T10:03:25Z</time>
      </trkpt>
      <trkpt lat="39.906533687557406" lon="116.1990954659208">
        <ele>63.4263916015625</ele>
        <time>2026-08-12T10:03:37Z</time>
      </trkpt>
      <trkpt lat="39.906713846077366" lon="116.19920970066245">
        <ele>61.97381591796875</ele>
        <time>2026-08-12T10:03:46Z</time>
      </trkpt>
      <trkpt lat="39.90692817432995" lon="116.19944219613949">
        <ele>61.85552978515625</ele>
        <time>2026-08-12T10:03:58Z</time>
      </trkpt>
      <trkpt lat="39.90720549857483" lon="116.19967468200599">
        <ele>62.25482177734375</ele>
        <time>2026-08-12T10:04:16Z</time>
      </trkpt>
      <trkpt lat="39.907475104197715" lon="116.19941005582069">
        <ele>57.61053466796875</ele>
        <time>2026-08-12T10:04:34Z</time>
      </trkpt>
      <trkpt lat="39.907678645326804" lon="116.1991003340461">
        <ele>59.919677734375</ele>
        <time>2026-08-12T10:04:49Z</time>
      </trkpt>
      <trkpt lat="39.90776307919664" lon="116.19871545389367">
        <ele>65.6475830078125</ele>
        <time>2026-08-12T10:05:04Z</time>
      </trkpt>
      <trkpt lat="39.90775069838282" lon="116.19845586627488">
        <ele>64.14105224609375</ele>
        <time>2026-08-12T10:05:13Z</time>
      </trkpt>
      <trkpt lat="39.907762175610216" lon="116.19810205844155">
        <ele>61.52716064453125</ele>
        <time>2026-08-12T10:05:25Z</time>
      </trkpt>
      <trkpt lat="39.907762569837146" lon="116.19769412380664">
        <ele>62.06884765625</ele>
        <time>2026-08-12T10:05:40Z</time>
      </trkpt>
      <trkpt lat="39.90776817463846" lon="116.19742951414592">
        <ele>59.94091796875</ele>
        <time>2026-08-12T10:05:49Z</time>
      </trkpt>
      <trkpt lat="39.907758047572955" lon="116.19734431889009">
        <ele>60.3260498046875</ele>
        <time>2026-08-12T10:05:52Z</time>
      </trkpt>
      <trkpt lat="39.907767920983176" lon="116.1972601232267">
        <ele>60.19696044921875</ele>
        <time>2026-08-12T10:05:55Z</time>
      </trkpt>
      <trkpt lat="39.90772036994816" lon="116.1968922771859">
        <ele>66.1329345703125</ele>
        <time>2026-08-12T10:06:13Z</time>
      </trkpt>
      <trkpt lat="39.90771510234526" lon="116.1967148654796">
        <ele>63.9915771484375</ele>
        <time>2026-08-12T10:06:22Z</time>
      </trkpt>
      <trkpt lat="39.907758008028345" lon="116.19665371777747">
        <ele>61.17840576171875</ele>
        <time>2026-08-12T10:06:28Z</time>
      </trkpt>
      <trkpt lat="39.90782000990273" lon="116.19665671702221">
        <ele>60.67236328125</ele>
        <time>2026-08-12T10:06:40Z</time>
      </trkpt>
      <trkpt lat="39.90797692273304" lon="116.19660357363509">
        <ele>59.392822265625</ele>
        <time>2026-08-12T10:06:52Z</time>
      </trkpt>
      <trkpt lat="39.908279985527614" lon="116.19665365246499">
        <ele>57.98431396484375</ele>
        <time>2026-08-12T10:07:10Z</time>
      </trkpt>
      <trkpt lat="39.90843202446721" lon="116.19668370345569">
        <ele>58.05078125</ele>
        <time>2026-08-12T10:07:19Z</time>
      </trkpt>
      <trkpt lat="39.90846594718758" lon="116.19663358250453">
        <ele>59.49456787109375</ele>
        <time>2026-08-12T10:07:25Z</time>
      </trkpt>
      <trkpt lat="39.90845673347264" lon="116.19649225414045">
        <ele>57.6595458984375</ele>
        <time>2026-08-12T10:07:31Z</time>
      </trkpt>
      <trkpt lat="39.90847511981879" lon="116.19608930910313">
        <ele>59.70538330078125</ele>
        <time>2026-08-12T10:07:43Z</time>
      </trkpt>
      <trkpt lat="39.90847570771024" lon="116.19581967551552">
        <ele>62.11724853515625</ele>
        <time>2026-08-12T10:07:52Z</time>
      </trkpt>
      <trkpt lat="39.908469141699754" lon="116.19545080622655">
        <ele>62.6378173828125</ele>
        <time>2026-08-12T10:08:07Z</time>
      </trkpt>
      <trkpt lat="39.90845587504081" lon="116.1952773974755">
        <ele>61.02276611328125</ele>
        <time>2026-08-12T10:08:19Z</time>
      </trkpt>
      <trkpt lat="39.908559777739455" lon="116.19521724192744">
        <ele>55.2919921875</ele>
        <time>2026-08-12T10:08:31Z</time>
      </trkpt>
      <trkpt lat="39.90862977163326" lon="116.19521522841269">
        <ele>55.67877197265625</ele>
        <time>2026-08-12T10:08:37Z</time>
      </trkpt>
      <trkpt lat="39.90866968165384" lon="116.19515808790182">
        <ele>56.8970947265625</ele>
        <time>2026-08-12T10:08:43Z</time>
      </trkpt>
      <trkpt lat="39.90899666295529" lon="116.19515503983565">
        <ele>61.19195556640625</ele>
        <time>2026-08-12T10:09:01Z</time>
      </trkpt>
      <trkpt lat="39.909075668857305" lon="116.19516104421545">
        <ele>63.564453125</ele>
        <time>2026-08-12T10:09:04Z</time>
      </trkpt>
      <trkpt lat="39.90913362298841" lon="116.19513297035954">
        <ele>63.15863037109375</ele>
        <time>2026-08-12T10:09:07Z</time>
      </trkpt>
      <trkpt lat="39.909420599828856" lon="116.19512591778123">
        <ele>55.88690185546875</ele>
        <time>2026-08-12T10:09:22Z</time>
      </trkpt>
      <trkpt lat="39.90945951599259" lon="116.19507278676983">
        <ele>55.67095947265625</ele>
        <time>2026-08-12T10:09:25Z</time>
      </trkpt>
      <trkpt lat="39.909474849606" lon="116.19464376325733">
        <ele>54.6982421875</ele>
        <time>2026-08-12T10:09:40Z</time>
      </trkpt>
      <trkpt lat="39.90951127882794" lon="116.19427888576054">
        <ele>55.647216796875</ele>
        <time>2026-08-12T10:09:52Z</time>
      </trkpt>
      <trkpt lat="39.909518857645224" lon="116.19401023971409">
        <ele>59.33935546875</ele>
        <time>2026-08-12T10:10:01Z</time>
      </trkpt>
      <trkpt lat="39.90949045546442" lon="116.19375362518491">
        <ele>60.36181640625</ele>
        <time>2026-08-12T10:10:16Z</time>
      </trkpt>
      <trkpt lat="39.90949929398208" lon="116.19365137730271">
        <ele>60.081787109375</ele>
        <time>2026-08-12T10:10:22Z</time>
      </trkpt>
      <trkpt lat="39.90947595470688" lon="116.19343585912155">
        <ele>59.41253662109375</ele>
        <time>2026-08-12T10:10:34Z</time>
      </trkpt>
      <trkpt lat="39.90950126548485" lon="116.19300180262985">
        <ele>58.36395263671875</ele>
        <time>2026-08-12T10:10:49Z</time>
      </trkpt>
      <trkpt lat="39.90950604677209" lon="116.19286446770218">
        <ele>60.375</ele>
        <time>2026-08-12T10:10:55Z</time>
      </trkpt>
      <trkpt lat="39.90963503645565" lon="116.19286144421811">
        <ele>60.81658935546875</ele>
        <time>2026-08-12T10:11:07Z</time>
      </trkpt>
      <trkpt lat="39.90968699750795" lon="116.19283838152953">
        <ele>59.08343505859375</ele>
        <time>2026-08-12T10:11:13Z</time>
      </trkpt>
      <trkpt lat="39.90966188036399" lon="116.19276420382654">
        <ele>63.308837890625</ele>
        <time>2026-08-12T10:12:01Z</time>
      </trkpt>
      <trkpt lat="39.90964319046319" lon="116.19233214992903">
        <ele>63.99053955078125</ele>
        <time>2026-08-12T10:12:31Z</time>
      </trkpt>
      <trkpt lat="39.9096466025409" lon="116.19196625115259">
        <ele>63.598876953125</ele>
        <time>2026-08-12T10:12:55Z</time>
      </trkpt>
      <trkpt lat="39.9096503212736" lon="116.19179182120138">
        <ele>64.09429931640625</ele>
        <time>2026-08-12T10:13:07Z</time>
      </trkpt>
      <trkpt lat="39.90973165311627" lon="116.19138079589301">
        <ele>60.7899169921875</ele>
        <time>2026-08-12T10:13:25Z</time>
      </trkpt>
      <trkpt lat="39.90980015203303" lon="116.19107402686554">
        <ele>62.2987060546875</ele>
        <time>2026-08-12T10:13:37Z</time>
      </trkpt>
      <trkpt lat="39.90979463927228" lon="116.1907592447564">
        <ele>62.5950927734375</ele>
        <time>2026-08-12T10:13:49Z</time>
      </trkpt>
      <trkpt lat="39.909818972225004" lon="116.1903522258772">
        <ele>58.15740966796875</ele>
        <time>2026-08-12T10:14:04Z</time>
      </trkpt>
      <trkpt lat="39.909820689091646" lon="116.19017979407413">
        <ele>58.90692138671875</ele>
        <time>2026-08-12T10:14:10Z</time>
      </trkpt>
      <trkpt lat="39.909835561562296" lon="116.19010259876225">
        <ele>57.770263671875</ele>
        <time>2026-08-12T10:14:13Z</time>
      </trkpt>
      <trkpt lat="39.90981503064093" lon="116.18977979079888">
        <ele>57.11236572265625</ele>
        <time>2026-08-12T10:14:28Z</time>
      </trkpt>
      <trkpt lat="39.909791897562954" lon="116.1896985894084">
        <ele>61.95452880859375</ele>
        <time>2026-08-12T10:14:31Z</time>
      </trkpt>
      <trkpt lat="39.909791897562954" lon="116.1896985894084">
        <ele>61.95452880859375</ele>
        <time>2026-08-12T10:14:37Z</time>
      </trkpt>
    </trkseg>
  </trk>
</gpx>