<?xml version="1.0" encoding="UTF-8"?>
<gpx xmlns="http://www.topografix.com/GPX/1/1" xmlns:gpxtpx="http://www.garmin.com/xmlschemas/TrackPointExtension/v1" xmlns:xsi="http://www.w3.org/2001/XMLSchema-instance" xsi:schemaLocation="http://www.topografix.com/GPX/1/1 http://www.topografix.com/GPX/1/1/gpx.xsd" version="1.1" creator="gpx.py -- https://github.com/tkrajina/gpxpy">
  <trk>
    <name>gpx from keep</name>
    <type>Run</type>
    <trkseg>
      <trkpt lat="39.91329967019727" lon="116.18608490548728">
        <ele>60.38519287109375</ele>
        <time>2026-08-06T12:00:51Z</time>
      </trkpt>
      <trkpt lat="39.913416660105504" lon="116.1860818829881">
        <ele>67.58551025390625</ele>
        <time>2026-08-06T12:01:03Z</time>
      </trkpt>
      <trkpt lat="39.913532502456285" lon="116.18599263653452">
        <ele>68.0435791015625</ele>
        <time>2026-08-06T12:01:15Z</time>
      </trkpt>
      <trkpt lat="39.913839527264706" lon="116.186014655337">
        <ele>65.8868408203125</ele>
        <time>2026-08-06T12:01:42Z</time>
      </trkpt>
      <trkpt lat="39.91390038215919" lon="116.18593143130762">
        <ele>65.46514892578125</ele>
        <time>2026-08-06T12:01:48Z</time>
      </trkpt>
      <trkpt lat="39.913909074035296" lon="116.18575196305478">
        <ele>65.2569580078125</ele>
        <time>2026-08-06T12:01:57Z</time>
      </trkpt>
      <trkpt lat="39.91391455865257" lon="116.18545218054746">
        <ele>65.4451904296875</ele>
        <time>2026-08-06T12:02:12Z</time>
      </trkpt>
      <trkpt lat="39.91392946139222" lon="116.18539603204513">
        <ele>66.077880859375</ele>
        <time>2026-08-06T12:02:15Z</time>
      </trkpt>
      <trkpt lat="39.91390317232744" lon="116.18522759506945">
        <ele>66.8685302734375</ele>
        <time>2026-08-06T12:02:24Z</time>
      </trkpt>
      <trkpt lat="39.91391382242882" lon="116.18502506359755">
        <ele>68.025634765625</ele>
        <time>2026-08-06T12:02:33Z</time>
      </trkpt>
      <trkpt lat="39.91390815152184" lon="116.1846370463801">
        <ele>67.48406982421875</ele>
        <time>2026-08-06T12:02:51Z</time>
      </trkpt>
      <trkpt lat="39.91391144149899" lon="116.18422796961288">
        <ele>70.3212890625</ele>
        <time>2026-08-06T12:03:09Z</time>
      </trkpt>
      <trkpt lat="39.913912047246306" lon="116.18400137193545">
        <ele>68.9881591796875</ele>
        <time>2026-08-06T12:03:21Z</time>
      </trkpt>
      <trkpt lat="39.91394478381911" lon="116.18385097064689">
        <ele>72.5220947265625</ele>
        <time>2026-08-06T12:03:27Z</time>
      </trkpt>
      <trkpt lat="39.91394822010679" lon="116.18352811617434">
        <ele>73.047607421875</ele>
        <time>2026-08-06T12:03:42Z</time>
      </trkpt>
      <trkpt lat="39.913912919984156" lon="116.18335566361965">
        <ele>70.3050537109375</ele>
        <time>2026-08-06T12:03:51Z</time>
      </trkpt>
      <trkpt lat="39.9139005587521" lon="116.18314911712977">
        <ele>72.373779296875</ele>
        <time>2026-08-06T12:04:00Z</time>
      </trkpt>
      <trkpt lat="39.91391729252014" lon="116.18299771281357">
        <ele>73.59832763671875</ele>
        <time>2026-08-06T12:04:06Z</time>
      </trkpt>
      <trkpt lat="39.91388667015088" lon="116.18264277210761">
        <ele>67.37152099609375</ele>
        <time>2026-08-06T12:04:24Z</time>
      </trkpt>
      <trkpt lat="39.913861026503206" lon="116.18227679909093">
        <ele>67.1253662109375</ele>
        <time>2026-08-06T12:04:42Z</time>
      </trkpt>
      <trkpt lat="39.91387148591349" lon="116.1821346815666">
        <ele>67.419921875</ele>
        <time>2026-08-06T12:04:48Z</time>
      </trkpt>
      <trkpt lat="39.91389267649033" lon="116.18207926724259">
        <ele>67.60235595703125</ele>
        <time>2026-08-06T12:04:51Z</time>
      </trkpt>
      <trkpt lat="39.913880848832186" lon="116.1820131627771">
        <ele>68.1837158203125</ele>
        <time>2026-08-06T12:04:54Z</time>
      </trkpt>
      <trkpt lat="39.91390042630482" lon="116.18193788804037">
        <ele>68.89227294921875</ele>
        <time>2026-08-06T12:04:57Z</time>
      </trkpt>
      <trkpt lat="39.91385734997316" lon="116.18151601892015">
        <ele>69.8302001953125</ele>
        <time>2026-08-06T12:05:15Z</time>
      </trkpt>
      <trkpt lat="39.91389143904951" lon="116.181380394422">
        <ele>69.93341064453125</ele>
        <time>2026-08-06T12:05:21Z</time>
      </trkpt>
      <trkpt lat="39.91391191801133" lon="116.18108760476976">
        <ele>71.98272705078125</ele>
        <time>2026-08-06T12:05:33Z</time>
      </trkpt>
      <trkpt lat="39.91389546183773" lon="116.18083091565155">
        <ele>71.83941650390625</ele>
        <time>2026-08-06T12:05:45Z</time>
      </trkpt>
      <trkpt lat="39.91383933021372" lon="116.18075572001214">
        <ele>68.4324951171875</ele>
        <time>2026-08-06T12:05:51Z</time>
      </trkpt>
      <trkpt lat="39.913749398332776" lon="116.18079182862408">
        <ele>66.52471923828125</ele>
        <time>2026-08-06T12:05:57Z</time>
      </trkpt>
      <trkpt lat="39.913464417511875" lon="116.18079587526256">
        <ele>67.548583984375</ele>
        <time>2026-08-06T12:06:12Z</time>
      </trkpt>
      <trkpt lat="39.91336743411496" lon="116.18080290637283">
        <ele>67.01666259765625</ele>
        <time>2026-08-06T12:06:18Z</time>
      </trkpt>
      <trkpt lat="39.9133643234643" lon="116.18074073918133">
        <ele>67.19061279296875</ele>
        <time>2026-08-06T12:06:27Z</time>
      </trkpt>
      <trkpt lat="39.91326566918519" lon="116.18037175564419">
        <ele>69.05987548828125</ele>
        <time>2026-08-06T12:07:09Z</time>
      </trkpt>
      <trkpt lat="39.91324158062229" lon="116.18032162319054">
        <ele>69.05126953125</ele>
        <time>2026-08-06T12:07:12Z</time>
      </trkpt>
      <trkpt lat="39.913278900912466" lon="116.17994259299729">
        <ele>69.1900634765625</ele>
        <time>2026-08-06T12:07:30Z</time>
      </trkpt>
      <trkpt lat="39.913292247659065" lon="116.17957860446347">
        <ele>67.7301025390625</ele>
        <time>2026-08-06T12:07:48Z</time>
      </trkpt>
      <trkpt lat="39.91329258092739" lon="116.17920759651832">
        <ele>67.3428955078125</ele>
        <time>2026-08-06T12:08:03Z</time>
      </trkpt>
      <trkpt lat="39.91330722655116" lon="116.17901105995115">
        <ele>63.4990234375</ele>
        <time>2026-08-06T12:08:12Z</time>
      </trkpt>
      <trkpt lat="39.91330283461946" lon="116.17879346784468">
        <ele>64.66943359375</ele>
        <time>2026-08-06T12:08:21Z</time>
      </trkpt>
      <trkpt lat="39.9133247269995" lon="116.17873430383759">
        <ele>66.30902099609375</ele>
        <time>2026-08-06T12:08:24Z</time>
      </trkpt>
      <trkpt lat="39.91331355198275" lon="116.17863704002606">
        <ele>67.96826171875</ele>
        <time>2026-08-06T12:08:27Z</time>
      </trkpt>
      <trkpt lat="39.91336022049076" lon="116.17845453617646">
        <ele>65.99896240234375</ele>
        <time>2026-08-06T12:08:36Z</time>
      </trkpt>
      <trkpt lat="39.913362068216834" lon="116.17837030595328">
        <ele>64.72027587890625</ele>
        <time>2026-08-06T12:08:39Z</time>
      </trkpt>
      <trkpt lat="39.91338196043574" lon="116.17831114185157">
        <ele>63.01434326171875</ele>
        <time>2026-08-06T12:08:42Z</time>
      </trkpt>
      <trkpt lat="39.91339757342275" lon="116.17809755609316">
        <ele>63.57666015625</ele>
        <time>2026-08-06T12:08:51Z</time>
      </trkpt>
      <trkpt lat="39.91336082462287" lon="116.17768342703043">
        <ele>64.918701171875</ele>
        <time>2026-08-06T12:09:03Z</time>
      </trkpt>
      <trkpt lat="39.913336647361746" lon="116.17758516073346">
        <ele>64.92578125</ele>
        <time>2026-08-06T12:09:06Z</time>
      </trkpt>
      <trkpt lat="39.91332899748833" lon="116.17722717948666">
        <ele>62.61602783203125</ele>
        <time>2026-08-06T12:09:21Z</time>
      </trkpt>
      <trkpt lat="39.91334351167671" lon="116.17696044477128">
        <ele>59.3671875</ele>
        <time>2026-08-06T12:09:33Z</time>
      </trkpt>
      <trkpt lat="39.91331676740387" lon="116.17655132231833">
        <ele>51.3243408203125</ele>
        <time>2026-08-06T12:09:51Z</time>
      </trkpt>
      <trkpt lat="39.91332510085693" lon="116.17618631518316">
        <ele>58.7139892578125</ele>
        <time>2026-08-06T12:10:03Z</time>
      </trkpt>
      <trkpt lat="39.91339713810856" lon="116.17620836696535">
        <ele>64.48443603515625</ele>
        <time>2026-08-06T12:10:09Z</time>
      </trkpt>
      <trkpt lat="39.91337086385545" lon="116.17660546462962">
        <ele>68.3023681640625</ele>
        <time>2026-08-06T12:10:24Z</time>
      </trkpt>
      <trkpt lat="39.91336755628844" lon="116.17698551066283">
        <ele>70.33868408203125</ele>
        <time>2026-08-06T12:10:39Z</time>
      </trkpt>
      <trkpt lat="39.91337490803986" lon="116.17717904152322">
        <ele>70.19378662109375</ele>
        <time>2026-08-06T12:10:48Z</time>
      </trkpt>
      <trkpt lat="39.91341309782465" lon="116.17728432583446">
        <ele>70.56512451171875</ele>
        <time>2026-08-06T12:10:54Z</time>
      </trkpt>
      <trkpt lat="39.91339845181492" lon="116.17747886148929">
        <ele>69.56463623046875</ele>
        <time>2026-08-06T12:11:03Z</time>
      </trkpt>
      <trkpt lat="39.913411584141684" lon="116.17755206057913">
        <ele>67.87255859375</ele>
        <time>2026-08-06T12:11:06Z</time>
      </trkpt>
      <trkpt lat="39.913463651094204" lon="116.17759015849576">
        <ele>67.7764892578125</ele>
        <time>2026-08-06T12:11:09Z</time>
      </trkpt>
      <trkpt lat="39.91375566060076" lon="116.17760215473457">
        <ele>70.3790283203125</ele>
        <time>2026-08-06T12:11:24Z</time>
      </trkpt>
      <trkpt lat="39.91406260762384" lon="116.1775800556299">
        <ele>69.62939453125</ele>
        <time>2026-08-06T12:11:39Z</time>
      </trkpt>
      <trkpt lat="39.914130553804654" lon="116.1775519700994">
        <ele>69.8699951171875</ele>
        <time>2026-08-06T12:11:42Z</time>
      </trkpt>
      <trkpt lat="39.91417645175881" lon="116.17749681308361">
        <ele>69.6832275390625</ele>
        <time>2026-08-06T12:11:45Z</time>
      </trkpt>
      <trkpt lat="39.91420031783527" lon="116.17742360928371">
        <ele>70.10589599609375</ele>
        <time>2026-08-06T12:11:48Z</time>
      </trkpt>
      <trkpt lat="39.91421657703791" lon="116.17701648924648">
        <ele>71.66754150390625</ele>
        <time>2026-08-06T12:12:03Z</time>
      </trkpt>
      <trkpt lat="39.91421016287137" lon="116.17678886407592">
        <ele>73.4871826171875</ele>
        <time>2026-08-06T12:12:12Z</time>
      </trkpt>
      <trkpt lat="39.91427352400133" lon="116.17643989523695">
        <ele>67.5953369140625</ele>
        <time>2026-08-06T12:12:27Z</time>
      </trkpt>
      <trkpt lat="39.91424975034062" lon="116.17601572836043">
        <ele>68.6278076171875</ele>
        <time>2026-08-06T12:12:45Z</time>
      </trkpt>
      <trkpt lat="39.91425709879769" lon="116.17565974405147">
        <ele>68.731689453125</ele>
        <time>2026-08-06T12:13:00Z</time>
      </trkpt>
      <trkpt lat="39.9142434030437" lon="116.17527969437364">
        <ele>67.419921875</ele>
        <time>2026-08-06T12:13:18Z</time>
      </trkpt>
      <trkpt lat="39.91425076610204" lon="116.17493273224981">
        <ele>67.3612060546875</ele>
        <time>2026-08-06T12:13:33Z</time>
      </trkpt>
      <trkpt lat="39.91422963624697" lon="116.17486153751709">
        <ele>68.3175048828125</ele>
        <time>2026-08-06T12:13:36Z</time>
      </trkpt>
      <trkpt lat="39.91419454931374" lon="116.17481340845764">
        <ele>67.43310546875</ele>
        <time>2026-08-06T12:13:39Z</time>
      </trkpt>
      <trkpt lat="39.91420843450668" lon="116.17475123426378">
        <ele>66.84417724609375</ele>
        <time>2026-08-06T12:13:42Z</time>
      </trkpt>
      <trkpt lat="39.914239337384906" lon="116.17469908570989">
        <ele>68.28564453125</ele>
        <time>2026-08-06T12:13:48Z</time>
      </trkpt>
      <trkpt lat="39.91450449757719" lon="116.17479231101308">
        <ele>68.10498046875</ele>
        <time>2026-08-06T12:14:03Z</time>
      </trkpt>
      <trkpt lat="39.91478149513573" lon="116.17479729002915">
        <ele>69.1202392578125</ele>
        <time>2026-08-06T12:14:18Z</time>
      </trkpt>
      <trkpt lat="39.914836472559806" lon="116.17478625250995">
        <ele>69.94573974609375</ele>
        <time>2026-08-06T12:14:21Z</time>
      </trkpt>
      <trkpt lat="39.91493038017585" lon="116.17473810716442">
        <ele>71.023681640625</ele>
        <time>2026-08-06T12:14:27Z</time>
      </trkpt>
      <trkpt lat="39.91499244758135" lon="116.17477620504916">
        <ele>71.5279541015625</ele>
        <time>2026-08-06T12:14:33Z</time>
      </trkpt>
      <trkpt lat="39.91503435369524" lon="116.1747260606847">
        <ele>70.247802734375</ele>
        <time>2026-08-06T12:14:39Z</time>
      </trkpt>
      <trkpt lat="39.915107374582135" lon="116.17473908765153">
        <ele>71.1876220703125</ele>
        <time>2026-08-06T12:14:45Z</time>
      </trkpt>
      <trkpt lat="39.91516648632679" lon="116.17480125266047">
        <ele>71.050537109375</ele>
        <time>2026-08-06T12:14:51Z</time>
      </trkpt>
      <trkpt lat="39.91526343620003" lon="116.17477617091488">
        <ele>70.6044921875</ele>
        <time>2026-08-06T12:14:57Z</time>
      </trkpt>
      <trkpt lat="39.91531435852094" lon="116.17473505045153">
        <ele>68.55120849609375</ele>
        <time>2026-08-06T12:15:06Z</time>
      </trkpt>
      <trkpt lat="39.91540631965056" lon="116.17471598600983">
        <ele>69.10003662109375</ele>
        <time>2026-08-06T12:15:12Z</time>
      </trkpt>
      <trkpt lat="39.91551237969304" lon="116.17475107001684">
        <ele>69.1363525390625</ele>
        <time>2026-08-06T12:15:18Z</time>
      </trkpt>
      <trkpt lat="39.915794404717396" lon="116.17477109012424">
        <ele>71.41552734375</ele>
        <time>2026-08-06T12:15:36Z</time>
      </trkpt>
      <trkpt lat="39.916111341695775" lon="116.17474397509496">
        <ele>69.75482177734375</ele>
        <time>2026-08-06T12:15:54Z</time>
      </trkpt>
      <trkpt lat="39.9162643187098" lon="116.17473493078762">
        <ele>69.86199951171875</ele>
        <time>2026-08-06T12:16:03Z</time>
      </trkpt>
      <trkpt lat="39.91630635748678" lon="116.174756986692">
        <ele>70.02056884765625</ele>
        <time>2026-08-06T12:16:06Z</time>
      </trkpt>
      <trkpt lat="39.91639234836218" lon="116.1747539675146">
        <ele>70.27294921875</ele>
        <time>2026-08-06T12:16:12Z</time>
      </trkpt>
      <trkpt lat="39.91638123457949" lon="116.17469179642721">
        <ele>70.608642578125</ele>
        <time>2026-08-06T12:16:15Z</time>
      </trkpt>
      <trkpt lat="39.91635214917126" lon="116.17464466930875">
        <ele>69.6087646484375</ele>
        <time>2026-08-06T12:16:18Z</time>
      </trkpt>
      <trkpt lat="39.91634397806137" lon="116.1745514114906">
        <ele>65.0855712890625</ele>
        <time>2026-08-06T12:16:24Z</time>
      </trkpt>
      <trkpt lat="39.916384293673694" lon="116.1741803757426">
        <ele>66.39813232421875</ele>
        <time>2026-08-06T12:16:39Z</time>
      </trkpt>
      <trkpt lat="39.916380654592395" lon="116.17383341119735">
        <ele>69.33905029296875</ele>
        <time>2026-08-06T12:16:54Z</time>
      </trkpt>
      <trkpt lat="39.916345759563875" lon="116.17388957185598">
        <ele>69.54541015625</ele>
        <time>2026-08-06T12:17:00Z</time>
      </trkpt>
      <trkpt lat="39.916325464127176" lon="116.17427163676702">
        <ele>71.693359375</ele>
        <time>2026-08-06T12:17:15Z</time>
      </trkpt>
      <trkpt lat="39.91631386129851" lon="116.174487237103">
        <ele>72.82696533203125</ele>
        <time>2026-08-06T12:17:24Z</time>
      </trkpt>
      <trkpt lat="39.91628109315658" lon="116.17461258920399">
        <ele>71.94586181640625</ele>
        <time>2026-08-06T12:17:30Z</time>
      </trkpt>
      <trkpt lat="39.91624419792371" lon="116.17466874969296">
        <ele>73.20751953125</ele>
        <time>2026-08-06T12:17:33Z</time>
      </trkpt>
      <trkpt lat="39.91593219992763" lon="116.17466277230014">
        <ele>69.73480224609375</ele>
        <time>2026-08-06T12:17:51Z</time>
      </trkpt>
      <trkpt lat="39.91563719385937" lon="116.17465278163526">
        <ele>72.00421142578125</ele>
        <time>2026-08-06T12:18:06Z</time>
      </trkpt>
      <trkpt lat="39.915352216872705" lon="116.17465883422965">
        <ele>72.7353515625</ele>
        <time>2026-08-06T12:18:21Z</time>
      </trkpt>
      <trkpt lat="39.9152422804646" lon="116.1746909371179">
        <ele>72.36358642578125</ele>
        <time>2026-08-06T12:18:27Z</time>
      </trkpt>
      <trkpt lat="39.91515243901826" lon="116.17477518211487">
        <ele>71.710693359375</ele>
        <time>2026-08-06T12:18:33Z</time>
      </trkpt>
      <trkpt lat="39.91511030259274" lon="116.17469997878314">
        <ele>68.705078125</ele>
        <time>2026-08-06T12:18:39Z</time>
      </trkpt>
      <trkpt lat="39.91510214811006" lon="116.1746157460668">
        <ele>68.38995361328125</ele>
        <time>2026-08-06T12:18:42Z</time>
      </trkpt>
      <trkpt lat="39.915070044370836" lon="116.17455859145896">
        <ele>68.2320556640625</ele>
        <time>2026-08-06T12:18:45Z</time>
      </trkpt>
      <trkpt lat="39.91501903360677" lon="116.174551578399">
        <ele>67.88800048828125</ele>
        <time>2026-08-06T12:18:48Z</time>
      </trkpt>
      <trkpt lat="39.91497408159061" lon="116.17457665365143">
        <ele>67.1903076171875</ele>
        <time>2026-08-06T12:18:51Z</time>
      </trkpt>
      <trkpt lat="39.914921246031355" lon="116.17466490521329">
        <ele>64.90899658203125</ele>
        <time>2026-08-06T12:18:57Z</time>
      </trkpt>
      <trkpt lat="39.914634388936314" lon="116.17473613888426">
        <ele>64.7823486328125</ele>
        <time>2026-08-06T12:19:12Z</time>
      </trkpt>
      <trkpt lat="39.9143604115229" lon="116.17474219008537">
        <ele>65.921142578125</ele>
        <time>2026-08-06T12:19:27Z</time>
      </trkpt>
      <trkpt lat="39.91417137894671" lon="116.17472015269414">
        <ele>69.57257080078125</ele>
        <time>2026-08-06T12:19:36Z</time>
      </trkpt>
      <trkpt lat="39.91412132208514" lon="116.17468806997016">
        <ele>69.8326416015625</ele>
        <time>2026-08-06T12:19:39Z</time>
      </trkpt>
      <trkpt lat="39.91408819998776" lon="116.17462088770425">
        <ele>69.70965576171875</ele>
        <time>2026-08-06T12:19:42Z</time>
      </trkpt>
      <trkpt lat="39.913800162358406" lon="116.17459384884177">
        <ele>70.99029541015625</ele>
        <time>2026-08-06T12:19:57Z</time>
      </trkpt>
      <trkpt lat="39.91357019049959" lon="116.17460390564123">
        <ele>70.6331787109375</ele>
        <time>2026-08-06T12:20:09Z</time>
      </trkpt>
      <trkpt lat="39.91347130158865" lon="116.17466207950245">
        <ele>69.72161865234375</ele>
        <time>2026-08-06T12:20:15Z</time>
      </trkpt>
      <trkpt lat="39.91343940061225" lon="116.17471523098189">
        <ele>69.68841552734375</ele>
        <time>2026-08-06T12:20:18Z</time>
      </trkpt>
      <trkpt lat="39.9134070888351" lon="116.17508927203221">
        <ele>69.997314453125</ele>
        <time>2026-08-06T12:20:33Z</time>
      </trkpt>
      <trkpt lat="39.91338783061203" lon="116.17549339319906">
        <ele>72.89984130859375</ele>
        <time>2026-08-06T12:20:48Z</time>
      </trkpt>
      <trkpt lat="39.9133895005768" lon="116.17585940471625">
        <ele>71.578125</ele>
        <time>2026-08-06T12:21:03Z</time>
      </trkpt>
      <trkpt lat="39.91339263065979" lon="116.17593060095128">
        <ele>72.16876220703125</ele>
        <time>2026-08-06T12:21:06Z</time>
      </trkpt>
      <trkpt lat="39.913510955605744" lon="116.1761110842939">
        <ele>68.66729736328125</ele>
        <time>2026-08-06T12:21:24Z</time>
      </trkpt>
      <trkpt lat="39.91345207351162" lon="116.17617426600353">
        <ele>69.27947998046875</ele>
        <time>2026-08-06T12:21:30Z</time>
      </trkpt>
      <trkpt lat="39.91334008923325" lon="116.17618029669934">
        <ele>70.73175048828125</ele>
        <time>2026-08-06T12:21:36Z</time>
      </trkpt>
      <trkpt lat="39.91329017742554" lon="116.17622743298027">
        <ele>70.54248046875</ele>
        <time>2026-08-06T12:21:42Z</time>
      </trkpt>
      <trkpt lat="39.91326490489638" lon="116.17662553318888">
        <ele>74.74853515625</ele>
        <time>2026-08-06T12:21:57Z</time>
      </trkpt>
      <trkpt lat="39.91326956772933" lon="116.1769895340224">
        <ele>74.7545166015625</ele>
        <time>2026-08-06T12:22:12Z</time>
      </trkpt>
      <trkpt lat="39.9132763222246" lon="116.17740467329706">
        <ele>72.73150634765625</ele>
        <time>2026-08-06T12:22:27Z</time>
      </trkpt>
      <trkpt lat="39.91324377682171" lon="116.1776543620702">
        <ele>73.2269287109375</ele>
        <time>2026-08-06T12:22:36Z</time>
      </trkpt>
      <trkpt lat="39.913253061902736" lon="116.1778117921922">
        <ele>73.03057861328125</ele>
        <time>2026-08-06T12:22:42Z</time>
      </trkpt>
      <trkpt lat="39.913288162188636" lon="116.17786794153324">
        <ele>71.2481689453125</ele>
        <time>2026-08-06T12:22:45Z</time>
      </trkpt>
      <trkpt lat="39.91332553109176" lon="116.17807249659721">
        <ele>69.93499755859375</ele>
        <time>2026-08-06T12:22:54Z</time>
      </trkpt>
      <trkpt lat="39.91332879948747" lon="116.17822090194171">
        <ele>69.81414794921875</ele>
        <time>2026-08-06T12:23:00Z</time>
      </trkpt>
      <trkpt lat="39.91334591300875" lon="116.17828407241895">
        <ele>67.76654052734375</ele>
        <time>2026-08-06T12:23:03Z</time>
      </trkpt>
      <trkpt lat="39.91329854356871" lon="116.17863202823958">
        <ele>71.9073486328125</ele>
        <time>2026-08-06T12:23:15Z</time>
      </trkpt>
      <trkpt lat="39.913252046436675" lon="116.17890979112981">
        <ele>75.47637939453125</ele>
        <time>2026-08-06T12:23:24Z</time>
      </trkpt>
      <trkpt lat="39.91323777980435" lon="116.17931690054259">
        <ele>72.5390625</ele>
        <time>2026-08-06T12:23:39Z</time>
      </trkpt>
      <trkpt lat="39.91326223812742" lon="116.17957259190939">
        <ele>69.510009765625</ele>
        <time>2026-08-06T12:23:51Z</time>
      </trkpt>
      <trkpt lat="39.9132543698355" lon="116.1796457915229">
        <ele>70.4376220703125</ele>
        <time>2026-08-06T12:23:57Z</time>
      </trkpt>
      <trkpt lat="39.91327252196783" lon="116.17973102041418">
        <ele>69.5946044921875</ele>
        <time>2026-08-06T12:24:03Z</time>
      </trkpt>
      <trkpt lat="39.91326130011597" lon="116.18016519775573">
        <ele>68.92462158203125</ele>
        <time>2026-08-06T12:24:18Z</time>
      </trkpt>
      <trkpt lat="39.913280929956386" lon="116.18051814911004">
        <ele>68.85076904296875</ele>
        <time>2026-08-06T12:24:30Z</time>
      </trkpt>
      <trkpt lat="39.91330139938776" lon="116.18078185791978">
        <ele>70.95166015625</ele>
        <time>2026-08-06T12:24:39Z</time>
      </trkpt>
      <trkpt lat="39.91333948174006" lon="116.18082898014517">
        <ele>69.5091552734375</ele>
        <time>2026-08-06T12:24:42Z</time>
      </trkpt>
      <trkpt lat="39.91365447022128" lon="116.18082994324713">
        <ele>68.48065185546875</ele>
        <time>2026-08-06T12:25:00Z</time>
      </trkpt>
      <trkpt lat="39.913862448940975" lon="116.18082289818534">
        <ele>67.86474609375</ele>
        <time>2026-08-06T12:25:15Z</time>
      </trkpt>
      <trkpt lat="39.9138926155219" lon="116.18091714832336">
        <ele>67.4552001953125</ele>
        <time>2026-08-06T12:25:21Z</time>
      </trkpt>
      <trkpt lat="39.913878368403985" lon="116.1813402883293">
        <ele>66.08203125</ele>
        <time>2026-08-06T12:25:42Z</time>
      </trkpt>
      <trkpt lat="39.913877983636795" lon="116.18168721940786">
        <ele>68.2904052734375</ele>
        <time>2026-08-06T12:25:57Z</time>
      </trkpt>
      <trkpt lat="39.913896771942554" lon="116.1821334114905">
        <ele>68.209228515625</ele>
        <time>2026-08-06T12:26:21Z</time>
      </trkpt>
      <trkpt lat="39.91392295844011" lon="116.18223969221629">
        <ele>69.702392578125</ele>
        <time>2026-08-06T12:26:27Z</time>
      </trkpt>
      <trkpt lat="39.91392365624204" lon="116.18263574875996">
        <ele>69.72296142578125</ele>
        <time>2026-08-06T12:26:51Z</time>
      </trkpt>
      <trkpt lat="39.91393199612841" lon="116.18282926298411">
        <ele>69.739501953125</ele>
        <time>2026-08-06T12:27:03Z</time>
      </trkpt>
      <trkpt lat="39.91390536514947" lon="116.18303882356354">
        <ele>68.27178955078125</ele>
        <time>2026-08-06T12:27:15Z</time>
      </trkpt>
      <trkpt lat="39.9139305381547" lon="116.18313808407702">
        <ele>69.3404541015625</ele>
        <time>2026-08-06T12:27:21Z</time>
      </trkpt>
      <trkpt lat="39.913934161110475" lon="116.18349402764892">
        <ele>68.5220947265625</ele>
        <time>2026-08-06T12:27:36Z</time>
      </trkpt>
      <trkpt lat="39.913954521052865" lon="116.18370057182098">
        <ele>71.00970458984375</ele>
        <time>2026-08-06T12:27:42Z</time>
      </trkpt>
      <trkpt lat="39.913916937018406" lon="116.1839382045592">
        <ele>72.1585693359375</ele>
        <time>2026-08-06T12:27:54Z</time>
      </trkpt>
      <trkpt lat="39.913916937018406" lon="116.1839382045592">
        <ele>72.1585693359375</ele>
        <time>2026-08-06T12:27:56Z</time>
      </trkpt>
    </trkseg>
  </trk>
</gpx>