<?xml version="1.0" encoding="UTF-8"?>
<gpx xmlns="http://www.topografix.com/GPX/1/1" xmlns:gpxtpx="http://www.garmin.com/xmlschemas/TrackPointExtension/v1" xmlns:xsi="http://www.w3.org/2001/XMLSchema-instance" xsi:schemaLocation="http://www.topografix.com/GPX/1/1 http://www.topografix.com/GPX/1/1/gpx.xsd" version="1.1" creator="gpx.py -- https://github.com/tkrajina/gpxpy">
  <trk>
    <name>gpx from keep</name>
    <type>Run</type>
    <trkseg>
      <trkpt lat="38.868993770484536" lon="115.47666562690544">
        <ele>4.0440673828125</ele>
        <time>2026-09-05T12:58:46Z</time>
      </trkpt>
      <trkpt lat="38.86900305600118" lon="115.47676701118402">
        <ele>7.972808837890625</ele>
        <time>2026-09-05T12:58:52Z</time>
      </trkpt>
      <trkpt lat="38.86894647941273" lon="115.47690353741713">
        <ele>9.260955810546875</ele>
        <time>2026-09-05T12:59:01Z</time>
      </trkpt>
      <trkpt lat="38.8689741528589" lon="115.47714344743483">
        <ele>10.59112548828125</ele>
        <time>2026-09-05T12:59:19Z</time>
      </trkpt>
      <trkpt lat="38.86900337592044" lon="115.4772267613087">
        <ele>11.19476318359375</ele>
        <time>2026-09-05T12:59:25Z</time>
      </trkpt>
      <trkpt lat="38.869003401089955" lon="115.47758312056088">
        <ele>10.948272705078125</ele>
        <time>2026-09-05T12:59:49Z</time>
      </trkpt>
      <trkpt lat="38.86899427965213" lon="115.4778862798143">
        <ele>10.671630859375</ele>
        <time>2026-09-05T13:00:07Z</time>
      </trkpt>
      <trkpt lat="38.86902557186136" lon="115.47799368669968">
        <ele>10.932403564453125</ele>
        <time>2026-09-05T13:00:13Z</time>
      </trkpt>
      <trkpt lat="38.86900374626277" lon="115.47839623044354">
        <ele>11.76446533203125</ele>
        <time>2026-09-05T13:00:31Z</time>
      </trkpt>
      <trkpt lat="38.86899423038872" lon="115.4785618665314">
        <ele>10.3052978515625</ele>
        <time>2026-09-05T13:00:40Z</time>
      </trkpt>
      <trkpt lat="38.86900956150617" lon="115.4786793151511">
        <ele>9.831390380859375</ele>
        <time>2026-09-05T13:00:46Z</time>
      </trkpt>
      <trkpt lat="38.86906585239411" lon="115.47879073585985">
        <ele>10.220123291015625</ele>
        <time>2026-09-05T13:00:52Z</time>
      </trkpt>
      <trkpt lat="38.86916794044771" lon="115.47884091602353">
        <ele>10.786376953125</ele>
        <time>2026-09-05T13:00:58Z</time>
      </trkpt>
      <trkpt lat="38.86945579063318" lon="115.47884489612674">
        <ele>9.540283203125</ele>
        <time>2026-09-05T13:01:13Z</time>
      </trkpt>
      <trkpt lat="38.869750970965306" lon="115.47896431869287">
        <ele>7.239715576171875</ele>
        <time>2026-09-05T13:01:28Z</time>
      </trkpt>
      <trkpt lat="38.870029053381245" lon="115.4790466008521">
        <ele>9.067779541015625</ele>
        <time>2026-09-05T13:01:43Z</time>
      </trkpt>
      <trkpt lat="38.87015587748422" lon="115.47901044642803">
        <ele>10.09735107421875</ele>
        <time>2026-09-05T13:01:49Z</time>
      </trkpt>
      <trkpt lat="38.87024758465225" lon="115.47892711509691">
        <ele>10.212127685546875</ele>
        <time>2026-09-05T13:01:55Z</time>
      </trkpt>
      <trkpt lat="38.87029817259324" lon="115.47879460008562">
        <ele>9.5509033203125</ele>
        <time>2026-09-05T13:02:01Z</time>
      </trkpt>
      <trkpt lat="38.870336079959266" lon="115.47842417467058">
        <ele>6.339508056640625</ele>
        <time>2026-09-05T13:02:16Z</time>
      </trkpt>
      <trkpt lat="38.87033999943807" lon="115.47805074426839">
        <ele>7.930023193359375</ele>
        <time>2026-09-05T13:02:31Z</time>
      </trkpt>
      <trkpt lat="38.870449884335855" lon="115.4776853339872">
        <ele>7.628265380859375</ele>
        <time>2026-09-05T13:02:46Z</time>
      </trkpt>
      <trkpt lat="38.87050822152875" lon="115.47746649142996">
        <ele>5.392578125</ele>
        <time>2026-09-05T13:02:55Z</time>
      </trkpt>
      <trkpt lat="38.87051833543073" lon="115.47716032286498">
        <ele>6.07733154296875</ele>
        <time>2026-09-05T13:03:07Z</time>
      </trkpt>
      <trkpt lat="38.87059527195085" lon="115.47680496073471">
        <ele>5.002410888671875</ele>
        <time>2026-09-05T13:03:22Z</time>
      </trkpt>
      <trkpt lat="38.87061743361268" lon="115.47651686309204">
        <ele>5.8194580078125</ele>
        <time>2026-09-05T13:03:34Z</time>
      </trkpt>
      <trkpt lat="38.87060421103227" lon="115.47643655979378">
        <ele>5.661163330078125</ele>
        <time>2026-09-05T13:03:37Z</time>
      </trkpt>
      <trkpt lat="38.8705089800078" lon="115.4763371943206">
        <ele>6.908294677734375</ele>
        <time>2026-09-05T13:03:43Z</time>
      </trkpt>
      <trkpt lat="38.87038695372658" lon="115.47630408362731">
        <ele>8.366241455078125</ele>
        <time>2026-09-05T13:03:49Z</time>
      </trkpt>
      <trkpt lat="38.87010730897182" lon="115.47637338078233">
        <ele>9.004364013671875</ele>
        <time>2026-09-05T13:04:04Z</time>
      </trkpt>
      <trkpt lat="38.870028499781725" lon="115.47642458477097">
        <ele>8.269805908203125</ele>
        <time>2026-09-05T13:04:10Z</time>
      </trkpt>
      <trkpt lat="38.869943826184354" lon="115.47652196487799">
        <ele>8.649688720703125</ele>
        <time>2026-09-05T13:04:16Z</time>
      </trkpt>
      <trkpt lat="38.869839074799756" lon="115.47658822939954">
        <ele>8.406707763671875</ele>
        <time>2026-09-05T13:04:22Z</time>
      </trkpt>
      <trkpt lat="38.869657168240614" lon="115.47658524029715">
        <ele>7.20513916015625</ele>
        <time>2026-09-05T13:04:31Z</time>
      </trkpt>
      <trkpt lat="38.86958727074466" lon="115.47660733278354">
        <ele>8.777557373046875</ele>
        <time>2026-09-05T13:04:34Z</time>
      </trkpt>
      <trkpt lat="38.869536250461486" lon="115.47659027421396">
        <ele>10.97991943359375</ele>
        <time>2026-09-05T13:04:40Z</time>
      </trkpt>
      <trkpt lat="38.86939344276951" lon="115.4766294404974">
        <ele>11.705963134765625</ele>
        <time>2026-09-05T13:04:46Z</time>
      </trkpt>
      <trkpt lat="38.86916547567862" lon="115.4765963426269">
        <ele>12.189697265625</ele>
        <time>2026-09-05T13:04:55Z</time>
      </trkpt>
      <trkpt lat="38.86902069208395" lon="115.47664353967289">
        <ele>10.152435302734375</ele>
        <time>2026-09-05T13:05:01Z</time>
      </trkpt>
      <trkpt lat="38.868965863834106" lon="115.47669273334579">
        <ele>9.96453857421875</ele>
        <time>2026-09-05T13:05:04Z</time>
      </trkpt>
      <trkpt lat="38.86890729973864" lon="115.47683327490428">
        <ele>8.66162109375</ele>
        <time>2026-09-05T13:05:10Z</time>
      </trkpt>
      <trkpt lat="38.86890579039588" lon="115.47700392446414">
        <ele>9.83575439453125</ele>
        <time>2026-09-05T13:05:16Z</time>
      </trkpt>
      <trkpt lat="38.86898159303398" lon="115.47729803564789">
        <ele>10.59698486328125</ele>
        <time>2026-09-05T13:05:28Z</time>
      </trkpt>
      <trkpt lat="38.86898864640463" lon="115.47766543666889">
        <ele>11.1485595703125</ele>
        <time>2026-09-05T13:05:43Z</time>
      </trkpt>
      <trkpt lat="38.86902267194472" lon="115.47802781760932">
        <ele>11.074920654296875</ele>
        <time>2026-09-05T13:05:58Z</time>
      </trkpt>
      <trkpt lat="38.86904085870768" lon="115.47809607654656">
        <ele>10.307861328125</ele>
        <time>2026-09-05T13:06:01Z</time>
      </trkpt>
      <trkpt lat="38.86898380385665" lon="115.47841229443787">
        <ele>4.75555419921875</ele>
        <time>2026-09-05T13:06:16Z</time>
      </trkpt>
      <trkpt lat="38.86898203986194" lon="115.47849360630597">
        <ele>3.78289794921875</ele>
        <time>2026-09-05T13:06:19Z</time>
      </trkpt>
      <trkpt lat="38.86899928851441" lon="115.47858294675255">
        <ele>4.48388671875</ele>
        <time>2026-09-05T13:06:22Z</time>
      </trkpt>
      <trkpt lat="38.869040555745805" lon="115.47868332675435">
        <ele>7.23492431640625</ele>
        <time>2026-09-05T13:06:25Z</time>
      </trkpt>
      <trkpt lat="38.869094737413874" lon="115.47875660131264">
        <ele>7.925811767578125</ele>
        <time>2026-09-05T13:06:28Z</time>
      </trkpt>
      <trkpt lat="38.869157841493816" lon="115.47880477852279">
        <ele>8.9212646484375</ele>
        <time>2026-09-05T13:06:31Z</time>
      </trkpt>
      <trkpt lat="38.86944280953997" lon="115.4788489131365">
        <ele>14.211669921875</ele>
        <time>2026-09-05T13:06:46Z</time>
      </trkpt>
      <trkpt lat="38.8697579757581" lon="115.47896732940251">
        <ele>8.95867919921875</ele>
        <time>2026-09-05T13:07:01Z</time>
      </trkpt>
      <trkpt lat="38.87002898942759" lon="115.47902451599496">
        <ele>10.779937744140625</ele>
        <time>2026-09-05T13:07:16Z</time>
      </trkpt>
      <trkpt lat="38.87015285882091" lon="115.47900341979916">
        <ele>10.733551025390625</ele>
        <time>2026-09-05T13:07:22Z</time>
      </trkpt>
      <trkpt lat="38.87024655615727" lon="115.47891707666697">
        <ele>11.2305908203125</ele>
        <time>2026-09-05T13:07:28Z</time>
      </trkpt>
      <trkpt lat="38.87032854561995" lon="115.47858378750732">
        <ele>6.6494140625</ele>
        <time>2026-09-05T13:07:43Z</time>
      </trkpt>
      <trkpt lat="38.87035341780298" lon="115.4781983073806">
        <ele>7.668609619140625</ele>
        <time>2026-09-05T13:07:58Z</time>
      </trkpt>
      <trkpt lat="38.870413347417035" lon="115.47783892529652">
        <ele>7.157958984375</ele>
        <time>2026-09-05T13:08:13Z</time>
      </trkpt>
      <trkpt lat="38.87046191228133" lon="115.47769737852099">
        <ele>5.71673583984375</ele>
        <time>2026-09-05T13:08:19Z</time>
      </trkpt>
      <trkpt lat="38.87050681803458" lon="115.47732595556815">
        <ele>6.1346435546875</ele>
        <time>2026-09-05T13:08:34Z</time>
      </trkpt>
      <trkpt lat="38.870555691707615" lon="115.47694349263138">
        <ele>6.785736083984375</ele>
        <time>2026-09-05T13:08:49Z</time>
      </trkpt>
      <trkpt lat="38.87060659788076" lon="115.47657207412846">
        <ele>4.68035888671875</ele>
        <time>2026-09-05T13:09:04Z</time>
      </trkpt>
      <trkpt lat="38.8705891706148" lon="115.47641949686097">
        <ele>6.95843505859375</ele>
        <time>2026-09-05T13:09:10Z</time>
      </trkpt>
      <trkpt lat="38.87053402628042" lon="115.47635827123408">
        <ele>7.864501953125</ele>
        <time>2026-09-05T13:09:13Z</time>
      </trkpt>
      <trkpt lat="38.870411956922915" lon="115.47631010340582">
        <ele>8.74261474609375</ele>
        <time>2026-09-05T13:09:19Z</time>
      </trkpt>
      <trkpt lat="38.87012532184984" lon="115.47638140904675">
        <ele>8.5679931640625</ele>
        <time>2026-09-05T13:09:34Z</time>
      </trkpt>
      <trkpt lat="38.87001751457068" lon="115.47642759755162">
        <ele>10.185760498046875</ele>
        <time>2026-09-05T13:09:40Z</time>
      </trkpt>
      <trkpt lat="38.86994479688305" lon="115.47651192663612">
        <ele>9.07818603515625</ele>
        <time>2026-09-05T13:09:46Z</time>
      </trkpt>
      <trkpt lat="38.869832026977306" lon="115.47657016162285">
        <ele>8.926666259765625</ele>
        <time>2026-09-05T13:09:52Z</time>
      </trkpt>
      <trkpt lat="38.86977509056845" lon="115.47658121056202">
        <ele>8.409454345703125</ele>
        <time>2026-09-05T13:09:55Z</time>
      </trkpt>
      <trkpt lat="38.869634089144874" lon="115.47655312110723">
        <ele>9.587738037109375</ele>
        <time>2026-09-05T13:10:01Z</time>
      </trkpt>
      <trkpt lat="38.86957116471478" lon="115.47656718221756">
        <ele>10.04150390625</ele>
        <time>2026-09-05T13:10:04Z</time>
      </trkpt>
      <trkpt lat="38.86953128201622" lon="115.47660031296155">
        <ele>11.30584716796875</ele>
        <time>2026-09-05T13:10:07Z</time>
      </trkpt>
      <trkpt lat="38.86952581922078" lon="115.47643769604285">
        <ele>8.3050537109375</ele>
        <time>2026-09-05T13:10:31Z</time>
      </trkpt>
      <trkpt lat="38.86959399388874" lon="115.47616264426455">
        <ele>9.35150146484375</ele>
        <time>2026-09-05T13:10:43Z</time>
      </trkpt>
      <trkpt lat="38.86959784464556" lon="115.47576112322723">
        <ele>7.1845703125</ele>
        <time>2026-09-05T13:11:04Z</time>
      </trkpt>
      <trkpt lat="38.86959665340662" lon="115.4756938689912">
        <ele>7.26617431640625</ele>
        <time>2026-09-05T13:11:07Z</time>
      </trkpt>
      <trkpt lat="38.86963406281769" lon="115.47549410937557">
        <ele>8.007354736328125</ele>
        <time>2026-09-05T13:11:22Z</time>
      </trkpt>
      <trkpt lat="38.86981376748289" lon="115.47542582948417">
        <ele>5.89892578125</ele>
        <time>2026-09-05T13:11:34Z</time>
      </trkpt>
      <trkpt lat="38.869990742522695" lon="115.47545190630531">
        <ele>7.618927001953125</ele>
        <time>2026-09-05T13:11:43Z</time>
      </trkpt>
      <trkpt lat="38.870265551077175" lon="115.47543882325735">
        <ele>7.436309814453125</ele>
        <time>2026-09-05T13:12:01Z</time>
      </trkpt>
      <trkpt lat="38.870430555678375" lon="115.47547293188912">
        <ele>6.1448974609375</ele>
        <time>2026-09-05T13:12:10Z</time>
      </trkpt>
      <trkpt lat="38.8704904991331" lon="115.47546489419156">
        <ele>6.63885498046875</ele>
        <time>2026-09-05T13:12:13Z</time>
      </trkpt>
      <trkpt lat="38.87055934606491" lon="115.47542473408858">
        <ele>9.31451416015625</ele>
        <time>2026-09-05T13:12:16Z</time>
      </trkpt>
      <trkpt lat="38.87074628682392" lon="115.47544077177368">
        <ele>6.204376220703125</ele>
        <time>2026-09-05T13:12:25Z</time>
      </trkpt>
      <trkpt lat="38.87097134346037" lon="115.47550498679018">
        <ele>8.590057373046875</ele>
        <time>2026-09-05T13:12:37Z</time>
      </trkpt>
      <trkpt lat="38.871143186820106" lon="115.47548388604169">
        <ele>7.34039306640625</ele>
        <time>2026-09-05T13:12:46Z</time>
      </trkpt>
      <trkpt lat="38.87125816225383" lon="115.47549792500413">
        <ele>10.459014892578125</ele>
        <time>2026-09-05T13:12:52Z</time>
      </trkpt>
      <trkpt lat="38.87142000262705" lon="115.47547381411171">
        <ele>10.865386962890625</ele>
        <time>2026-09-05T13:13:01Z</time>
      </trkpt>
      <trkpt lat="38.87146389786186" lon="115.47544570255758">
        <ele>9.150787353515625</ele>
        <time>2026-09-05T13:13:04Z</time>
      </trkpt>
      <trkpt lat="38.87172380893207" lon="115.47546574644988">
        <ele>7.583282470703125</ele>
        <time>2026-09-05T13:13:19Z</time>
      </trkpt>
      <trkpt lat="38.87191461867714" lon="115.475436613057">
        <ele>9.427337646484375</ele>
        <time>2026-09-05T13:13:28Z</time>
      </trkpt>
      <trkpt lat="38.87198360275618" lon="115.47544463490948">
        <ele>11.38177490234375</ele>
        <time>2026-09-05T13:13:31Z</time>
      </trkpt>
      <trkpt lat="38.87209475192085" lon="115.4755189018556">
        <ele>11.898895263671875</ele>
        <time>2026-09-05T13:13:37Z</time>
      </trkpt>
      <trkpt lat="38.87220180901382" lon="115.47556004421908">
        <ele>10.33477783203125</ele>
        <time>2026-09-05T13:13:43Z</time>
      </trkpt>
      <trkpt lat="38.87228925799226" lon="115.47573469385479">
        <ele>9.770111083984375</ele>
        <time>2026-09-05T13:13:52Z</time>
      </trkpt>
      <trkpt lat="38.872347305538305" lon="115.47576279304825">
        <ele>10.5986328125</ele>
        <time>2026-09-05T13:13:55Z</time>
      </trkpt>
      <trkpt lat="38.872411636153906" lon="115.47589127140297">
        <ele>8.224853515625</ele>
        <time>2026-09-05T13:14:01Z</time>
      </trkpt>
      <trkpt lat="38.87251677195426" lon="115.47595951694485">
        <ele>8.168121337890625</ele>
        <time>2026-09-05T13:14:07Z</time>
      </trkpt>
      <trkpt lat="38.8725339487171" lon="115.47602476197613">
        <ele>8.50042724609375</ele>
        <time>2026-09-05T13:14:10Z</time>
      </trkpt>
      <trkpt lat="38.872382016136946" lon="115.47636808235336">
        <ele>7.147979736328125</ele>
        <time>2026-09-05T13:14:25Z</time>
      </trkpt>
      <trkpt lat="38.87224915220251" lon="115.47673850570067">
        <ele>6.739532470703125</ele>
        <time>2026-09-05T13:14:40Z</time>
      </trkpt>
      <trkpt lat="38.872227397667636" lon="115.47681981758153">
        <ele>6.874603271484375</ele>
        <time>2026-09-05T13:14:43Z</time>
      </trkpt>
      <trkpt lat="38.87219555671328" lon="115.47686900860464">
        <ele>6.0113525390625</ele>
        <time>2026-09-05T13:14:46Z</time>
      </trkpt>
      <trkpt lat="38.87208763224188" lon="115.47722236734428">
        <ele>5.34375</ele>
        <time>2026-09-05T13:15:01Z</time>
      </trkpt>
      <trkpt lat="38.87195884546816" lon="115.47761889574468">
        <ele>3.465972900390625</ele>
        <time>2026-09-05T13:15:19Z</time>
      </trkpt>
      <trkpt lat="38.871832923051244" lon="115.47796824616309">
        <ele>4.437469482421875</ele>
        <time>2026-09-05T13:15:34Z</time>
      </trkpt>
      <trkpt lat="38.87170367358118" lon="115.47820316088827">
        <ele>8.998260498046875</ele>
        <time>2026-09-05T13:15:43Z</time>
      </trkpt>
      <trkpt lat="38.87158278865963" lon="115.47856556431124">
        <ele>9.556793212890625</ele>
        <time>2026-09-05T13:15:58Z</time>
      </trkpt>
      <trkpt lat="38.87152737739008" lon="115.47875831055588">
        <ele>8.04547119140625</ele>
        <time>2026-09-05T13:16:07Z</time>
      </trkpt>
      <trkpt lat="38.87139135797796" lon="115.47907052631867">
        <ele>8.9334716796875</ele>
        <time>2026-09-05T13:16:22Z</time>
      </trkpt>
      <trkpt lat="38.87126735336227" lon="115.47938976926262">
        <ele>9.39373779296875</ele>
        <time>2026-09-05T13:16:37Z</time>
      </trkpt>
      <trkpt lat="38.871123486521014" lon="115.47975218265778">
        <ele>3.840667724609375</ele>
        <time>2026-09-05T13:16:55Z</time>
      </trkpt>
      <trkpt lat="38.87108968347976" lon="115.47981342285738">
        <ele>3.68939208984375</ele>
        <time>2026-09-05T13:16:58Z</time>
      </trkpt>
      <trkpt lat="38.8709598046771" lon="115.48017382921284">
        <ele>6.299224853515625</ele>
        <time>2026-09-05T13:17:13Z</time>
      </trkpt>
      <trkpt lat="38.870817840478345" lon="115.48050211485555">
        <ele>2.570709228515625</ele>
        <time>2026-09-05T13:17:28Z</time>
      </trkpt>
      <trkpt lat="38.87067699983611" lon="115.48087256520253">
        <ele>4.079254150390625</ele>
        <time>2026-09-05T13:17:43Z</time>
      </trkpt>
      <trkpt lat="38.87055315695345" lon="115.48124502326704">
        <ele>5.076629638671875</ele>
        <time>2026-09-05T13:17:58Z</time>
      </trkpt>
      <trkpt lat="38.870474787844785" lon="115.48144581153565">
        <ele>2.853424072265625</ele>
        <time>2026-09-05T13:18:07Z</time>
      </trkpt>
      <trkpt lat="38.87031487920322" lon="115.48178816006202">
        <ele>5.72314453125</ele>
        <time>2026-09-05T13:18:22Z</time>
      </trkpt>
      <trkpt lat="38.87018701843856" lon="115.48215259216951">
        <ele>4.195037841796875</ele>
        <time>2026-09-05T13:18:40Z</time>
      </trkpt>
      <trkpt lat="38.870062080702084" lon="115.48249092405788">
        <ele>5.49395751953125</ele>
        <time>2026-09-05T13:18:58Z</time>
      </trkpt>
      <trkpt lat="38.869914336704255" lon="115.48289049897181">
        <ele>7.91009521484375</ele>
        <time>2026-09-05T13:19:22Z</time>
      </trkpt>
      <trkpt lat="38.86976847791227" lon="115.48325092283237">
        <ele>6.89044189453125</ele>
        <time>2026-09-05T13:19:43Z</time>
      </trkpt>
      <trkpt lat="38.86962356059493" lon="115.4835912697098">
        <ele>5.795623779296875</ele>
        <time>2026-09-05T13:20:01Z</time>
      </trkpt>
      <trkpt lat="38.86952342980624" lon="115.4838673611898">
        <ele>4.163604736328125</ele>
        <time>2026-09-05T13:20:13Z</time>
      </trkpt>
      <trkpt lat="38.86934513630247" lon="115.48407318810264">
        <ele>3.730377197265625</ele>
        <time>2026-09-05T13:20:25Z</time>
      </trkpt>
      <trkpt lat="38.86926008992146" lon="115.48438040114956">
        <ele>4.66461181640625</ele>
        <time>2026-09-05T13:20:37Z</time>
      </trkpt>
      <trkpt lat="38.8691110742086" lon="115.48468561520026">
        <ele>4.22845458984375</ele>
        <time>2026-09-05T13:20:49Z</time>
      </trkpt>
      <trkpt lat="38.868988139484316" lon="115.4850229530991">
        <ele>7.252716064453125</ele>
        <time>2026-09-05T13:21:01Z</time>
      </trkpt>
      <trkpt lat="38.8689368418384" lon="115.48525085376518">
        <ele>5.7911376953125</ele>
        <time>2026-09-05T13:21:10Z</time>
      </trkpt>
      <trkpt lat="38.86890105484798" lon="115.48531611434416">
        <ele>4.68914794921875</ele>
        <time>2026-09-05T13:21:13Z</time>
      </trkpt>
      <trkpt lat="38.868781395069014" lon="115.48540849167851">
        <ele>6.74658203125</ele>
        <time>2026-09-05T13:21:19Z</time>
      </trkpt>
      <trkpt lat="38.8686045605965" lon="115.48576892942206">
        <ele>8.8623046875</ele>
        <time>2026-09-05T13:21:34Z</time>
      </trkpt>
      <trkpt lat="38.868571795912395" lon="115.48584222154051">
        <ele>9.505096435546875</ele>
        <time>2026-09-05T13:21:37Z</time>
      </trkpt>
      <trkpt lat="38.868454447323714" lon="115.48604001365268">
        <ele>10.3494873046875</ele>
        <time>2026-09-05T13:21:46Z</time>
      </trkpt>
      <trkpt lat="38.86842767346054" lon="115.48611129732677">
        <ele>10.19769287109375</ele>
        <time>2026-09-05T13:21:49Z</time>
      </trkpt>
      <trkpt lat="38.868426105630526" lon="115.4862568703127">
        <ele>9.28082275390625</ele>
        <time>2026-09-05T13:21:55Z</time>
      </trkpt>
      <trkpt lat="38.86830121123534" lon="115.48660626107467">
        <ele>6.065185546875</ele>
        <time>2026-09-05T13:22:10Z</time>
      </trkpt>
      <trkpt lat="38.8682664480475" lon="115.48667955399915">
        <ele>7.02581787109375</ele>
        <time>2026-09-05T13:22:13Z</time>
      </trkpt>
      <trkpt lat="38.868177450981285" lon="115.48700083084704">
        <ele>10.384735107421875</ele>
        <time>2026-09-05T13:22:25Z</time>
      </trkpt>
      <trkpt lat="38.86812890724842" lon="115.4871454067504">
        <ele>9.525665283203125</ele>
        <time>2026-09-05T13:22:31Z</time>
      </trkpt>
      <trkpt lat="38.868145100837715" lon="115.48721367398336">
        <ele>9.172607421875</ele>
        <time>2026-09-05T13:22:34Z</time>
      </trkpt>
      <trkpt lat="38.86812532056344" lon="115.48728395357104">
        <ele>8.9212646484375</ele>
        <time>2026-09-05T13:22:37Z</time>
      </trkpt>
      <trkpt lat="38.8680682690555" lon="115.4872558496713">
        <ele>8.4659423828125</ele>
        <time>2026-09-05T13:22:46Z</time>
      </trkpt>
      <trkpt lat="38.86777893039872" lon="115.48708721993702">
        <ele>9.919830322265625</ele>
        <time>2026-09-05T13:23:01Z</time>
      </trkpt>
      <trkpt lat="38.86748868767868" lon="115.48695071717559">
        <ele>11.966552734375</ele>
        <time>2026-09-05T13:23:16Z</time>
      </trkpt>
      <trkpt lat="38.86722149168162" lon="115.48683429087727">
        <ele>10.00408935546875</ele>
        <time>2026-09-05T13:23:31Z</time>
      </trkpt>
      <trkpt lat="38.86708531473419" lon="115.48674897129153">
        <ele>7.5052490234375</ele>
        <time>2026-09-05T13:23:40Z</time>
      </trkpt>
      <trkpt lat="38.866807187440976" lon="115.4866536295783">
        <ele>9.612640380859375</ele>
        <time>2026-09-05T13:23:55Z</time>
      </trkpt>
      <trkpt lat="38.866702094380194" lon="115.48660244076038">
        <ele>10.535888671875</ele>
        <time>2026-09-05T13:24:01Z</time>
      </trkpt>
      <trkpt lat="38.86660891132382" lon="115.48652313981438">
        <ele>6.0548095703125</ele>
        <time>2026-09-05T13:24:07Z</time>
      </trkpt>
      <trkpt lat="38.86633275024161" lon="115.4864167545798">
        <ele>5.539093017578125</ele>
        <time>2026-09-05T13:24:22Z</time>
      </trkpt>
      <trkpt lat="38.86603462228221" lon="115.48631739979524">
        <ele>6.896759033203125</ele>
        <time>2026-09-05T13:24:37Z</time>
      </trkpt>
      <trkpt lat="38.86583639687382" lon="115.48620397758266">
        <ele>4.2095947265625</ele>
        <time>2026-09-05T13:24:49Z</time>
      </trkpt>
      <trkpt lat="38.86553317366244" lon="115.48607149329493">
        <ele>6.75970458984375</ele>
        <time>2026-09-05T13:25:04Z</time>
      </trkpt>
      <trkpt lat="38.86526287861076" lon="115.4859209340896">
        <ele>5.862152099609375</ele>
        <time>2026-09-05T13:25:19Z</time>
      </trkpt>
      <trkpt lat="38.865151845473704" lon="115.48588882134702">
        <ele>6.267120361328125</ele>
        <time>2026-09-05T13:25:25Z</time>
      </trkpt>
      <trkpt lat="38.86510077589223" lon="115.48585569733503">
        <ele>5.63671875</ele>
        <time>2026-09-05T13:25:28Z</time>
      </trkpt>
      <trkpt lat="38.86486269181396" lon="115.48578243834305">
        <ele>7.717132568359375</ele>
        <time>2026-09-05T13:25:40Z</time>
      </trkpt>
      <trkpt lat="38.86476656715667" lon="115.48572221333775">
        <ele>5.888092041015625</ele>
        <time>2026-09-05T13:25:46Z</time>
      </trkpt>
      <trkpt lat="38.86466148910801" lon="115.48567604469575">
        <ele>5.393890380859375</ele>
        <time>2026-09-05T13:25:52Z</time>
      </trkpt>
      <trkpt lat="38.86454750516203" lon="115.4856599955123">
        <ele>7.37115478515625</ele>
        <time>2026-09-05T13:26:01Z</time>
      </trkpt>
      <trkpt lat="38.864519351531115" lon="115.48560277410151">
        <ele>6.409332275390625</ele>
        <time>2026-09-05T13:26:07Z</time>
      </trkpt>
      <trkpt lat="38.8642370337824" lon="115.48544217763413">
        <ele>8.9332275390625</ele>
        <time>2026-09-05T13:26:25Z</time>
      </trkpt>
      <trkpt lat="38.86396163216069" lon="115.48525447417342">
        <ele>9.620025634765625</ele>
        <time>2026-09-05T13:26:46Z</time>
      </trkpt>
      <trkpt lat="38.86369921163663" lon="115.48506275373387">
        <ele>9.4381103515625</ele>
        <time>2026-09-05T13:27:07Z</time>
      </trkpt>
      <trkpt lat="38.863419806726746" lon="115.48487304363367">
        <ele>8.387908935546875</ele>
        <time>2026-09-05T13:27:28Z</time>
      </trkpt>
      <trkpt lat="38.863175465498095" lon="115.48471143981293">
        <ele>8.42303466796875</ele>
        <time>2026-09-05T13:27:46Z</time>
      </trkpt>
      <trkpt lat="38.86289604914399" lon="115.4845177147043">
        <ele>8.9052734375</ele>
        <time>2026-09-05T13:28:07Z</time>
      </trkpt>
      <trkpt lat="38.86261564542132" lon="115.4843280058577">
        <ele>9.04095458984375</ele>
        <time>2026-09-05T13:28:28Z</time>
      </trkpt>
      <trkpt lat="38.862341223800904" lon="115.48413327704283">
        <ele>6.531219482421875</ele>
        <time>2026-09-05T13:28:49Z</time>
      </trkpt>
      <trkpt lat="38.86227303682211" lon="115.48405698683518">
        <ele>5.1494140625</ele>
        <time>2026-09-05T13:28:55Z</time>
      </trkpt>
      <trkpt lat="38.86200565896694" lon="115.483878320579">
        <ele>6.616607666015625</ele>
        <time>2026-09-05T13:29:13Z</time>
      </trkpt>
      <trkpt lat="38.86193057355606" lon="115.48383516096993">
        <ele>7.760467529296875</ele>
        <time>2026-09-05T13:29:19Z</time>
      </trkpt>
      <trkpt lat="38.861902352689164" lon="115.4837548504397">
        <ele>7.3211669921875</ele>
        <time>2026-09-05T13:29:25Z</time>
      </trkpt>
      <trkpt lat="38.86198008905324" lon="115.48334022120272">
        <ele>9.358306884765625</ele>
        <time>2026-09-05T13:29:49Z</time>
      </trkpt>
      <trkpt lat="38.862030237556304" lon="115.48306012205002">
        <ele>10.36376953125</ele>
        <time>2026-09-05T13:30:04Z</time>
      </trkpt>
      <trkpt lat="38.862124220858846" lon="115.48273183073185">
        <ele>12.10498046875</ele>
        <time>2026-09-05T13:30:22Z</time>
      </trkpt>
      <trkpt lat="38.86219800731626" lon="115.48233226587193">
        <ele>9.912841796875</ele>
        <time>2026-09-05T13:30:40Z</time>
      </trkpt>
      <trkpt lat="38.862230641822116" lon="115.48221380100364">
        <ele>9.79290771484375</ele>
        <time>2026-09-05T13:30:46Z</time>
      </trkpt>
      <trkpt lat="38.86222224927773" lon="115.48207827499276">
        <ele>11.835723876953125</ele>
        <time>2026-09-05T13:30:52Z</time>
      </trkpt>
      <trkpt lat="38.862299203917665" lon="115.48173593541608">
        <ele>12.281005859375</ele>
        <time>2026-09-05T13:31:07Z</time>
      </trkpt>
      <trkpt lat="38.86236210883454" lon="115.48137352131285">
        <ele>13.13519287109375</ele>
        <time>2026-09-05T13:31:25Z</time>
      </trkpt>
      <trkpt lat="38.86237734648426" lon="115.48111551935081">
        <ele>13.514404296875</ele>
        <time>2026-09-05T13:31:37Z</time>
      </trkpt>
      <trkpt lat="38.86248202843934" lon="115.48068383537706">
        <ele>13.92413330078125</ele>
        <time>2026-09-05T13:31:55Z</time>
      </trkpt>
      <trkpt lat="38.862540793477024" lon="115.4802712334677">
        <ele>11.759185791015625</ele>
        <time>2026-09-05T13:32:13Z</time>
      </trkpt>
      <trkpt lat="38.86260757927687" lon="115.47986666415073">
        <ele>13.269775390625</ele>
        <time>2026-09-05T13:32:31Z</time>
      </trkpt>
      <trkpt lat="38.862673355843604" lon="115.47945808207905">
        <ele>9.28741455078125</ele>
        <time>2026-09-05T13:32:49Z</time>
      </trkpt>
      <trkpt lat="38.862759297683404" lon="115.4791097317033">
        <ele>7.747955322265625</ele>
        <time>2026-09-05T13:33:04Z</time>
      </trkpt>
      <trkpt lat="38.862816251301744" lon="115.47875937918167">
        <ele>7.114715576171875</ele>
        <time>2026-09-05T13:33:19Z</time>
      </trkpt>
      <trkpt lat="38.862899067296944" lon="115.47836586017752">
        <ele>7.71923828125</ele>
        <time>2026-09-05T13:33:34Z</time>
      </trkpt>
      <trkpt lat="38.86291755543595" lon="115.47819219286335">
        <ele>9.084716796875</ele>
        <time>2026-09-05T13:33:40Z</time>
      </trkpt>
      <trkpt lat="38.86296308392522" lon="115.47803759571416">
        <ele>8.294189453125</ele>
        <time>2026-09-05T13:33:46Z</time>
      </trkpt>
      <trkpt lat="38.86295780599943" lon="115.4779402239694">
        <ele>7.2169189453125</ele>
        <time>2026-09-05T13:33:49Z</time>
      </trkpt>
      <trkpt lat="38.86299332031577" lon="115.47777860188864">
        <ele>5.119964599609375</ele>
        <time>2026-09-05T13:33:55Z</time>
      </trkpt>
      <trkpt lat="38.86303512060276" lon="115.47771736283707">
        <ele>5.07177734375</ele>
        <time>2026-09-05T13:33:58Z</time>
      </trkpt>
      <trkpt lat="38.86309303051483" lon="115.47769727904982">
        <ele>4.479339599609375</ele>
        <time>2026-09-05T13:34:04Z</time>
      </trkpt>
      <trkpt lat="38.863227034097605" lon="115.47737704052143">
        <ele>6.96331787109375</ele>
        <time>2026-09-05T13:34:46Z</time>
      </trkpt>
      <trkpt lat="38.86334795407423" lon="115.47702468317127">
        <ele>9.089141845703125</ele>
        <time>2026-09-05T13:35:01Z</time>
      </trkpt>
      <trkpt lat="38.86345695144844" lon="115.47669642115791">
        <ele>7.238311767578125</ele>
        <time>2026-09-05T13:35:16Z</time>
      </trkpt>
      <trkpt lat="38.863575898792405" lon="115.47635209902158">
        <ele>5.30450439453125</ele>
        <time>2026-09-05T13:35:34Z</time>
      </trkpt>
      <trkpt lat="38.863687960651724" lon="115.47604592450732">
        <ele>4.062774658203125</ele>
        <time>2026-09-05T13:35:49Z</time>
      </trkpt>
      <trkpt lat="38.86369577558337" lon="115.4759826840134">
        <ele>3.746368408203125</ele>
        <time>2026-09-05T13:35:52Z</time>
      </trkpt>
      <trkpt lat="38.86374649785303" lon="115.47589534712858">
        <ele>4.133331298828125</ele>
        <time>2026-09-05T13:35:58Z</time>
      </trkpt>
      <trkpt lat="38.86377349743053" lon="115.4758112763561">
        <ele>4.480712890625</ele>
        <time>2026-09-05T13:36:04Z</time>
      </trkpt>
      <trkpt lat="38.86385852945271" lon="115.47567492412026">
        <ele>4.04437255859375</ele>
        <time>2026-09-05T13:36:13Z</time>
      </trkpt>
      <trkpt lat="38.863805674211726" lon="115.47561829188402">
        <ele>0.0</ele>
        <time>2026-09-05T13:36:50Z</time>
      </trkpt>
      <trkpt lat="38.864464723051924" lon="115.47541343732792">
        <ele>-86.66375732421875</ele>
        <time>2026-09-05T13:37:05Z</time>
      </trkpt>
      <trkpt lat="38.86444334539686" lon="115.47525742460813">
        <ele>-62.9661865234375</ele>
        <time>2026-09-05T13:37:08Z</time>
      </trkpt>
      <trkpt lat="38.86431554770897" lon="115.47426613712028">
        <ele>0.761077880859375</ele>
        <time>2026-09-05T13:37:19Z</time>
      </trkpt>
      <trkpt lat="38.864432582335944" lon="115.47394792995777">
        <ele>5.618621826171875</ele>
        <time>2026-09-05T13:37:34Z</time>
      </trkpt>
      <trkpt lat="38.8645644715557" lon="115.47358053932813">
        <ele>6.82220458984375</ele>
        <time>2026-09-05T13:37:52Z</time>
      </trkpt>
      <trkpt lat="38.864702416087454" lon="115.47323322579231">
        <ele>7.756500244140625</ele>
        <time>2026-09-05T13:38:10Z</time>
      </trkpt>
      <trkpt lat="38.86489251346509" lon="115.47330547200781">
        <ele>6.883087158203125</ele>
        <time>2026-09-05T13:38:22Z</time>
      </trkpt>
      <trkpt lat="38.86511693117651" lon="115.47349816388858">
        <ele>3.34027099609375</ele>
        <time>2026-09-05T13:38:37Z</time>
      </trkpt>
      <trkpt lat="38.86527502687212" lon="115.47356338821137">
        <ele>5.731048583984375</ele>
        <time>2026-09-05T13:38:46Z</time>
      </trkpt>
      <trkpt lat="38.865513547995505" lon="115.47379522593101">
        <ele>11.690460205078125</ele>
        <time>2026-09-05T13:39:01Z</time>
      </trkpt>
      <trkpt lat="38.86579006008067" lon="115.47403107520617">
        <ele>8.37548828125</ele>
        <time>2026-09-05T13:39:19Z</time>
      </trkpt>
      <trkpt lat="38.8658441348958" lon="115.47406820773703">
        <ele>8.46490478515625</ele>
        <time>2026-09-05T13:39:22Z</time>
      </trkpt>
      <trkpt lat="38.86591238072747" lon="115.47416857565311">
        <ele>6.60821533203125</ele>
        <time>2026-09-05T13:39:28Z</time>
      </trkpt>
      <trkpt lat="38.86620883465094" lon="115.47438736031276">
        <ele>12.92425537109375</ele>
        <time>2026-09-05T13:39:46Z</time>
      </trkpt>
      <trkpt lat="38.86641831796248" lon="115.4745991302709">
        <ele>10.9273681640625</ele>
        <time>2026-09-05T13:40:01Z</time>
      </trkpt>
      <trkpt lat="38.8666194931301" lon="115.47470048676671">
        <ele>11.005218505859375</ele>
        <time>2026-09-05T13:40:10Z</time>
      </trkpt>
      <trkpt lat="38.866665595560654" lon="115.47474565102053">
        <ele>10.490966796875</ele>
        <time>2026-09-05T13:40:13Z</time>
      </trkpt>
      <trkpt lat="38.8667240361047" lon="115.4749122710206">
        <ele>8.4913330078125</ele>
        <time>2026-09-05T13:40:22Z</time>
      </trkpt>
      <trkpt lat="38.86691853800721" lon="115.47512705650846">
        <ele>7.682220458984375</ele>
        <time>2026-09-05T13:40:34Z</time>
      </trkpt>
      <trkpt lat="38.86710782343814" lon="115.47526455191087">
        <ele>11.661712646484375</ele>
        <time>2026-09-05T13:40:43Z</time>
      </trkpt>
      <trkpt lat="38.867180879723286" lon="115.47529867171365">
        <ele>13.03375244140625</ele>
        <time>2026-09-05T13:40:46Z</time>
      </trkpt>
      <trkpt lat="38.867247108515826" lon="115.47539201594473">
        <ele>11.848968505859375</ele>
        <time>2026-09-05T13:40:52Z</time>
      </trkpt>
      <trkpt lat="38.8673782810669" lon="115.47547832583334">
        <ele>12.17425537109375</ele>
        <time>2026-09-05T13:41:04Z</time>
      </trkpt>
      <trkpt lat="38.8673782810669" lon="115.47547832583334">
        <ele>12.17425537109375</ele>
        <time>2026-09-05T13:41:06Z</time>
      </trkpt>
      <trkpt lat="38.86807298653565" lon="115.47551136562554">
        <ele>9.506805419921875</ele>
        <time>2026-09-05T13:43:31Z</time>
      </trkpt>
      <trkpt lat="38.86836182473768" lon="115.47551133014204">
        <ele>11.425201416015625</ele>
        <time>2026-09-05T13:43:49Z</time>
      </trkpt>
      <trkpt lat="38.868542631881695" lon="115.47547918658528">
        <ele>12.0628662109375</ele>
        <time>2026-09-05T13:44:01Z</time>
      </trkpt>
      <trkpt lat="38.86886648470001" lon="115.47549119230084">
        <ele>10.577667236328125</ele>
        <time>2026-09-05T13:44:25Z</time>
      </trkpt>
      <trkpt lat="38.86894842446108" lon="115.4754861632747">
        <ele>10.824981689453125</ele>
        <time>2026-09-05T13:44:31Z</time>
      </trkpt>
      <trkpt lat="38.86901351099536" lon="115.47552931834724">
        <ele>10.279022216796875</ele>
        <time>2026-09-05T13:44:37Z</time>
      </trkpt>
      <trkpt lat="38.869020675824295" lon="115.47558854127357">
        <ele>9.88714599609375</ele>
        <time>2026-09-05T13:44:40Z</time>
      </trkpt>
      <trkpt lat="38.869081847645575" lon="115.47566080697412">
        <ele>9.77801513671875</ele>
        <time>2026-09-05T13:44:46Z</time>
      </trkpt>
      <trkpt lat="38.86924403164542" lon="115.47575715150109">
        <ele>5.723297119140625</ele>
        <time>2026-09-05T13:44:58Z</time>
      </trkpt>
      <trkpt lat="38.86929001158845" lon="115.47575915344751">
        <ele>6.427337646484375</ele>
        <time>2026-09-05T13:45:01Z</time>
      </trkpt>
      <trkpt lat="38.86936209149458" lon="115.47580130410039">
        <ele>7.819122314453125</ele>
        <time>2026-09-05T13:45:07Z</time>
      </trkpt>
      <trkpt lat="38.869386338704125" lon="115.47589264684225">
        <ele>8.4093017578125</ele>
        <time>2026-09-05T13:45:13Z</time>
      </trkpt>
      <trkpt lat="38.86939438437865" lon="115.47626003799321">
        <ele>10.4140625</ele>
        <time>2026-09-05T13:45:34Z</time>
      </trkpt>
      <trkpt lat="38.869404927278964" lon="115.47645176424113">
        <ele>12.1866455078125</ele>
        <time>2026-09-05T13:45:43Z</time>
      </trkpt>
      <trkpt lat="38.86945816770256" lon="115.4765461160207">
        <ele>12.68756103515625</ele>
        <time>2026-09-05T13:45:49Z</time>
      </trkpt>
      <trkpt lat="38.86946634146046" lon="115.47660835144754">
        <ele>13.30120849609375</ele>
        <time>2026-09-05T13:45:52Z</time>
      </trkpt>
      <trkpt lat="38.86943654808084" lon="115.47667460687136">
        <ele>10.767242431640625</ele>
        <time>2026-09-05T13:45:58Z</time>
      </trkpt>
      <trkpt lat="38.869496574847446" lon="115.47669567962502">
        <ele>10.845123291015625</ele>
        <time>2026-09-05T13:46:01Z</time>
      </trkpt>
      <trkpt lat="38.86978018264509" lon="115.47661433579235">
        <ele>11.518707275390625</ele>
        <time>2026-09-05T13:46:19Z</time>
      </trkpt>
      <trkpt lat="38.869903010153905" lon="115.47657818341281">
        <ele>12.8245849609375</ele>
        <time>2026-09-05T13:46:28Z</time>
      </trkpt>
      <trkpt lat="38.8699688207835" lon="115.47652497324567">
        <ele>12.96258544921875</ele>
        <time>2026-09-05T13:46:34Z</time>
      </trkpt>
      <trkpt lat="38.87006742619632" lon="115.47640651140463">
        <ele>12.3939208984375</ele>
        <time>2026-09-05T13:46:46Z</time>
      </trkpt>
      <trkpt lat="38.870335074787995" lon="115.47633621187052">
        <ele>11.49609375</ele>
        <time>2026-09-05T13:47:07Z</time>
      </trkpt>
      <trkpt lat="38.87048909461617" lon="115.47637333389312">
        <ele>10.725677490234375</ele>
        <time>2026-09-05T13:47:19Z</time>
      </trkpt>
      <trkpt lat="38.87055320518539" lon="115.4764245203304">
        <ele>10.479156494140625</ele>
        <time>2026-09-05T13:47:25Z</time>
      </trkpt>
      <trkpt lat="38.87057347268125" lon="115.47652188755261">
        <ele>10.61004638671875</ele>
        <time>2026-09-05T13:47:31Z</time>
      </trkpt>
      <trkpt lat="38.8705416304504" lon="115.47691940267353">
        <ele>9.474517822265625</ele>
        <time>2026-09-05T13:47:55Z</time>
      </trkpt>
      <trkpt lat="38.87047177132329" lon="115.47730287184261">
        <ele>9.044952392578125</ele>
        <time>2026-09-05T13:48:19Z</time>
      </trkpt>
      <trkpt lat="38.87041593809774" lon="115.47769738416419">
        <ele>9.805328369140625</ele>
        <time>2026-09-05T13:48:43Z</time>
      </trkpt>
      <trkpt lat="38.87031607080247" lon="115.47807082402056">
        <ele>10.914031982421875</ele>
        <time>2026-09-05T13:49:01Z</time>
      </trkpt>
      <trkpt lat="38.87027325159936" lon="115.4784713632142">
        <ele>11.000244140625</ele>
        <time>2026-09-05T13:49:19Z</time>
      </trkpt>
      <trkpt lat="38.87025921771001" lon="115.47880263569319">
        <ele>9.193939208984375</ele>
        <time>2026-09-05T13:49:34Z</time>
      </trkpt>
      <trkpt lat="38.87021364150432" lon="115.47894016938656">
        <ele>9.712432861328125</ele>
        <time>2026-09-05T13:49:40Z</time>
      </trkpt>
      <trkpt lat="38.870176793038766" lon="115.47898534744023">
        <ele>9.145538330078125</ele>
        <time>2026-09-05T13:49:43Z</time>
      </trkpt>
      <trkpt lat="38.870070971679866" lon="115.47902651855944">
        <ele>10.23492431640625</ele>
        <time>2026-09-05T13:49:49Z</time>
      </trkpt>
      <trkpt lat="38.86995099248694" lon="115.47901047156252">
        <ele>10.373321533203125</ele>
        <time>2026-09-05T13:49:55Z</time>
      </trkpt>
      <trkpt lat="38.86966292151244" lon="115.4789301983904">
        <ele>9.51702880859375</ele>
        <time>2026-09-05T13:50:10Z</time>
      </trkpt>
      <trkpt lat="38.86942675170447" lon="115.47882582646125">
        <ele>10.46356201171875</ele>
        <time>2026-09-05T13:50:22Z</time>
      </trkpt>
      <trkpt lat="38.86916674352258" lon="115.47877265412494">
        <ele>10.501708984375</ele>
        <time>2026-09-05T13:50:37Z</time>
      </trkpt>
      <trkpt lat="38.869075591285835" lon="115.47870239563768">
        <ele>10.668914794921875</ele>
        <time>2026-09-05T13:50:43Z</time>
      </trkpt>
      <trkpt lat="38.869030436545664" lon="115.47864016239693">
        <ele>9.989105224609375</ele>
        <time>2026-09-05T13:50:46Z</time>
      </trkpt>
      <trkpt lat="38.868999070941996" lon="115.47850765809353">
        <ele>10.1990966796875</ele>
        <time>2026-09-05T13:50:52Z</time>
      </trkpt>
      <trkpt lat="38.86905337044445" lon="115.4782757628912">
        <ele>10.02825927734375</ele>
        <time>2026-09-05T13:51:01Z</time>
      </trkpt>
      <trkpt lat="38.869056142791266" lon="115.47819746273503">
        <ele>8.590484619140625</ele>
        <time>2026-09-05T13:51:04Z</time>
      </trkpt>
      <trkpt lat="38.86897078502544" lon="115.47805693534781">
        <ele>9.859283447265625</ele>
        <time>2026-09-05T13:51:10Z</time>
      </trkpt>
      <trkpt lat="38.86901870184064" lon="115.47769052882641">
        <ele>10.282684326171875</ele>
        <time>2026-09-05T13:51:25Z</time>
      </trkpt>
      <trkpt lat="38.86901791336116" lon="115.47741648289535">
        <ele>10.335052490234375</ele>
        <time>2026-09-05T13:51:37Z</time>
      </trkpt>
    </trkseg>
  </trk>
</gpx>