<?xml version="1.0" encoding="UTF-8"?>
<gpx xmlns="http://www.topografix.com/GPX/1/1" xmlns:gpxtpx="http://www.garmin.com/xmlschemas/TrackPointExtension/v1" xmlns:xsi="http://www.w3.org/2001/XMLSchema-instance" xsi:schemaLocation="http://www.topografix.com/GPX/1/1 http://www.topografix.com/GPX/1/1/gpx.xsd" version="1.1" creator="gpx.py -- https://github.com/tkrajina/gpxpy">
  <trk>
    <name>gpx from keep</name>
    <type>Run</type>
    <trkseg>
      <trkpt lat="39.91271276983027" lon="116.18554557479298">
        <ele>72.322265625</ele>
        <time>2026-08-02T12:14:33Z</time>
      </trkpt>
      <trkpt lat="39.913009745189946" lon="116.18553851919911">
        <ele>69.85992431640625</ele>
        <time>2026-08-02T12:15:03Z</time>
      </trkpt>
      <trkpt lat="39.913065772122884" lon="116.18555555663542">
        <ele>69.938720703125</ele>
        <time>2026-08-02T12:15:09Z</time>
      </trkpt>
      <trkpt lat="39.91307788533632" lon="116.18562172770662">
        <ele>67.5797119140625</ele>
        <time>2026-08-02T12:15:15Z</time>
      </trkpt>
      <trkpt lat="39.913059999753635" lon="116.18568790245415">
        <ele>69.703857421875</ele>
        <time>2026-08-02T12:15:21Z</time>
      </trkpt>
      <trkpt lat="39.91308911727862" lon="116.1857570790461">
        <ele>71.629638671875</ele>
        <time>2026-08-02T12:15:27Z</time>
      </trkpt>
      <trkpt lat="39.91308660885457" lon="116.18604382541864">
        <ele>70.72503662109375</ele>
        <time>2026-08-02T12:15:51Z</time>
      </trkpt>
      <trkpt lat="39.91313569600223" lon="116.1860959547205">
        <ele>70.070068359375</ele>
        <time>2026-08-02T12:15:57Z</time>
      </trkpt>
      <trkpt lat="39.91326070615394" lon="116.18610496246902">
        <ele>68.7476806640625</ele>
        <time>2026-08-02T12:16:12Z</time>
      </trkpt>
      <trkpt lat="39.91343760087913" lon="116.18604779178341">
        <ele>67.95941162109375</ele>
        <time>2026-08-02T12:16:30Z</time>
      </trkpt>
      <trkpt lat="39.91350053471074" lon="116.18601068746437">
        <ele>67.47406005859375</ele>
        <time>2026-08-02T12:16:36Z</time>
      </trkpt>
      <trkpt lat="39.91382955858331" lon="116.18603270349733">
        <ele>71.44342041015625</ele>
        <time>2026-08-02T12:17:00Z</time>
      </trkpt>
      <trkpt lat="39.91389652485977" lon="116.18601464818225">
        <ele>71.5675048828125</ele>
        <time>2026-08-02T12:17:06Z</time>
      </trkpt>
      <trkpt lat="39.91393241688148" lon="116.18595248204929">
        <ele>70.712646484375</ele>
        <time>2026-08-02T12:17:12Z</time>
      </trkpt>
      <trkpt lat="39.91391380005933" lon="116.18559254694043">
        <ele>66.0413818359375</ele>
        <time>2026-08-02T12:17:33Z</time>
      </trkpt>
      <trkpt lat="39.91385526420898" lon="116.18527973742168">
        <ele>58.71734619140625</ele>
        <time>2026-08-02T12:17:48Z</time>
      </trkpt>
      <trkpt lat="39.913871602468475" lon="116.18489673254876">
        <ele>62.124267578125</ele>
        <time>2026-08-02T12:18:03Z</time>
      </trkpt>
      <trkpt lat="39.91388397703048" lon="116.184535783268">
        <ele>64.9957275390625</ele>
        <time>2026-08-02T12:18:18Z</time>
      </trkpt>
      <trkpt lat="39.91389330105233" lon="116.18414675781939">
        <ele>67.17938232421875</ele>
        <time>2026-08-02T12:18:36Z</time>
      </trkpt>
      <trkpt lat="39.91389918218522" lon="116.18407857726879">
        <ele>66.8743896484375</ele>
        <time>2026-08-02T12:18:42Z</time>
      </trkpt>
      <trkpt lat="39.91393306905558" lon="116.18401440369689">
        <ele>67.44842529296875</ele>
        <time>2026-08-02T12:18:45Z</time>
      </trkpt>
      <trkpt lat="39.91394691304428" lon="116.18392516637344">
        <ele>68.12725830078125</ele>
        <time>2026-08-02T12:18:48Z</time>
      </trkpt>
      <trkpt lat="39.91387930886493" lon="116.18357725491897">
        <ele>67.2913818359375</ele>
        <time>2026-08-02T12:19:00Z</time>
      </trkpt>
      <trkpt lat="39.91389159076245" lon="116.18316716617471">
        <ele>70.3541259765625</ele>
        <time>2026-08-02T12:19:18Z</time>
      </trkpt>
      <trkpt lat="39.91391845604256" lon="116.18309096043764">
        <ele>71.38629150390625</ele>
        <time>2026-08-02T12:19:21Z</time>
      </trkpt>
      <trkpt lat="39.91392034868674" lon="116.18302979770162">
        <ele>70.450439453125</ele>
        <time>2026-08-02T12:19:24Z</time>
      </trkpt>
      <trkpt lat="39.9138972493754" lon="116.18297264870013">
        <ele>69.6751708984375</ele>
        <time>2026-08-02T12:19:27Z</time>
      </trkpt>
      <trkpt lat="39.913902602435655" lon="116.1826046685796">
        <ele>73.353515625</ele>
        <time>2026-08-02T12:19:42Z</time>
      </trkpt>
      <trkpt lat="39.91389287123524" lon="116.18218956205152">
        <ele>68.6846923828125</ele>
        <time>2026-08-02T12:20:00Z</time>
      </trkpt>
      <trkpt lat="39.91388370076048" lon="116.18198005943182">
        <ele>67.221923828125</ele>
        <time>2026-08-02T12:20:09Z</time>
      </trkpt>
      <trkpt lat="39.913855277466595" lon="116.18185266554008">
        <ele>66.8729248046875</ele>
        <time>2026-08-02T12:20:15Z</time>
      </trkpt>
      <trkpt lat="39.91389952411946" lon="116.1814285226535">
        <ele>71.8009033203125</ele>
        <time>2026-08-02T12:20:33Z</time>
      </trkpt>
      <trkpt lat="39.91392307888243" lon="116.18118838600128">
        <ele>70.7071533203125</ele>
        <time>2026-08-02T12:20:42Z</time>
      </trkpt>
      <trkpt lat="39.91390233827743" lon="116.18076172830956">
        <ele>67.893310546875</ele>
        <time>2026-08-02T12:21:00Z</time>
      </trkpt>
      <trkpt lat="39.91386030073566" lon="116.18073967412208">
        <ele>68.7081298828125</ele>
        <time>2026-08-02T12:21:03Z</time>
      </trkpt>
      <trkpt lat="39.91368641528337" lon="116.180799858163">
        <ele>68.3326416015625</ele>
        <time>2026-08-02T12:21:12Z</time>
      </trkpt>
      <trkpt lat="39.91341043408444" lon="116.18080390366936">
        <ele>69.32012939453125</ele>
        <time>2026-08-02T12:21:27Z</time>
      </trkpt>
      <trkpt lat="39.9133443904239" lon="116.18077784170369">
        <ele>71.89996337890625</ele>
        <time>2026-08-02T12:21:33Z</time>
      </trkpt>
      <trkpt lat="39.91328477225676" lon="116.18042991035297">
        <ele>70.79736328125</ele>
        <time>2026-08-02T12:21:48Z</time>
      </trkpt>
      <trkpt lat="39.91325849746772" lon="116.18027549638516">
        <ele>69.87603759765625</ele>
        <time>2026-08-02T12:21:54Z</time>
      </trkpt>
      <trkpt lat="39.913274355161626" lon="116.18019628019303">
        <ele>70.33306884765625</ele>
        <time>2026-08-02T12:21:57Z</time>
      </trkpt>
      <trkpt lat="39.91328570119324" lon="116.17983129058734">
        <ele>68.84515380859375</ele>
        <time>2026-08-02T12:22:12Z</time>
      </trkpt>
      <trkpt lat="39.91328804437028" lon="116.17946529738684">
        <ele>69.74163818359375</ele>
        <time>2026-08-02T12:22:27Z</time>
      </trkpt>
      <trkpt lat="39.9132963570081" lon="116.17908325781235">
        <ele>68.37890625</ele>
        <time>2026-08-02T12:22:42Z</time>
      </trkpt>
      <trkpt lat="39.91330470252328" lon="116.178720268086">
        <ele>65.5435791015625</ele>
        <time>2026-08-02T12:22:57Z</time>
      </trkpt>
      <trkpt lat="39.91333217457505" lon="116.1784284685277">
        <ele>64.76812744140625</ele>
        <time>2026-08-02T12:23:09Z</time>
      </trkpt>
      <trkpt lat="39.913332724951466" lon="116.17817978907213">
        <ele>65.659912109375</ele>
        <time>2026-08-02T12:23:18Z</time>
      </trkpt>
      <trkpt lat="39.91335747528384" lon="116.1780424102941">
        <ele>63.7940673828125</ele>
        <time>2026-08-02T12:23:24Z</time>
      </trkpt>
      <trkpt lat="39.913332743955884" lon="116.17763830690332">
        <ele>65.69268798828125</ele>
        <time>2026-08-02T12:23:39Z</time>
      </trkpt>
      <trkpt lat="39.913324023217996" lon="116.17724121866125">
        <ele>67.7811279296875</ele>
        <time>2026-08-02T12:23:54Z</time>
      </trkpt>
      <trkpt lat="39.913321330048994" lon="116.17686017181452">
        <ele>70.2122802734375</ele>
        <time>2026-08-02T12:24:09Z</time>
      </trkpt>
      <trkpt lat="39.91332065018601" lon="116.17648714504851">
        <ele>71.243896484375</ele>
        <time>2026-08-02T12:24:24Z</time>
      </trkpt>
      <trkpt lat="39.91331492174205" lon="116.17608804533137">
        <ele>70.53668212890625</ele>
        <time>2026-08-02T12:24:39Z</time>
      </trkpt>
      <trkpt lat="39.913328196730504" lon="116.17569194971858">
        <ele>69.45159912109375</ele>
        <time>2026-08-02T12:24:54Z</time>
      </trkpt>
      <trkpt lat="39.91335348287591" lon="116.1753028702946">
        <ele>69.9984130859375</ele>
        <time>2026-08-02T12:25:09Z</time>
      </trkpt>
      <trkpt lat="39.913353927283076" lon="116.17500003142857">
        <ele>68.836181640625</ele>
        <time>2026-08-02T12:25:21Z</time>
      </trkpt>
      <trkpt lat="39.913100993193794" lon="116.17503014665189">
        <ele>67.6541748046875</ele>
        <time>2026-08-02T12:25:36Z</time>
      </trkpt>
      <trkpt lat="39.912912179678564" lon="116.17512743992286">
        <ele>69.55517578125</ele>
        <time>2026-08-02T12:25:45Z</time>
      </trkpt>
      <trkpt lat="39.91260524050704" lon="116.17515355079507">
        <ele>71.03363037109375</ele>
        <time>2026-08-02T12:26:00Z</time>
      </trkpt>
      <trkpt lat="39.91229931233819" lon="116.17518567819462">
        <ele>74.03729248046875</ele>
        <time>2026-08-02T12:26:15Z</time>
      </trkpt>
      <trkpt lat="39.912015272883174" lon="116.17515763620041">
        <ele>76.26007080078125</ele>
        <time>2026-08-02T12:26:30Z</time>
      </trkpt>
      <trkpt lat="39.911742275279124" lon="116.17515265669165">
        <ele>75.7679443359375</ele>
        <time>2026-08-02T12:26:45Z</time>
      </trkpt>
      <trkpt lat="39.911457337060114" lon="116.17517976756021">
        <ele>78.4547119140625</ele>
        <time>2026-08-02T12:27:00Z</time>
      </trkpt>
      <trkpt lat="39.911399339527186" lon="116.1751797748636">
        <ele>78.43585205078125</ele>
        <time>2026-08-02T12:27:03Z</time>
      </trkpt>
      <trkpt lat="39.91134628107878" lon="116.17514668989344">
        <ele>78.52984619140625</ele>
        <time>2026-08-02T12:27:06Z</time>
      </trkpt>
      <trkpt lat="39.911314153649585" lon="116.17507649948882">
        <ele>77.151123046875</ele>
        <time>2026-08-02T12:27:09Z</time>
      </trkpt>
      <trkpt lat="39.91129341234974" lon="116.1746723816347">
        <ele>70.0919189453125</ele>
        <time>2026-08-02T12:27:33Z</time>
      </trkpt>
      <trkpt lat="39.91131269774943" lon="116.17428430168316">
        <ele>70.1607666015625</ele>
        <time>2026-08-02T12:27:48Z</time>
      </trkpt>
      <trkpt lat="39.911347896450394" lon="116.17385008993078">
        <ele>66.47283935546875</ele>
        <time>2026-08-02T12:28:12Z</time>
      </trkpt>
      <trkpt lat="39.911363146644945" lon="116.1734439571891">
        <ele>67.87408447265625</ele>
        <time>2026-08-02T12:28:27Z</time>
      </trkpt>
      <trkpt lat="39.91138264212136" lon="116.1731711944486">
        <ele>68.38922119140625</ele>
        <time>2026-08-02T12:28:42Z</time>
      </trkpt>
      <trkpt lat="39.91140855023411" lon="116.17312205415296">
        <ele>67.6690673828125</ele>
        <time>2026-08-02T12:28:45Z</time>
      </trkpt>
      <trkpt lat="39.91141641276937" lon="116.17304784617849">
        <ele>68.2425537109375</ele>
        <time>2026-08-02T12:28:48Z</time>
      </trkpt>
      <trkpt lat="39.911390171051465" lon="116.17291648295485">
        <ele>68.803466796875</ele>
        <time>2026-08-02T12:28:54Z</time>
      </trkpt>
      <trkpt lat="39.91144051036913" lon="116.17256048262945">
        <ele>66.1173095703125</ele>
        <time>2026-08-02T12:29:09Z</time>
      </trkpt>
      <trkpt lat="39.91144394946837" lon="116.1722576358188">
        <ele>64.8172607421875</ele>
        <time>2026-08-02T12:29:21Z</time>
      </trkpt>
      <trkpt lat="39.911390496482255" lon="116.17201195541097">
        <ele>67.63037109375</ele>
        <time>2026-08-02T12:29:30Z</time>
      </trkpt>
      <trkpt lat="39.91137983861366" lon="116.1716569631171">
        <ele>68.750244140625</ele>
        <time>2026-08-02T12:29:45Z</time>
      </trkpt>
      <trkpt lat="39.911412146679474" lon="116.17128491674009">
        <ele>67.93585205078125</ele>
        <time>2026-08-02T12:30:00Z</time>
      </trkpt>
      <trkpt lat="39.911434724758415" lon="116.17105827850409">
        <ele>66.76177978515625</ele>
        <time>2026-08-02T12:30:09Z</time>
      </trkpt>
      <trkpt lat="39.91139616913697" lon="116.17075844223496">
        <ele>67.0592041015625</ele>
        <time>2026-08-02T12:30:21Z</time>
      </trkpt>
      <trkpt lat="39.911353081476456" lon="116.17071031258538">
        <ele>67.716552734375</ele>
        <time>2026-08-02T12:30:24Z</time>
      </trkpt>
      <trkpt lat="39.91105305695545" lon="116.17069029413022">
        <ele>67.9166259765625</ele>
        <time>2026-08-02T12:30:39Z</time>
      </trkpt>
      <trkpt lat="39.91077510609037" lon="116.17071038546803">
        <ele>68.8414306640625</ele>
        <time>2026-08-02T12:30:54Z</time>
      </trkpt>
      <trkpt lat="39.91066310713685" lon="116.17070839396217">
        <ele>68.81671142578125</ele>
        <time>2026-08-02T12:31:00Z</time>
      </trkpt>
      <trkpt lat="39.910603063082924" lon="116.17068333117275">
        <ele>68.60009765625</ele>
        <time>2026-08-02T12:31:03Z</time>
      </trkpt>
      <trkpt lat="39.910566900521715" lon="116.1705950880327">
        <ele>68.84033203125</ele>
        <time>2026-08-02T12:31:06Z</time>
      </trkpt>
      <trkpt lat="39.910586151542155" lon="116.17019295630308">
        <ele>68.60107421875</ele>
        <time>2026-08-02T12:31:24Z</time>
      </trkpt>
      <trkpt lat="39.91058443277736" lon="116.16980687143099">
        <ele>68.70294189453125</ele>
        <time>2026-08-02T12:31:42Z</time>
      </trkpt>
      <trkpt lat="39.910584926481064" lon="116.16953510711348">
        <ele>69.7635498046875</ele>
        <time>2026-08-02T12:31:54Z</time>
      </trkpt>
      <trkpt lat="39.9105688131789" lon="116.16947393706761">
        <ele>70.15625</ele>
        <time>2026-08-02T12:31:57Z</time>
      </trkpt>
      <trkpt lat="39.91047472375125" lon="116.16942380787539">
        <ele>70.62274169921875</ele>
        <time>2026-08-02T12:32:03Z</time>
      </trkpt>
      <trkpt lat="39.91026268607962" lon="116.16939876408843">
        <ele>69.6387939453125</ele>
        <time>2026-08-02T12:32:15Z</time>
      </trkpt>
      <trkpt lat="39.91021164340314" lon="116.16937470281103">
        <ele>69.853271484375</ele>
        <time>2026-08-02T12:32:18Z</time>
      </trkpt>
      <trkpt lat="39.91017953449525" lon="116.16931554038077">
        <ele>70.30157470703125</ele>
        <time>2026-08-02T12:32:21Z</time>
      </trkpt>
      <trkpt lat="39.91022622404017" lon="116.1691500688226">
        <ele>70.09814453125</ele>
        <time>2026-08-02T12:32:27Z</time>
      </trkpt>
      <trkpt lat="39.910239922401445" lon="116.16898861259605">
        <ele>69.7691650390625</ele>
        <time>2026-08-02T12:32:33Z</time>
      </trkpt>
      <trkpt lat="39.91022232833238" lon="116.1686697167825">
        <ele>70.366943359375</ele>
        <time>2026-08-02T12:32:45Z</time>
      </trkpt>
      <trkpt lat="39.91020417942922" lon="116.16858949308651">
        <ele>70.8350830078125</ele>
        <time>2026-08-02T12:32:48Z</time>
      </trkpt>
      <trkpt lat="39.91024244229714" lon="116.16819537774356">
        <ele>70.5162353515625</ele>
        <time>2026-08-02T12:33:03Z</time>
      </trkpt>
      <trkpt lat="39.91023286232728" lon="116.16788450258261">
        <ele>71.15191650390625</ele>
        <time>2026-08-02T12:33:15Z</time>
      </trkpt>
      <trkpt lat="39.91010625160594" lon="116.16755458814008">
        <ele>69.07452392578125</ele>
        <time>2026-08-02T12:33:31Z</time>
      </trkpt>
      <trkpt lat="39.909919768806084" lon="116.16729187050896">
        <ele>68.4000244140625</ele>
        <time>2026-08-02T12:33:45Z</time>
      </trkpt>
      <trkpt lat="39.90984553218273" lon="116.16716351771532">
        <ele>68.96856689453125</ele>
        <time>2026-08-02T12:33:51Z</time>
      </trkpt>
      <trkpt lat="39.909781955940346" lon="116.16685365128845">
        <ele>69.31591796875</ele>
        <time>2026-08-02T12:34:03Z</time>
      </trkpt>
      <trkpt lat="39.90984051306559" lon="116.1666179787167">
        <ele>68.591552734375</ele>
        <time>2026-08-02T12:34:12Z</time>
      </trkpt>
      <trkpt lat="39.90991625870332" lon="116.16648358981013">
        <ele>69.25634765625</ele>
        <time>2026-08-02T12:34:18Z</time>
      </trkpt>
      <trkpt lat="39.91012692922015" lon="116.1663120790746">
        <ele>71.616455078125</ele>
        <time>2026-08-02T12:34:31Z</time>
      </trkpt>
      <trkpt lat="39.91022255216304" lon="116.16611250352993">
        <ele>72.0889892578125</ele>
        <time>2026-08-02T12:34:40Z</time>
      </trkpt>
      <trkpt lat="39.91023313374209" lon="116.16588887069967">
        <ele>73.85479736328125</ele>
        <time>2026-08-02T12:34:48Z</time>
      </trkpt>
      <trkpt lat="39.91017172776" lon="116.16567026106175">
        <ele>73.88958740234375</ele>
        <time>2026-08-02T12:34:57Z</time>
      </trkpt>
      <trkpt lat="39.91010453944815" lon="116.16556798065902">
        <ele>72.0142822265625</ele>
        <time>2026-08-02T12:35:03Z</time>
      </trkpt>
      <trkpt lat="39.91002587368548" lon="116.1652099794213">
        <ele>72.35595703125</ele>
        <time>2026-08-02T12:35:19Z</time>
      </trkpt>
      <trkpt lat="39.91002534518867" lon="116.16492718069739">
        <ele>71.476318359375</ele>
        <time>2026-08-02T12:35:31Z</time>
      </trkpt>
      <trkpt lat="39.90996396550793" lon="116.16472261059047">
        <ele>70.22979736328125</ele>
        <time>2026-08-02T12:35:40Z</time>
      </trkpt>
      <trkpt lat="39.9098256922079" lon="116.16457320599379">
        <ele>70.6148681640625</ele>
        <time>2026-08-02T12:35:49Z</time>
      </trkpt>
      <trkpt lat="39.909667573426816" lon="116.16450603618362">
        <ele>69.08050537109375</ele>
        <time>2026-08-02T12:35:57Z</time>
      </trkpt>
      <trkpt lat="39.909542584398196" lon="116.16450906047247">
        <ele>68.58282470703125</ele>
        <time>2026-08-02T12:36:03Z</time>
      </trkpt>
      <trkpt lat="39.90941471541992" lon="116.16457626641298">
        <ele>71.79766845703125</ele>
        <time>2026-08-02T12:36:10Z</time>
      </trkpt>
      <trkpt lat="39.909272995082965" lon="116.16472269788105">
        <ele>73.27740478515625</ele>
        <time>2026-08-02T12:36:19Z</time>
      </trkpt>
      <trkpt lat="39.909180422586104" lon="116.16494934974702">
        <ele>72.95330810546875</ele>
        <time>2026-08-02T12:36:28Z</time>
      </trkpt>
      <trkpt lat="39.90916224989876" lon="116.16539160117884">
        <ele>72.72503662109375</ele>
        <time>2026-08-02T12:36:43Z</time>
      </trkpt>
      <trkpt lat="39.90914587100395" lon="116.16572354072268">
        <ele>75.70648193359375</ele>
        <time>2026-08-02T12:36:55Z</time>
      </trkpt>
      <trkpt lat="39.90918137555004" lon="116.16599430086428">
        <ele>76.064208984375</ele>
        <time>2026-08-02T12:37:04Z</time>
      </trkpt>
      <trkpt lat="39.90914895608539" lon="116.16630417990987">
        <ele>77.3367919921875</ele>
        <time>2026-08-02T12:37:16Z</time>
      </trkpt>
      <trkpt lat="39.9091955556753" lon="116.16662608279134">
        <ele>77.6875</ele>
        <time>2026-08-02T12:37:28Z</time>
      </trkpt>
      <trkpt lat="39.9091818617145" lon="116.16678954590508">
        <ele>76.966796875</ele>
        <time>2026-08-02T12:37:34Z</time>
      </trkpt>
      <trkpt lat="39.90914907486229" lon="116.16690286986695">
        <ele>77.2537841796875</ele>
        <time>2026-08-02T12:37:40Z</time>
      </trkpt>
      <trkpt lat="39.90904047299" lon="116.16711347785939">
        <ele>79.10107421875</ele>
        <time>2026-08-02T12:37:49Z</time>
      </trkpt>
      <trkpt lat="39.90881475620371" lon="116.16725991945502">
        <ele>78.615234375</ele>
        <time>2026-08-02T12:38:01Z</time>
      </trkpt>
      <trkpt lat="39.90865183626176" lon="116.16729905035939">
        <ele>78.90576171875</ele>
        <time>2026-08-02T12:38:10Z</time>
      </trkpt>
      <trkpt lat="39.908334797436034" lon="116.16727101115882">
        <ele>76.72967529296875</ele>
        <time>2026-08-02T12:38:25Z</time>
      </trkpt>
      <trkpt lat="39.90808080087257" lon="116.16726703190156">
        <ele>76.5888671875</ele>
        <time>2026-08-02T12:38:37Z</time>
      </trkpt>
      <trkpt lat="39.907808505351746" lon="116.16710260224275">
        <ele>75.101318359375</ele>
        <time>2026-08-02T12:38:52Z</time>
      </trkpt>
      <trkpt lat="39.907621395381504" lon="116.16703944758879">
        <ele>73.970703125</ele>
        <time>2026-08-02T12:39:01Z</time>
      </trkpt>
      <trkpt lat="39.907405415941916" lon="116.16704549182971">
        <ele>74.937744140625</ele>
        <time>2026-08-02T12:39:10Z</time>
      </trkpt>
      <trkpt lat="39.90727155849345" lon="116.16711871529192">
        <ele>75.84490966796875</ele>
        <time>2026-08-02T12:39:16Z</time>
      </trkpt>
      <trkpt lat="39.90710186370459" lon="116.16727818658175">
        <ele>76.06256103515625</ele>
        <time>2026-08-02T12:39:25Z</time>
      </trkpt>
      <trkpt lat="39.907021136945175" lon="116.16742260414303">
        <ele>75.81201171875</ele>
        <time>2026-08-02T12:39:31Z</time>
      </trkpt>
      <trkpt lat="39.90698538386546" lon="116.16755397920099">
        <ele>74.13909912109375</ele>
        <time>2026-08-02T12:39:37Z</time>
      </trkpt>
      <trkpt lat="39.90699308954141" lon="116.16793204432143">
        <ele>71.6785888671875</ele>
        <time>2026-08-02T12:39:52Z</time>
      </trkpt>
      <trkpt lat="39.90701865568697" lon="116.16823589759217">
        <ele>73.869873046875</ele>
        <time>2026-08-02T12:40:01Z</time>
      </trkpt>
      <trkpt lat="39.90710207506176" lon="116.16846252569282">
        <ele>75.2158203125</ele>
        <time>2026-08-02T12:40:10Z</time>
      </trkpt>
      <trkpt lat="39.9071068512729" lon="116.16887869727043">
        <ele>77.78082275390625</ele>
        <time>2026-08-02T12:40:22Z</time>
      </trkpt>
      <trkpt lat="39.90707018387734" lon="116.16905620161894">
        <ele>77.92578125</ele>
        <time>2026-08-02T12:40:28Z</time>
      </trkpt>
      <trkpt lat="39.906989641675075" lon="116.16929989761077">
        <ele>79.4298095703125</ele>
        <time>2026-08-02T12:40:37Z</time>
      </trkpt>
      <trkpt lat="39.906991963048334" lon="116.16947238259655">
        <ele>79.90771484375</ele>
        <time>2026-08-02T12:40:43Z</time>
      </trkpt>
      <trkpt lat="39.90706423833934" lon="116.16962179375182">
        <ele>79.054443359375</ele>
        <time>2026-08-02T12:40:49Z</time>
      </trkpt>
      <trkpt lat="39.90711135026582" lon="116.16968295983554">
        <ele>78.17596435546875</ele>
        <time>2026-08-02T12:40:52Z</time>
      </trkpt>
      <trkpt lat="39.90714864191441" lon="116.16984039779946">
        <ele>79.44561767578125</ele>
        <time>2026-08-02T12:40:58Z</time>
      </trkpt>
      <trkpt lat="39.9071837692566" lon="116.16990958787696">
        <ele>79.28350830078125</ele>
        <time>2026-08-02T12:41:01Z</time>
      </trkpt>
      <trkpt lat="39.907330048615094" lon="116.17006300063922">
        <ele>77.7554931640625</ele>
        <time>2026-08-02T12:41:13Z</time>
      </trkpt>
      <trkpt lat="39.90734831289298" lon="116.17020539842956">
        <ele>75.35479736328125</ele>
        <time>2026-08-02T12:41:25Z</time>
      </trkpt>
      <trkpt lat="39.9073434717348" lon="116.17029063847879">
        <ele>75.74407958984375</ele>
        <time>2026-08-02T12:41:31Z</time>
      </trkpt>
      <trkpt lat="39.907416765237215" lon="116.17045007701778">
        <ele>76.81201171875</ele>
        <time>2026-08-02T12:41:43Z</time>
      </trkpt>
      <trkpt lat="39.907415259536876" lon="116.17071582317881">
        <ele>77.7318115234375</ele>
        <time>2026-08-02T12:41:52Z</time>
      </trkpt>
      <trkpt lat="39.90735244122537" lon="116.1708121012323">
        <ele>77.26348876953125</ele>
        <time>2026-08-02T12:41:58Z</time>
      </trkpt>
      <trkpt lat="39.90735158106233" lon="116.17088731234266">
        <ele>77.4139404296875</ele>
        <time>2026-08-02T12:42:01Z</time>
      </trkpt>
      <trkpt lat="39.907493635925434" lon="116.170904233015">
        <ele>77.1531982421875</ele>
        <time>2026-08-02T12:42:13Z</time>
      </trkpt>
      <trkpt lat="39.90765887341749" lon="116.17105173487037">
        <ele>75.0640869140625</ele>
        <time>2026-08-02T12:42:22Z</time>
      </trkpt>
      <trkpt lat="39.90771904594228" lon="116.17114599159271">
        <ele>70.70697021484375</ele>
        <time>2026-08-02T12:42:25Z</time>
      </trkpt>
      <trkpt lat="39.90774721980963" lon="116.1712402522914">
        <ele>70.29681396484375</ele>
        <time>2026-08-02T12:42:28Z</time>
      </trkpt>
      <trkpt lat="39.90766984493312" lon="116.17157520049587">
        <ele>72.68658447265625</ele>
        <time>2026-08-02T12:42:40Z</time>
      </trkpt>
      <trkpt lat="39.90768824412345" lon="116.17179080185964">
        <ele>74.30108642578125</ele>
        <time>2026-08-02T12:42:49Z</time>
      </trkpt>
      <trkpt lat="39.907794906911874" lon="116.172150795681">
        <ele>75.65789794921875</ele>
        <time>2026-08-02T12:43:07Z</time>
      </trkpt>
      <trkpt lat="39.907808047548954" lon="116.17222700713877">
        <ele>77.960693359375</ele>
        <time>2026-08-02T12:43:10Z</time>
      </trkpt>
      <trkpt lat="39.9078043630092" lon="116.17263397882036">
        <ele>78.62603759765625</ele>
        <time>2026-08-02T12:43:25Z</time>
      </trkpt>
      <trkpt lat="39.907792532725324" lon="116.17302924963606">
        <ele>78.70367431640625</ele>
        <time>2026-08-02T12:43:40Z</time>
      </trkpt>
      <trkpt lat="39.907801015910636" lon="116.17329097840062">
        <ele>80.247802734375</ele>
        <time>2026-08-02T12:43:49Z</time>
      </trkpt>
      <trkpt lat="39.90783675096126" lon="116.17369008567816">
        <ele>76.63433837890625</ele>
        <time>2026-08-02T12:44:07Z</time>
      </trkpt>
      <trkpt lat="39.90785650234104" lon="116.17409821861955">
        <ele>77.5784912109375</ele>
        <time>2026-08-02T12:44:25Z</time>
      </trkpt>
      <trkpt lat="39.90787120675177" lon="116.17448128102204">
        <ele>78.20257568359375</ele>
        <time>2026-08-02T12:44:43Z</time>
      </trkpt>
      <trkpt lat="39.90787395488402" lon="116.17488841021185">
        <ele>76.874267578125</ele>
        <time>2026-08-02T12:45:04Z</time>
      </trkpt>
      <trkpt lat="39.90785170659778" lon="116.17529754640412">
        <ele>75.16534423828125</ele>
        <time>2026-08-02T12:45:25Z</time>
      </trkpt>
      <trkpt lat="39.90783744571785" lon="116.1757006631816">
        <ele>72.12506103515625</ele>
        <time>2026-08-02T12:45:46Z</time>
      </trkpt>
      <trkpt lat="39.907838181109526" lon="116.17610277351135">
        <ele>71.8538818359375</ele>
        <time>2026-08-02T12:46:04Z</time>
      </trkpt>
      <trkpt lat="39.90782383719996" lon="116.17646176510704">
        <ele>72.8695068359375</ele>
        <time>2026-08-02T12:46:19Z</time>
      </trkpt>
      <trkpt lat="39.90784350171807" lon="116.17682676745473">
        <ele>73.7996826171875</ele>
        <time>2026-08-02T12:46:34Z</time>
      </trkpt>
      <trkpt lat="39.907840775695995" lon="116.17697718140529">
        <ele>75.7088623046875</ele>
        <time>2026-08-02T12:46:40Z</time>
      </trkpt>
      <trkpt lat="39.90785949693373" lon="116.17737426962988">
        <ele>74.8641357421875</ele>
        <time>2026-08-02T12:46:58Z</time>
      </trkpt>
      <trkpt lat="39.9078903053092" lon="116.1778204888934">
        <ele>76.19219970703125</ele>
        <time>2026-08-02T12:47:22Z</time>
      </trkpt>
      <trkpt lat="39.90786804702674" lon="116.17822961084349">
        <ele>76.63818359375</ele>
        <time>2026-08-02T12:47:43Z</time>
      </trkpt>
      <trkpt lat="39.90785641006253" lon="116.17843016008901">
        <ele>75.7161865234375</ele>
        <time>2026-08-02T12:47:52Z</time>
      </trkpt>
      <trkpt lat="39.907883640705656" lon="116.17855850695587">
        <ele>76.5838623046875</ele>
        <time>2026-08-02T12:47:58Z</time>
      </trkpt>
      <trkpt lat="39.90792171690433" lon="116.1786016197921">
        <ele>75.750244140625</ele>
        <time>2026-08-02T12:48:01Z</time>
      </trkpt>
      <trkpt lat="39.908174772920916" lon="116.1786270420973">
        <ele>82.38006591796875</ele>
        <time>2026-08-02T12:48:19Z</time>
      </trkpt>
      <trkpt lat="39.90823769936474" lon="116.1785880417727">
        <ele>85.279052734375</ele>
        <time>2026-08-02T12:48:22Z</time>
      </trkpt>
      <trkpt lat="39.90840466714859" lon="116.17858551528423">
        <ele>89.3896484375</ele>
        <time>2026-08-02T12:48:28Z</time>
      </trkpt>
      <trkpt lat="39.90869170005902" lon="116.17861054756318">
        <ele>75.96319580078125</ele>
        <time>2026-08-02T12:48:46Z</time>
      </trkpt>
      <trkpt lat="39.908862754242655" lon="116.1786446190331">
        <ele>78.88604736328125</ele>
        <time>2026-08-02T12:48:55Z</time>
      </trkpt>
      <trkpt lat="39.90900474995605" lon="116.17864560390784">
        <ele>80.6070556640625</ele>
        <time>2026-08-02T12:49:01Z</time>
      </trkpt>
      <trkpt lat="39.90923655538285" lon="116.17854329574901">
        <ele>82.3885498046875</ele>
        <time>2026-08-02T12:49:13Z</time>
      </trkpt>
      <trkpt lat="39.90956270431744" lon="116.1786335009122">
        <ele>76.7420654296875</ele>
        <time>2026-08-02T12:49:25Z</time>
      </trkpt>
      <trkpt lat="39.9098897536509" lon="116.17866855548468">
        <ele>73.2864990234375</ele>
        <time>2026-08-02T12:49:40Z</time>
      </trkpt>
      <trkpt lat="39.91017769972139" lon="116.1786454563729">
        <ele>71.39117431640625</ele>
        <time>2026-08-02T12:49:58Z</time>
      </trkpt>
      <trkpt lat="39.91045467884259" lon="116.17864040785959">
        <ele>72.25390625</ele>
        <time>2026-08-02T12:50:13Z</time>
      </trkpt>
      <trkpt lat="39.91054772010858" lon="116.17866546452015">
        <ele>72.42718505859375</ele>
        <time>2026-08-02T12:50:19Z</time>
      </trkpt>
      <trkpt lat="39.91056382615694" lon="116.1787246237983">
        <ele>71.7266845703125</ele>
        <time>2026-08-02T12:50:22Z</time>
      </trkpt>
      <trkpt lat="39.910534580789744" lon="116.17914276613448">
        <ele>73.928955078125</ele>
        <time>2026-08-02T12:50:40Z</time>
      </trkpt>
      <trkpt lat="39.91054722381139" lon="116.17950073737164">
        <ele>73.61737060546875</ele>
        <time>2026-08-02T12:50:55Z</time>
      </trkpt>
      <trkpt lat="39.91057788807583" lon="116.17987173977659">
        <ele>82.33544921875</ele>
        <time>2026-08-02T12:51:10Z</time>
      </trkpt>
      <trkpt lat="39.9105805466714" lon="116.18023973549424">
        <ele>78.65850830078125</ele>
        <time>2026-08-02T12:51:31Z</time>
      </trkpt>
      <trkpt lat="39.91058269892924" lon="116.18032496562058">
        <ele>78.03955078125</ele>
        <time>2026-08-02T12:51:37Z</time>
      </trkpt>
      <trkpt lat="39.91060983571237" lon="116.18040217082421">
        <ele>75.79400634765625</ele>
        <time>2026-08-02T12:51:43Z</time>
      </trkpt>
      <trkpt lat="39.910883763128616" lon="116.18036804428122">
        <ele>72.038818359375</ele>
        <time>2026-08-02T12:52:01Z</time>
      </trkpt>
      <trkpt lat="39.91118175222399" lon="116.18036900952636">
        <ele>71.3861083984375</ele>
        <time>2026-08-02T12:52:16Z</time>
      </trkpt>
      <trkpt lat="39.91130773790332" lon="116.18036398014057">
        <ele>71.2698974609375</ele>
        <time>2026-08-02T12:52:25Z</time>
      </trkpt>
      <trkpt lat="39.91138680081407" lon="116.18040107043423">
        <ele>71.55810546875</ele>
        <time>2026-08-02T12:52:31Z</time>
      </trkpt>
      <trkpt lat="39.911450059491514" lon="116.18054745778896">
        <ele>71.192626953125</ele>
        <time>2026-08-02T12:52:37Z</time>
      </trkpt>
      <trkpt lat="39.91148932431125" lon="116.18069685593599">
        <ele>70.8778076171875</ele>
        <time>2026-08-02T12:52:43Z</time>
      </trkpt>
      <trkpt lat="39.91157848136345" lon="116.18078708802987">
        <ele>70.2080078125</ele>
        <time>2026-08-02T12:52:49Z</time>
      </trkpt>
      <trkpt lat="39.91162852568429" lon="116.18081315200196">
        <ele>70.34765625</ele>
        <time>2026-08-02T12:52:52Z</time>
      </trkpt>
      <trkpt lat="39.911908490563945" lon="116.18080008167716">
        <ele>69.25067138671875</ele>
        <time>2026-08-02T12:53:10Z</time>
      </trkpt>
      <trkpt lat="39.91211441571284" lon="116.18076295578834">
        <ele>69.71624755859375</ele>
        <time>2026-08-02T12:53:22Z</time>
      </trkpt>
      <trkpt lat="39.91221248480504" lon="116.18080405427105">
        <ele>67.95428466796875</ele>
        <time>2026-08-02T12:53:28Z</time>
      </trkpt>
      <trkpt lat="39.9123905058359" lon="116.18082007512766">
        <ele>70.4599609375</ele>
        <time>2026-08-02T12:53:37Z</time>
      </trkpt>
      <trkpt lat="39.91244947296784" lon="116.180803021776">
        <ele>70.87237548828125</ele>
        <time>2026-08-02T12:53:40Z</time>
      </trkpt>
      <trkpt lat="39.91275958306622" lon="116.18087216921948">
        <ele>69.3399658203125</ele>
        <time>2026-08-02T12:53:58Z</time>
      </trkpt>
      <trkpt lat="39.912951660633034" lon="116.18092027471751">
        <ele>67.634033203125</ele>
        <time>2026-08-02T12:54:07Z</time>
      </trkpt>
      <trkpt lat="39.913156657316115" lon="116.18092325704832">
        <ele>61.35137939453125</ele>
        <time>2026-08-02T12:54:19Z</time>
      </trkpt>
      <trkpt lat="39.913454509028554" lon="116.1808470143181">
        <ele>67.47222900390625</ele>
        <time>2026-08-02T12:54:34Z</time>
      </trkpt>
      <trkpt lat="39.91373151161913" lon="116.18085500110716">
        <ele>69.6090087890625</ele>
        <time>2026-08-02T12:54:46Z</time>
      </trkpt>
      <trkpt lat="39.913913462864556" lon="116.18083191609045">
        <ele>72.073974609375</ele>
        <time>2026-08-02T12:54:55Z</time>
      </trkpt>
      <trkpt lat="39.91388417405081" lon="116.18123099388535">
        <ele>72.0084228515625</ele>
        <time>2026-08-02T12:55:13Z</time>
      </trkpt>
      <trkpt lat="39.91391739701868" lon="116.18135732921426">
        <ele>71.16046142578125</ele>
        <time>2026-08-02T12:55:19Z</time>
      </trkpt>
      <trkpt lat="39.91390049561121" lon="116.18141247945304">
        <ele>72.22503662109375</ele>
        <time>2026-08-02T12:55:22Z</time>
      </trkpt>
      <trkpt lat="39.91390274805567" lon="116.18155486134094">
        <ele>71.806884765625</ele>
        <time>2026-08-02T12:55:28Z</time>
      </trkpt>
      <trkpt lat="39.913865065864364" lon="116.18173334465855">
        <ele>73.742431640625</ele>
        <time>2026-08-02T12:55:34Z</time>
      </trkpt>
      <trkpt lat="39.913873404395716" lon="116.18192485654717">
        <ele>74.489501953125</ele>
        <time>2026-08-02T12:55:43Z</time>
      </trkpt>
      <trkpt lat="39.913898497293125" lon="116.18197799561635">
        <ele>73.12493896484375</ele>
        <time>2026-08-02T12:55:46Z</time>
      </trkpt>
      <trkpt lat="39.91390296763031" lon="116.18223968819116">
        <ele>67.81732177734375</ele>
        <time>2026-08-02T12:55:58Z</time>
      </trkpt>
      <trkpt lat="39.91389524540747" lon="116.18258532950792">
        <ele>68.0672607421875</ele>
        <time>2026-08-02T12:56:10Z</time>
      </trkpt>
      <trkpt lat="39.913911933547176" lon="116.18279316944259">
        <ele>69.81524658203125</ele>
        <time>2026-08-02T12:56:16Z</time>
      </trkpt>
      <trkpt lat="39.913935034753194" lon="116.18285132129562">
        <ele>68.9599609375</ele>
        <time>2026-08-02T12:56:19Z</time>
      </trkpt>
      <trkpt lat="39.91394529309851" lon="116.18299871196062">
        <ele>67.508056640625</ele>
        <time>2026-08-02T12:56:25Z</time>
      </trkpt>
      <trkpt lat="39.91389655540605" lon="116.1831471123081">
        <ele>67.12420654296875</ele>
        <time>2026-08-02T12:56:31Z</time>
      </trkpt>
      <trkpt lat="39.913900209864835" lon="116.18352110361772">
        <ele>70.7191162109375</ele>
        <time>2026-08-02T12:56:55Z</time>
      </trkpt>
      <trkpt lat="39.91389643598285" lon="116.18365044648894">
        <ele>71.398681640625</ele>
        <time>2026-08-02T12:57:04Z</time>
      </trkpt>
    </trkseg>
  </trk>
</gpx>