<?xml version="1.0" encoding="UTF-8"?>
<gpx xmlns="http://www.topografix.com/GPX/1/1" xmlns:gpxtpx="http://www.garmin.com/xmlschemas/TrackPointExtension/v1" xmlns:xsi="http://www.w3.org/2001/XMLSchema-instance" xsi:schemaLocation="http://www.topografix.com/GPX/1/1 http://www.topografix.com/GPX/1/1/gpx.xsd" version="1.1" creator="gpx.py -- https://github.com/tkrajina/gpxpy">
  <trk>
    <name>gpx from keep</name>
    <type>Run</type>
    <trkseg>
      <trkpt lat="39.913116652200884" lon="116.1860698893863">
        <ele>65.38397216796875</ele>
        <time>2026-09-09T10:36:17Z</time>
      </trkpt>
      <trkpt lat="39.913264723136464" lon="116.1861149880071">
        <ele>68.58612060546875</ele>
        <time>2026-09-09T10:36:29Z</time>
      </trkpt>
      <trkpt lat="39.91338266325791" lon="116.18608288986027">
        <ele>70.43096923828125</ele>
        <time>2026-09-09T10:36:35Z</time>
      </trkpt>
      <trkpt lat="39.913463574037145" lon="116.18603274943771">
        <ele>68.5147705078125</ele>
        <time>2026-09-09T10:36:41Z</time>
      </trkpt>
      <trkpt lat="39.91376856287394" lon="116.18603371375976">
        <ele>68.7122802734375</ele>
        <time>2026-09-09T10:36:59Z</time>
      </trkpt>
      <trkpt lat="39.91386553131744" lon="116.18601765989142">
        <ele>68.4517822265625</ele>
        <time>2026-09-09T10:37:05Z</time>
      </trkpt>
      <trkpt lat="39.91394518604314" lon="116.18581813084849">
        <ele>65.809814453125</ele>
        <time>2026-09-09T10:37:20Z</time>
      </trkpt>
      <trkpt lat="39.91399711333371" lon="116.18577701728864">
        <ele>66.6544189453125</ele>
        <time>2026-09-09T10:37:23Z</time>
      </trkpt>
      <trkpt lat="39.91402800362272" lon="116.18571384886502">
        <ele>63.4178466796875</ele>
        <time>2026-09-09T10:37:26Z</time>
      </trkpt>
      <trkpt lat="39.91406731745234" lon="116.18531580515275">
        <ele>63.47052001953125</ele>
        <time>2026-09-09T10:37:41Z</time>
      </trkpt>
      <trkpt lat="39.91404965907991" lon="116.1849338074504">
        <ele>61.35955810546875</ele>
        <time>2026-09-09T10:37:56Z</time>
      </trkpt>
      <trkpt lat="39.91404803268619" lon="116.18457185755325">
        <ele>56.4580078125</ele>
        <time>2026-09-09T10:38:11Z</time>
      </trkpt>
      <trkpt lat="39.91406431302222" lon="116.18415776541978">
        <ele>58.3189697265625</ele>
        <time>2026-09-09T10:38:26Z</time>
      </trkpt>
      <trkpt lat="39.91403962419232" lon="116.18376172287408">
        <ele>58.845947265625</ele>
        <time>2026-09-09T10:38:44Z</time>
      </trkpt>
      <trkpt lat="39.91402651801656" lon="116.18370056277719">
        <ele>58.80706787109375</ele>
        <time>2026-09-09T10:38:47Z</time>
      </trkpt>
      <trkpt lat="39.91404778967805" lon="116.18328445787563">
        <ele>63.7186279296875</ele>
        <time>2026-09-09T10:39:02Z</time>
      </trkpt>
      <trkpt lat="39.914067391733276" lon="116.18305785382523">
        <ele>57.3935546875</ele>
        <time>2026-09-09T10:39:11Z</time>
      </trkpt>
      <trkpt lat="39.914040979200585" lon="116.18282223061381">
        <ele>53.15447998046875</ele>
        <time>2026-09-09T10:39:20Z</time>
      </trkpt>
      <trkpt lat="39.914043301645584" lon="116.18243720441542">
        <ele>57.37677001953125</ele>
        <time>2026-09-09T10:39:32Z</time>
      </trkpt>
      <trkpt lat="39.914033859979696" lon="116.1821865362953">
        <ele>56.33587646484375</ele>
        <time>2026-09-09T10:39:41Z</time>
      </trkpt>
      <trkpt lat="39.914071348170204" lon="116.18189775919775">
        <ele>60.36767578125</ele>
        <time>2026-09-09T10:39:50Z</time>
      </trkpt>
      <trkpt lat="39.91407002095918" lon="116.18171628648808">
        <ele>60.3624267578125</ele>
        <time>2026-09-09T10:39:56Z</time>
      </trkpt>
      <trkpt lat="39.91408567729944" lon="116.18162725003863">
        <ele>59.28521728515625</ele>
        <time>2026-09-09T10:39:59Z</time>
      </trkpt>
      <trkpt lat="39.914075829577214" lon="116.18124898882628">
        <ele>58.9775390625</ele>
        <time>2026-09-09T10:40:14Z</time>
      </trkpt>
      <trkpt lat="39.91403556486151" lon="116.18089206283105">
        <ele>58.42987060546875</ele>
        <time>2026-09-09T10:40:29Z</time>
      </trkpt>
      <trkpt lat="39.91402245469594" lon="116.1808298969838">
        <ele>59.01983642578125</ele>
        <time>2026-09-09T10:40:32Z</time>
      </trkpt>
      <trkpt lat="39.91394242770461" lon="116.180812861108">
        <ele>57.273681640625</ele>
        <time>2026-09-09T10:40:38Z</time>
      </trkpt>
      <trkpt lat="39.913665512619126" lon="116.18085400670286">
        <ele>59.1661376953125</ele>
        <time>2026-09-09T10:40:50Z</time>
      </trkpt>
      <trkpt lat="39.91339252057714" lon="116.18085203561967">
        <ele>62.80828857421875</ele>
        <time>2026-09-09T10:41:02Z</time>
      </trkpt>
      <trkpt lat="39.913265508085736" lon="116.18084202456997">
        <ele>65.0567626953125</ele>
        <time>2026-09-09T10:41:14Z</time>
      </trkpt>
      <trkpt lat="39.91327546658369" lon="116.18081896117197">
        <ele>64.49676513671875</ele>
        <time>2026-09-09T10:41:53Z</time>
      </trkpt>
      <trkpt lat="39.91326179321081" lon="116.17932491932326">
        <ele>65.644775390625</ele>
        <time>2026-09-09T10:43:32Z</time>
      </trkpt>
      <trkpt lat="39.91323714823795" lon="116.17896594591974">
        <ele>66.50421142578125</ele>
        <time>2026-09-09T10:43:47Z</time>
      </trkpt>
      <trkpt lat="39.913250375449294" lon="116.17853777715275">
        <ele>63.914794921875</ele>
        <time>2026-09-09T10:44:02Z</time>
      </trkpt>
      <trkpt lat="39.91330767339718" lon="116.17815071272514">
        <ele>59.261962890625</ele>
        <time>2026-09-09T10:44:17Z</time>
      </trkpt>
      <trkpt lat="39.913281907974444" lon="116.17772755784831">
        <ele>60.23541259765625</ele>
        <time>2026-09-09T10:44:29Z</time>
      </trkpt>
      <trkpt lat="39.91332016735089" lon="116.17732043662409">
        <ele>58.4512939453125</ele>
        <time>2026-09-09T10:44:44Z</time>
      </trkpt>
      <trkpt lat="39.91332138299951" lon="116.17688925178761">
        <ele>57.7818603515625</ele>
        <time>2026-09-09T10:44:59Z</time>
      </trkpt>
      <trkpt lat="39.91331973984685" lon="116.17653628051546">
        <ele>59.0247802734375</ele>
        <time>2026-09-09T10:45:11Z</time>
      </trkpt>
      <trkpt lat="39.913309099701415" lon="116.17618531443155">
        <ele>59.7535400390625</ele>
        <time>2026-09-09T10:45:23Z</time>
      </trkpt>
      <trkpt lat="39.91328889901879" lon="116.17607501263271">
        <ele>57.9246826171875</ele>
        <time>2026-09-09T10:45:29Z</time>
      </trkpt>
      <trkpt lat="39.9133032087999" lon="116.17569796949488">
        <ele>59.6165771484375</ele>
        <time>2026-09-09T10:45:44Z</time>
      </trkpt>
      <trkpt lat="39.91332143274817" lon="116.17527479660092">
        <ele>64.00634765625</ele>
        <time>2026-09-09T10:45:59Z</time>
      </trkpt>
      <trkpt lat="39.91332478491424" lon="116.17492181829736">
        <ele>62.23883056640625</ele>
        <time>2026-09-09T10:46:14Z</time>
      </trkpt>
      <trkpt lat="39.91336770944256" lon="116.17488170168646">
        <ele>60.133056640625</ele>
        <time>2026-09-09T10:46:17Z</time>
      </trkpt>
      <trkpt lat="39.91333594223147" lon="116.17446354541069">
        <ele>56.52606201171875</ele>
        <time>2026-09-09T10:46:32Z</time>
      </trkpt>
      <trkpt lat="39.91331176246046" lon="116.17436527552586">
        <ele>53.55572509765625</ele>
        <time>2026-09-09T10:46:38Z</time>
      </trkpt>
      <trkpt lat="39.91332699366053" lon="116.17394811401077">
        <ele>57.21966552734375</ele>
        <time>2026-09-09T10:46:50Z</time>
      </trkpt>
      <trkpt lat="39.91333840338226" lon="116.17362822226256">
        <ele>52.90643310546875</ele>
        <time>2026-09-09T10:47:05Z</time>
      </trkpt>
      <trkpt lat="39.91335333125145" lon="116.1735631941763">
        <ele>53.29571533203125</ele>
        <time>2026-09-09T10:47:08Z</time>
      </trkpt>
      <trkpt lat="39.91337856121512" lon="116.17317294853582">
        <ele>59.467529296875</ele>
        <time>2026-09-09T10:47:23Z</time>
      </trkpt>
      <trkpt lat="39.9133599429137" lon="116.17283801641081">
        <ele>60.62298583984375</ele>
        <time>2026-09-09T10:47:35Z</time>
      </trkpt>
      <trkpt lat="39.913312612870094" lon="116.17265852118548">
        <ele>58.91583251953125</ele>
        <time>2026-09-09T10:47:47Z</time>
      </trkpt>
      <trkpt lat="39.913347464949275" lon="116.17223811386972">
        <ele>54.4527587890625</ele>
        <time>2026-09-09T10:48:02Z</time>
      </trkpt>
      <trkpt lat="39.91335199119124" lon="116.17205336695056">
        <ele>56.6226806640625</ele>
        <time>2026-09-09T10:48:08Z</time>
      </trkpt>
      <trkpt lat="39.91332623595069" lon="116.17191544202196">
        <ele>62.42742919921875</ele>
        <time>2026-09-09T10:48:14Z</time>
      </trkpt>
      <trkpt lat="39.9133365286477" lon="116.17153437378117">
        <ele>55.89935302734375</ele>
        <time>2026-09-09T10:48:29Z</time>
      </trkpt>
      <trkpt lat="39.91334405547545" lon="116.1712796591025">
        <ele>53.03570556640625</ele>
        <time>2026-09-09T10:48:38Z</time>
      </trkpt>
      <trkpt lat="39.91339037353534" lon="116.17091362687539">
        <ele>57.340087890625</ele>
        <time>2026-09-09T10:48:50Z</time>
      </trkpt>
      <trkpt lat="39.913442102931896" lon="116.17076921518685">
        <ele>60.87481689453125</ele>
        <time>2026-09-09T10:49:05Z</time>
      </trkpt>
      <trkpt lat="39.913432402090024" lon="116.17039215788343">
        <ele>66.11553955078125</ele>
        <time>2026-09-09T10:49:35Z</time>
      </trkpt>
      <trkpt lat="39.913441750335124" lon="116.17004217345502">
        <ele>68.94720458984375</ele>
        <time>2026-09-09T10:49:47Z</time>
      </trkpt>
      <trkpt lat="39.91347451181949" lon="116.1699148113544">
        <ele>70.26251220703125</ele>
        <time>2026-09-09T10:49:53Z</time>
      </trkpt>
      <trkpt lat="39.91346702463608" lon="116.16965307636583">
        <ele>70.60919189453125</ele>
        <time>2026-09-09T10:50:02Z</time>
      </trkpt>
      <trkpt lat="39.91342551998852" lon="116.16938131710934">
        <ele>72.37060546875</ele>
        <time>2026-09-09T10:50:11Z</time>
      </trkpt>
      <trkpt lat="39.91345089061539" lon="116.1693060484612">
        <ele>74.6910400390625</ele>
        <time>2026-09-09T10:50:17Z</time>
      </trkpt>
      <trkpt lat="39.913448847840144" lon="116.16902130088913">
        <ele>73.2498779296875</ele>
        <time>2026-09-09T10:50:26Z</time>
      </trkpt>
      <trkpt lat="39.913417117811925" lon="116.16862920065249">
        <ele>70.64715576171875</ele>
        <time>2026-09-09T10:50:38Z</time>
      </trkpt>
      <trkpt lat="39.91340636782885" lon="116.16822706889224">
        <ele>70.94818115234375</ele>
        <time>2026-09-09T10:50:53Z</time>
      </trkpt>
      <trkpt lat="39.913394546414025" lon="116.16778682922943">
        <ele>63.69537353515625</ele>
        <time>2026-09-09T10:51:11Z</time>
      </trkpt>
      <trkpt lat="39.91339876147163" lon="116.16736664352018">
        <ele>59.4024658203125</ele>
        <time>2026-09-09T10:51:26Z</time>
      </trkpt>
      <trkpt lat="39.91345196673586" lon="116.16694243982678">
        <ele>61.97637939453125</ele>
        <time>2026-09-09T10:51:41Z</time>
      </trkpt>
      <trkpt lat="39.913490607205766" lon="116.16675089433015">
        <ele>63.9857177734375</ele>
        <time>2026-09-09T10:51:47Z</time>
      </trkpt>
      <trkpt lat="39.91347684130231" lon="116.16634073816316">
        <ele>64.04638671875</ele>
        <time>2026-09-09T10:52:05Z</time>
      </trkpt>
      <trkpt lat="39.913471410460524" lon="116.16611008757688">
        <ele>65.76800537109375</ele>
        <time>2026-09-09T10:52:17Z</time>
      </trkpt>
      <trkpt lat="39.91341864047252" lon="116.16569692743396">
        <ele>66.3912353515625</ele>
        <time>2026-09-09T10:52:32Z</time>
      </trkpt>
      <trkpt lat="39.9134254958594" lon="116.16561970847833">
        <ele>66.66558837890625</ele>
        <time>2026-09-09T10:52:35Z</time>
      </trkpt>
      <trkpt lat="39.9133537173092" lon="116.16520153637866">
        <ele>68.7796630859375</ele>
        <time>2026-09-09T10:52:53Z</time>
      </trkpt>
      <trkpt lat="39.91326708562934" lon="116.1648615870268">
        <ele>69.5936279296875</ele>
        <time>2026-09-09T10:53:11Z</time>
      </trkpt>
      <trkpt lat="39.91328188635732" lon="116.16475528488147">
        <ele>71.6358642578125</ele>
        <time>2026-09-09T10:53:17Z</time>
      </trkpt>
      <trkpt lat="39.91321209855854" lon="116.16433209827078">
        <ele>73.32269287109375</ele>
        <time>2026-09-09T10:53:32Z</time>
      </trkpt>
      <trkpt lat="39.91319475456676" lon="116.16414757924991">
        <ele>76.76251220703125</ele>
        <time>2026-09-09T10:53:38Z</time>
      </trkpt>
      <trkpt lat="39.91314455436876" lon="116.16403927967356">
        <ele>77.8194580078125</ele>
        <time>2026-09-09T10:53:41Z</time>
      </trkpt>
      <trkpt lat="39.91312239233682" lon="116.16395203604434">
        <ele>78.89886474609375</ele>
        <time>2026-09-09T10:53:44Z</time>
      </trkpt>
      <trkpt lat="39.913114029326984" lon="116.16375748761276">
        <ele>80.361083984375</ele>
        <time>2026-09-09T10:53:53Z</time>
      </trkpt>
      <trkpt lat="39.913066688620354" lon="116.16357397529782">
        <ele>82.981201171875</ele>
        <time>2026-09-09T10:53:59Z</time>
      </trkpt>
      <trkpt lat="39.913050253052695" lon="116.16334031752254">
        <ele>84.2047119140625</ele>
        <time>2026-09-09T10:54:08Z</time>
      </trkpt>
      <trkpt lat="39.912975769504584" lon="116.1630795907123">
        <ele>86.23101806640625</ele>
        <time>2026-09-09T10:54:17Z</time>
      </trkpt>
      <trkpt lat="39.91293997388984" lon="116.16265238921282">
        <ele>87.06866455078125</ele>
        <time>2026-09-09T10:54:35Z</time>
      </trkpt>
      <trkpt lat="39.91291448492671" lon="116.1623896508868">
        <ele>86.39666748046875</ele>
        <time>2026-09-09T10:54:44Z</time>
      </trkpt>
      <trkpt lat="39.91287098044557" lon="116.16224388721824">
        <ele>87.803466796875</ele>
        <time>2026-09-09T10:54:50Z</time>
      </trkpt>
      <trkpt lat="39.91286756064444" lon="116.16217884503486">
        <ele>86.396484375</ele>
        <time>2026-09-09T10:54:53Z</time>
      </trkpt>
      <trkpt lat="39.912741467868436" lon="116.16184012229019">
        <ele>84.74163818359375</ele>
        <time>2026-09-09T10:55:02Z</time>
      </trkpt>
      <trkpt lat="39.912719147474334" lon="116.16166763864204">
        <ele>83.42919921875</ele>
        <time>2026-09-09T10:55:08Z</time>
      </trkpt>
      <trkpt lat="39.91274892768217" lon="116.16155030401465">
        <ele>78.015380859375</ele>
        <time>2026-09-09T10:55:17Z</time>
      </trkpt>
      <trkpt lat="39.91274444614062" lon="116.16129157514916">
        <ele>73.56915283203125</ele>
        <time>2026-09-09T10:56:50Z</time>
      </trkpt>
      <trkpt lat="39.91267473066151" lon="116.16090549591281">
        <ele>72.359375</ele>
        <time>2026-09-09T10:57:05Z</time>
      </trkpt>
      <trkpt lat="39.912584134055216" lon="116.1605825978064">
        <ele>75.83697509765625</ele>
        <time>2026-09-09T10:57:20Z</time>
      </trkpt>
      <trkpt lat="39.91257599460428" lon="116.16050738704222">
        <ele>76.66650390625</ele>
        <time>2026-09-09T10:57:23Z</time>
      </trkpt>
      <trkpt lat="39.912595870761535" lon="116.16044119816888">
        <ele>78.54931640625</ele>
        <time>2026-09-09T10:57:26Z</time>
      </trkpt>
      <trkpt lat="39.912508121962034" lon="116.16003606895711">
        <ele>75.8843994140625</ele>
        <time>2026-09-09T10:57:41Z</time>
      </trkpt>
      <trkpt lat="39.91244447145161" lon="116.15968408692603">
        <ele>76.97930908203125</ele>
        <time>2026-09-09T10:57:53Z</time>
      </trkpt>
      <trkpt lat="39.91234171354052" lon="116.15927294422838">
        <ele>81.81353759765625</ele>
        <time>2026-09-09T10:58:08Z</time>
      </trkpt>
      <trkpt lat="39.91226895706425" lon="116.15886280148831">
        <ele>80.2403564453125</ele>
        <time>2026-09-09T10:58:23Z</time>
      </trkpt>
      <trkpt lat="39.91226895706425" lon="116.15886280148831">
        <ele>80.2403564453125</ele>
        <time>2026-09-09T10:58:29Z</time>
      </trkpt>
      <trkpt lat="39.91191769776631" lon="116.15708887602784">
        <ele>79.30364990234375</ele>
        <time>2026-09-09T11:02:02Z</time>
      </trkpt>
      <trkpt lat="39.91183796910814" lon="116.15669077392945">
        <ele>78.7603759765625</ele>
        <time>2026-09-09T11:02:23Z</time>
      </trkpt>
      <trkpt lat="39.911787542128565" lon="116.15645712816641">
        <ele>78.0970458984375</ele>
        <time>2026-09-09T11:02:35Z</time>
      </trkpt>
      <trkpt lat="39.91165018177155" lon="116.15625758894332">
        <ele>75.7076416015625</ele>
        <time>2026-09-09T11:02:53Z</time>
      </trkpt>
      <trkpt lat="39.91165603439331" lon="116.15617736453018">
        <ele>76.596923828125</ele>
        <time>2026-09-09T11:03:02Z</time>
      </trkpt>
      <trkpt lat="39.91177439727993" lon="116.15637790881978">
        <ele>77.47015380859375</ele>
        <time>2026-09-09T11:03:14Z</time>
      </trkpt>
      <trkpt lat="39.911889489940734" lon="116.15643104250854">
        <ele>77.771484375</ele>
        <time>2026-09-09T11:03:20Z</time>
      </trkpt>
      <trkpt lat="39.91217759737985" lon="116.15649618788446">
        <ele>75.22381591796875</ele>
        <time>2026-09-09T11:03:35Z</time>
      </trkpt>
      <trkpt lat="39.91247068807641" lon="116.15655230747637">
        <ele>75.15399169921875</ele>
        <time>2026-09-09T11:03:47Z</time>
      </trkpt>
      <trkpt lat="39.912660774536654" lon="116.15659540177163">
        <ele>74.129150390625</ele>
        <time>2026-09-09T11:03:56Z</time>
      </trkpt>
      <trkpt lat="39.91297067428502" lon="116.15655625533716">
        <ele>73.84686279296875</ele>
        <time>2026-09-09T11:04:11Z</time>
      </trkpt>
      <trkpt lat="39.91328861481236" lon="116.15653114509371">
        <ele>75.5296630859375</ele>
        <time>2026-09-09T11:04:29Z</time>
      </trkpt>
      <trkpt lat="39.91359358904926" lon="116.15652408687008">
        <ele>81.31219482421875</ele>
        <time>2026-09-09T11:04:44Z</time>
      </trkpt>
      <trkpt lat="39.913909546265565" lon="116.15650800206832">
        <ele>86.6976318359375</ele>
        <time>2026-09-09T11:04:59Z</time>
      </trkpt>
      <trkpt lat="39.91425852420201" lon="116.15650394666532">
        <ele>82.34552001953125</ele>
        <time>2026-09-09T11:05:14Z</time>
      </trkpt>
      <trkpt lat="39.91436452894678" lon="116.15650894722866">
        <ele>79.4561767578125</ele>
        <time>2026-09-09T11:05:20Z</time>
      </trkpt>
      <trkpt lat="39.914439487128305" lon="116.15648787896616">
        <ele>76.80908203125</ele>
        <time>2026-09-09T11:05:26Z</time>
      </trkpt>
      <trkpt lat="39.914466371863114" lon="116.15642570208068">
        <ele>76.38909912109375</ele>
        <time>2026-09-09T11:05:29Z</time>
      </trkpt>
      <trkpt lat="39.91450828727824" lon="116.15638057087828">
        <ele>76.6702880859375</ele>
        <time>2026-09-09T11:05:32Z</time>
      </trkpt>
      <trkpt lat="39.91465125550285" lon="116.15636651360266">
        <ele>76.686279296875</ele>
        <time>2026-09-09T11:05:44Z</time>
      </trkpt>
      <trkpt lat="39.91471530249923" lon="116.15639358101879">
        <ele>76.40032958984375</ele>
        <time>2026-09-09T11:05:50Z</time>
      </trkpt>
      <trkpt lat="39.91476225267776" lon="116.15636750233764">
        <ele>75.38818359375</ele>
        <time>2026-09-09T11:05:56Z</time>
      </trkpt>
      <trkpt lat="39.914810258021554" lon="116.15637150744513">
        <ele>75.01153564453125</ele>
        <time>2026-09-09T11:06:02Z</time>
      </trkpt>
      <trkpt lat="39.91482036618458" lon="116.15643067122296">
        <ele>74.0518798828125</ele>
        <time>2026-09-09T11:06:05Z</time>
      </trkpt>
      <trkpt lat="39.91479446852141" lon="116.1564858283985">
        <ele>74.3831787109375</ele>
        <time>2026-09-09T11:06:08Z</time>
      </trkpt>
      <trkpt lat="39.91455266467219" lon="116.15658714170338">
        <ele>73.2230224609375</ele>
        <time>2026-09-09T11:06:23Z</time>
      </trkpt>
      <trkpt lat="39.91451273266144" lon="116.15662324753681">
        <ele>73.30322265625</ele>
        <time>2026-09-09T11:06:26Z</time>
      </trkpt>
      <trkpt lat="39.91449984558297" lon="116.1566844199511">
        <ele>73.1650390625</ele>
        <time>2026-09-09T11:06:29Z</time>
      </trkpt>
      <trkpt lat="39.91457859274809" lon="116.15709255022713">
        <ele>72.4371337890625</ele>
        <time>2026-09-09T11:06:47Z</time>
      </trkpt>
      <trkpt lat="39.914701250491675" lon="116.157452541543">
        <ele>72.53778076171875</ele>
        <time>2026-09-09T11:07:02Z</time>
      </trkpt>
      <trkpt lat="39.91472948771169" lon="116.15758189999711">
        <ele>72.54254150390625</ele>
        <time>2026-09-09T11:07:08Z</time>
      </trkpt>
      <trkpt lat="39.91488911171858" lon="116.15792383735834">
        <ele>72.41668701171875</ele>
        <time>2026-09-09T11:07:26Z</time>
      </trkpt>
      <trkpt lat="39.91500475496074" lon="116.15827480640637">
        <ele>72.1185302734375</ele>
        <time>2026-09-09T11:07:41Z</time>
      </trkpt>
      <trkpt lat="39.915147421897345" lon="116.1586388094263">
        <ele>72.6207275390625</ele>
        <time>2026-09-09T11:07:56Z</time>
      </trkpt>
      <trkpt lat="39.91521880667788" lon="116.15884838866123">
        <ele>74.7125244140625</ele>
        <time>2026-09-09T11:08:05Z</time>
      </trkpt>
      <trkpt lat="39.91519796904096" lon="116.15893563625596">
        <ele>74.74896240234375</ele>
        <time>2026-09-09T11:08:11Z</time>
      </trkpt>
      <trkpt lat="39.91508011509128" lon="116.15901186519685">
        <ele>73.8092041015625</ele>
        <time>2026-09-09T11:08:23Z</time>
      </trkpt>
      <trkpt lat="39.91506315108413" lon="116.15903092085495">
        <ele>73.1629638671875</ele>
        <time>2026-09-09T11:08:44Z</time>
      </trkpt>
      <trkpt lat="39.91561642865227" lon="116.16027133886568">
        <ele>71.32763671875</ele>
        <time>2026-09-09T11:10:53Z</time>
      </trkpt>
      <trkpt lat="39.91564060276146" lon="116.16036560117365">
        <ele>70.95599365234375</ele>
        <time>2026-09-09T11:10:59Z</time>
      </trkpt>
      <trkpt lat="39.9157652070269" lon="116.16069350884725">
        <ele>69.52447509765625</ele>
        <time>2026-09-09T11:11:17Z</time>
      </trkpt>
      <trkpt lat="39.91591784972287" lon="116.16104247276272">
        <ele>71.01104736328125</ele>
        <time>2026-09-09T11:11:35Z</time>
      </trkpt>
      <trkpt lat="39.916037453172784" lon="116.1613693791169">
        <ele>70.4593505859375</ele>
        <time>2026-09-09T11:11:50Z</time>
      </trkpt>
      <trkpt lat="39.9161410856755" lon="116.16171133028229">
        <ele>70.47314453125</ele>
        <time>2026-09-09T11:12:05Z</time>
      </trkpt>
      <trkpt lat="39.91628173568692" lon="116.16206330541888">
        <ele>68.52099609375</ele>
        <time>2026-09-09T11:12:23Z</time>
      </trkpt>
      <trkpt lat="39.916455347272844" lon="116.1623952201202">
        <ele>68.9632568359375</ele>
        <time>2026-09-09T11:12:38Z</time>
      </trkpt>
      <trkpt lat="39.916560051830714" lon="116.16277527968528">
        <ele>65.1868896484375</ele>
        <time>2026-09-09T11:12:56Z</time>
      </trkpt>
      <trkpt lat="39.91660229705608" lon="116.16290764805552">
        <ele>64.7532958984375</ele>
        <time>2026-09-09T11:13:02Z</time>
      </trkpt>
      <trkpt lat="39.91670699643409" lon="116.1632846994996">
        <ele>66.7913818359375</ele>
        <time>2026-09-09T11:13:17Z</time>
      </trkpt>
      <trkpt lat="39.916735126307636" lon="116.1633548941798">
        <ele>68.00140380859375</ele>
        <time>2026-09-09T11:13:20Z</time>
      </trkpt>
      <trkpt lat="39.91674339932034" lon="116.1635013066202">
        <ele>70.515380859375</ele>
        <time>2026-09-09T11:13:35Z</time>
      </trkpt>
      <trkpt lat="39.916838123868665" lon="116.16389139645243">
        <ele>72.85791015625</ele>
        <time>2026-09-09T11:13:56Z</time>
      </trkpt>
      <trkpt lat="39.916914575869505" lon="116.16413507513258">
        <ele>72.8428955078125</ele>
        <time>2026-09-09T11:14:08Z</time>
      </trkpt>
      <trkpt lat="39.91696527822235" lon="116.16451213387931">
        <ele>71.53558349609375</ele>
        <time>2026-09-09T11:14:29Z</time>
      </trkpt>
      <trkpt lat="39.916974989913626" lon="116.16489320916683">
        <ele>70.271240234375</ele>
        <time>2026-09-09T11:14:47Z</time>
      </trkpt>
      <trkpt lat="39.91694975375946" lon="116.165301365327">
        <ele>68.69281005859375</ele>
        <time>2026-09-09T11:15:05Z</time>
      </trkpt>
      <trkpt lat="39.91693932210855" lon="116.16560522493748">
        <ele>68.54583740234375</ele>
        <time>2026-09-09T11:15:17Z</time>
      </trkpt>
      <trkpt lat="39.916949009579845" lon="116.16597326317968">
        <ele>68.50457763671875</ele>
        <time>2026-09-09T11:15:32Z</time>
      </trkpt>
      <trkpt lat="39.91695974383206" lon="116.1663663719039">
        <ele>69.2794189453125</ele>
        <time>2026-09-09T11:15:47Z</time>
      </trkpt>
      <trkpt lat="39.91697517047969" lon="116.16659501549829">
        <ele>70.3175048828125</ele>
        <time>2026-09-09T11:15:56Z</time>
      </trkpt>
      <trkpt lat="39.91695658351965" lon="116.16681564064268">
        <ele>67.99749755859375</ele>
        <time>2026-09-09T11:16:05Z</time>
      </trkpt>
      <trkpt lat="39.916969886514046" lon="116.16697809750163">
        <ele>68.37542724609375</ele>
        <time>2026-09-09T11:16:11Z</time>
      </trkpt>
      <trkpt lat="39.91696561734534" lon="116.16736920167219">
        <ele>68.5064697265625</ele>
        <time>2026-09-09T11:16:26Z</time>
      </trkpt>
      <trkpt lat="39.91693733212573" lon="116.16775128300682">
        <ele>65.69342041015625</ele>
        <time>2026-09-09T11:16:41Z</time>
      </trkpt>
      <trkpt lat="39.91695909699883" lon="116.16816143672398">
        <ele>66.72064208984375</ele>
        <time>2026-09-09T11:16:56Z</time>
      </trkpt>
      <trkpt lat="39.91697990275291" lon="116.16859365212866">
        <ele>68.8968505859375</ele>
        <time>2026-09-09T11:17:11Z</time>
      </trkpt>
      <trkpt lat="39.916964651619764" lon="116.16899478381885">
        <ele>67.49798583984375</ele>
        <time>2026-09-09T11:17:26Z</time>
      </trkpt>
      <trkpt lat="39.91696139583539" lon="116.16939390765133">
        <ele>63.8505859375</ele>
        <time>2026-09-09T11:17:41Z</time>
      </trkpt>
      <trkpt lat="39.91694183017908" lon="116.16962656463362">
        <ele>62.87054443359375</ele>
        <time>2026-09-09T11:17:50Z</time>
      </trkpt>
      <trkpt lat="39.91697858691343" lon="116.17003370473756">
        <ele>65.93359375</ele>
        <time>2026-09-09T11:18:05Z</time>
      </trkpt>
      <trkpt lat="39.91697489134167" lon="116.17019716454429">
        <ele>68.03057861328125</ele>
        <time>2026-09-09T11:18:11Z</time>
      </trkpt>
      <trkpt lat="39.916938021655945" lon="116.17026636359564">
        <ele>69.11151123046875</ele>
        <time>2026-09-09T11:18:14Z</time>
      </trkpt>
      <trkpt lat="39.91681608646342" lon="116.17029846912502">
        <ele>67.927734375</ele>
        <time>2026-09-09T11:18:20Z</time>
      </trkpt>
      <trkpt lat="39.916522076354866" lon="116.17028647240917">
        <ele>69.19586181640625</ele>
        <time>2026-09-09T11:18:35Z</time>
      </trkpt>
      <trkpt lat="39.91623117435839" lon="116.17033263868393">
        <ele>70.7249755859375</ele>
        <time>2026-09-09T11:18:50Z</time>
      </trkpt>
      <trkpt lat="39.916069127026454" lon="116.17030357743582">
        <ele>68.77197265625</ele>
        <time>2026-09-09T11:18:59Z</time>
      </trkpt>
      <trkpt lat="39.91577218424775" lon="116.170327682498">
        <ele>69.70166015625</ele>
        <time>2026-09-09T11:19:14Z</time>
      </trkpt>
      <trkpt lat="39.915464219550536" lon="116.17033975514587">
        <ele>69.91839599609375</ele>
        <time>2026-09-09T11:19:29Z</time>
      </trkpt>
      <trkpt lat="39.9151422069416" lon="116.17032575632939">
        <ele>68.270263671875</ele>
        <time>2026-09-09T11:19:44Z</time>
      </trkpt>
      <trkpt lat="39.91491020549133" lon="116.17031976869258">
        <ele>67.35443115234375</ele>
        <time>2026-09-09T11:19:56Z</time>
      </trkpt>
      <trkpt lat="39.91481314799076" lon="116.17028668797715">
        <ele>65.80010986328125</ele>
        <time>2026-09-09T11:20:02Z</time>
      </trkpt>
      <trkpt lat="39.91449229397079" lon="116.17035792844032">
        <ele>67.3218994140625</ele>
        <time>2026-09-09T11:20:17Z</time>
      </trkpt>
      <trkpt lat="39.91418731054331" lon="116.17035997254163">
        <ele>70.55133056640625</ele>
        <time>2026-09-09T11:20:32Z</time>
      </trkpt>
      <trkpt lat="39.9138892111493" lon="116.17029984113788">
        <ele>69.77001953125</ele>
        <time>2026-09-09T11:20:47Z</time>
      </trkpt>
      <trkpt lat="39.91358922753742" lon="116.17030188460886">
        <ele>70.03369140625</ele>
        <time>2026-09-09T11:21:02Z</time>
      </trkpt>
      <trkpt lat="39.91331923707306" lon="116.17030091584573">
        <ele>71.27752685546875</ele>
        <time>2026-09-09T11:21:14Z</time>
      </trkpt>
      <trkpt lat="39.91312130701666" lon="116.17033403376333">
        <ele>69.88739013671875</ele>
        <time>2026-09-09T11:21:23Z</time>
      </trkpt>
      <trkpt lat="39.91309647225614" lon="116.17042228473976">
        <ele>69.764892578125</ele>
        <time>2026-09-09T11:21:32Z</time>
      </trkpt>
      <trkpt lat="39.9131202004239" lon="116.17081438240936">
        <ele>68.99566650390625</ele>
        <time>2026-09-09T11:21:47Z</time>
      </trkpt>
      <trkpt lat="39.91310036156279" lon="116.17090062687512">
        <ele>68.4759521484375</ele>
        <time>2026-09-09T11:21:53Z</time>
      </trkpt>
      <trkpt lat="39.91311848193381" lon="116.17096580743895">
        <ele>68.482666015625</ele>
        <time>2026-09-09T11:21:59Z</time>
      </trkpt>
      <trkpt lat="39.91308873659132" lon="116.17110219367845">
        <ele>69.58203125</ele>
        <time>2026-09-09T11:22:11Z</time>
      </trkpt>
      <trkpt lat="39.91312128087552" lon="116.17139601320078">
        <ele>68.3404541015625</ele>
        <time>2026-09-09T11:22:35Z</time>
      </trkpt>
      <trkpt lat="39.913122028873" lon="116.17179914217726">
        <ele>69.52728271484375</ele>
        <time>2026-09-09T11:22:59Z</time>
      </trkpt>
      <trkpt lat="39.91311723548788" lon="116.17191045433746">
        <ele>71.5823974609375</ele>
        <time>2026-09-09T11:23:05Z</time>
      </trkpt>
      <trkpt lat="39.91317906534451" lon="116.17235970306423">
        <ele>66.50006103515625</ele>
        <time>2026-09-09T11:23:29Z</time>
      </trkpt>
      <trkpt lat="39.91311375671098" lon="116.17273175067525">
        <ele>65.2825927734375</ele>
        <time>2026-09-09T11:23:44Z</time>
      </trkpt>
      <trkpt lat="39.913101506227534" lon="116.17313688277311">
        <ele>67.585205078125</ele>
        <time>2026-09-09T11:24:14Z</time>
      </trkpt>
      <trkpt lat="39.91314012310617" lon="116.17347181152245">
        <ele>67.52728271484375</ele>
        <time>2026-09-09T11:24:29Z</time>
      </trkpt>
      <trkpt lat="39.91312730870137" lon="116.17357209247162">
        <ele>68.1485595703125</ele>
        <time>2026-09-09T11:24:32Z</time>
      </trkpt>
      <trkpt lat="39.91313743037521" lon="116.17363827550798">
        <ele>69.35650634765625</ele>
        <time>2026-09-09T11:24:35Z</time>
      </trkpt>
      <trkpt lat="39.91309558196022" lon="116.17371950692734">
        <ele>68.14678955078125</ele>
        <time>2026-09-09T11:24:38Z</time>
      </trkpt>
      <trkpt lat="39.91304688352777" lon="116.1738819651757">
        <ele>69.2176513671875</ele>
        <time>2026-09-09T11:24:44Z</time>
      </trkpt>
      <trkpt lat="39.91306429111032" lon="116.17410357935974">
        <ele>69.50762939453125</ele>
        <time>2026-09-09T11:24:53Z</time>
      </trkpt>
      <trkpt lat="39.91303455640505" lon="116.17424698169084">
        <ele>69.8521728515625</ele>
        <time>2026-09-09T11:24:59Z</time>
      </trkpt>
      <trkpt lat="39.91301527293988" lon="116.17463606459263">
        <ele>71.28857421875</ele>
        <time>2026-09-09T11:25:11Z</time>
      </trkpt>
      <trkpt lat="39.913053901308864" lon="116.17497901085142">
        <ele>70.53350830078125</ele>
        <time>2026-09-09T11:25:23Z</time>
      </trkpt>
      <trkpt lat="39.9130490229989" lon="116.17504519487754">
        <ele>67.430419921875</ele>
        <time>2026-09-09T11:25:35Z</time>
      </trkpt>
      <trkpt lat="39.91306849297824" lon="116.17915347743761">
        <ele>69.171875</ele>
        <time>2026-09-09T11:28:35Z</time>
      </trkpt>
      <trkpt lat="39.913052178600516" lon="116.17953451490318">
        <ele>67.341064453125</ele>
        <time>2026-09-09T11:28:56Z</time>
      </trkpt>
      <trkpt lat="39.9130778681003" lon="116.17991955580862">
        <ele>65.96343994140625</ele>
        <time>2026-09-09T11:29:11Z</time>
      </trkpt>
      <trkpt lat="39.913057410957414" lon="116.18022237797796">
        <ele>60.53057861328125</ele>
        <time>2026-09-09T11:29:23Z</time>
      </trkpt>
      <trkpt lat="39.91309216871454" lon="116.18064752190878">
        <ele>62.6456298828125</ele>
        <time>2026-09-09T11:29:35Z</time>
      </trkpt>
      <trkpt lat="39.91312729952644" lon="116.18072171761214">
        <ele>63.11883544921875</ele>
        <time>2026-09-09T11:29:38Z</time>
      </trkpt>
      <trkpt lat="39.91321644764273" lon="116.18080693616433">
        <ele>65.618896484375</ele>
        <time>2026-09-09T11:29:44Z</time>
      </trkpt>
      <trkpt lat="39.913266434810815" lon="116.18080091366545">
        <ele>64.64263916015625</ele>
        <time>2026-09-09T11:29:47Z</time>
      </trkpt>
      <trkpt lat="39.913356484593784" lon="116.18083098341162">
        <ele>67.28265380859375</ele>
        <time>2026-09-09T11:29:53Z</time>
      </trkpt>
      <trkpt lat="39.91367447473515" lon="116.18083294883819">
        <ele>68.80316162109375</ele>
        <time>2026-09-09T11:30:23Z</time>
      </trkpt>
      <trkpt lat="39.9138134706551" lon="116.18083393406555">
        <ele>67.5147705078125</ele>
        <time>2026-09-09T11:30:35Z</time>
      </trkpt>
      <trkpt lat="39.913875437675514" lon="116.18081688033921">
        <ele>67.644287109375</ele>
        <time>2026-09-09T11:30:41Z</time>
      </trkpt>
      <trkpt lat="39.913896531442774" lon="116.18087002088355">
        <ele>67.615966796875</ele>
        <time>2026-09-09T11:30:47Z</time>
      </trkpt>
      <trkpt lat="39.913885200728025" lon="116.18124603418731">
        <ele>65.9805908203125</ele>
        <time>2026-09-09T11:31:05Z</time>
      </trkpt>
      <trkpt lat="39.91387551979468" lon="116.18142551759396">
        <ele>64.3553466796875</ele>
        <time>2026-09-09T11:31:17Z</time>
      </trkpt>
    </trkseg>
  </trk>
</gpx>